address,company_logo,company_name,company_url,email_address,key_clients,lawyers,phone_number,practice_heads,website
Bougartchev Moyne Associés    4 PLACE SAINT THOMAS D’AQUIN        75007 PARIS                France,https://www.legal500.com/wp-content/uploads/assets/client/firm_logo/18256.jpg?v=1580315490, Bougartchev Moyne Associés ,,kbougartchev@bougartchev-moyne.com,,, 33 1 42 84 87 77,Kiril Bougartchev;Emmanuel Moyne;Kiril Bougartchev;Emmanuel Moyne;Kiril Bougartchev;Emmanuel Moyne,http://www.bougartchev-moyne.com
Borrel Avocats    70 BIS RUE DE L'UNIVERSITE        75007 PARIS                France,https://www.legal500.com/wp-content/uploads/assets/client/firm_logo/17866.jpg?v=1580315487, Borrel Avocats ,,contact@cabinetborrel.com,, Laurence Borrel-Prat, 33 1 53 63 47 60,Laurence Borrel-Prat,https://www.cabinetborrel.com
BL &amp; Associés    15 RUE DE VÉZELAY        75008 PARIS                France,https://www.legal500.com/wp-content/uploads/assets/client/firm_logo/14874.jpg?v=1580315467, BL & Associés ,,cabinet@bl-avocats.com,,, 33 1 53 30 72 72,,http://www.bl-avocats.com
Bochamp    57 AVENUE FRANKLIN D. ROOSEVELT        75008 PARIS                France,https://www.legal500.com/wp-content/uploads/assets/client/firm_logo/17536.jpg?v=1580315485, Bochamp ,,contact@bochamp.com,, SIMON AZAN ;Mr Nicolas Demard;Mr François Gery; Yasong Lin; JÉRÔME PITON ; Corentine TOURRES , 33 1 75 77 31 80,,http://www.bochamp.com
Bichot &amp; Associés    2 AVENUE HOCHE        75008 PARIS                France,https://www.legal500.com/wp-content/uploads/assets/client/firm_logo/15004.jpg?v=1580315469, Bichot & Associés ,,contact@bichot-associes.com,Generali;Société Générale;Bpifrance;Vattenfall;Caisse des dépôts et consignations;Nethys;Cristal Union;VMC;MKE;Investissements;Financière SAF;Aristote;Investments;MBO Partenaires;Gimv;Séance Publique;Amélie Maison;d’Huîtres;Eudonet,, 33 1 80 05 98 00,Nicolas Bichot,https://www.bichot-associes.com
BG2V    40/42 RUE LA BOÉTIE        75008 PARIS                France,https://www.legal500.com/wp-content/uploads/assets/client/firm_logo/16874.jpg?v=1580315479, BG2V ,,contact@bg2v.com,ALTRAN TECHNOLOGIES;NESTLE FRANCE AND ITS SUBSIDIARIES;NESTLE WATERS;CRIT;ALTRAN;DROUOT;FABERNOVEL;DRT;IMMO DE FRANCE;ADVENT INTERNATIONAL;FREUDENBERG FILTRATION TECHNOLOGIES;GROUPE PAS A PAS – KPF;NOLAROADS;EXPERIENCED CAPITAL;TEADS;AEW;AXA;BABILOU;BOUYGUES IMMOBILIER;BPIFRANCE;CAISSE DES DEPOTS ET CONSIGNATIONS;COLLIERS;CONSTRUCTA;PREDICA;DEUTSCHE BANK;ELECTROLUX;EXANE;GDG INVESTISSEMENTS;GROUPE DUVAL;ICADE;ICAM School;IMMOVALOR GESTION;JLL (JONES LANG LASALLE);KEYS REIM;LOGICOR;MOUNTPARK PROPERTIES;MUREX;SCAPRIM;SCHRODERS;SCIENCES PO;TH REAL ESTATE;VAILOG;VIRTUO;WEINBERG CAPITAL PARTNERS;METROPOLE TELEVISION (M6);CAISSE DES DEPOTS ET CONSIGNATIONS;MOVE PUBLISHING;PLEIADE INVESTMENT;RGREEN;NEWFUND;INNOVAFONDS;SIPAREX;GENERALE DU SOLAIRE;NEXTSTAGE SCA;GROUPE FAYAT;DROUOT;KPH;SOPIC;GENETEC;GROUPE FAUBOURG;PHYSITEK DEVICES;EASIWARE;ELEPHANT AT WORK;CA C’EST PARIS;POTAGER CITY;Vente-Unique.com;Aéroplast Industries;Serveurcom;CAFOM SA;Groupe Sartorius;La Cabane des Bambins;Groupe Divalto;ACADEMAIL;Colliers International;Dunlop Goodyear;Finimmo Invest;Groupe Scaff;Sepimo;Sopic;Wesharebonds,Mr Karim BEYLOUNI , 33 1 48 88 60 60,"Karim Beylouni;Julien Vernet;Xavier Carbassel Roland Gueny,  Julien Vernet;Camille de Verdelhan;Guillaume de Saint Sernin;Quentin Leroux;Hervé de Kervasdoué;Roland Guén;Stanislas Richoillez;Camille de Verdelhan;Jérôme Albertin;Jean-Marc Valot;Jean-Sébastien Dumont",http://www.bg2v.com
Bersay    31 AVENUE HOCHE        75008 PARIS                France,https://www.legal500.com/wp-content/uploads/assets/client/firm_logo/10784.jpg?v=1585146149, Bersay ,,contact@bersay-associes.com,ENR’CERT;Ct Corse;Syndicat mixte Gers Numérique;SASU Arteria;CDC Habitat;EPARI;Eurometropole de Strasbourg;Pyrenees-Atlantiques SMO;Syndicat intercommunal de l’energie et de l’e-communication de l’Ain;Sarthe Numérique SMO;CT CORSE;SYNDICAT MIXTE GERS NUMERIQUE;SASU ARTERIA;EPARI;EUROMETROPOLE DE STRASBOURG;PYRENEES-ATLANTIQUES SMO;SYNDICAT INTERCOMMUNAL DE L’ENERGIE ET;DE L’E-COMMUNICATION DE L’AIN;SARTHE NUMERIQUE SMO;PMU;CDC Habitat;ENR’CERT;Promeco;LinkByNet;Acasta;Oddo BHF;Fresh Food Village;Lito Ventures;FIFA;Drake Star;MBD Technologies;Buffalo Grill;Worlds Apart;Edmond de Rothschild;Bureau Veritas;LinkByNet;Lito Ventures (Beaux Arts & Cie);Martek;Mobilitex;NV Gallery;Transatel;Adveo France;Europlasma SA;Little extra;Vigilia Sécurité Privée;Martek SA;Linkbynet;Bureau Veritas;NV Gallery;Mobilitex;Lito Ventures (Beaux Arts & Cie);Transatel,, 33 1 56 88 30 00,Martin Tissier;Claire Poirson;Stéphanie Benmoussa-Molkhou;Martin Tissier ;Jérôme Bersay;Frédéric Flatrès;Mathilde Cousteau;Nathalie Cerqueira;Anne-Lise Puget;Claire Poirson;Martin Tissier;Stéphanie Benmoussa-Molkhou;Dimitri-André Sonier;Alain Jouan,http://www.bersay-associes.com
BDGS Associés    51 RUE FRANCOIS 1ER        75008 PARIS                France,https://www.legal500.com/wp-content/uploads/assets/client/firm_logo/16693.jpg?v=1580315478, BDGS Associés ,,contact@bdgs-associes.com,Carrefour;SNCF;La Poste;La Banque Postale;BPCE;Crédit Mutuel;Société Générale;Crédit Agricole;BNP Paribas;Thales;Safran;Predica;Transdev;CMA CGM;OpenGate Capital;Bpifrance;Ceva Santé Animale;Groupe Canal+;ENGIE;Cybergun;Bouygues Telecom;Bpifrance;Carrefour;Crédit Agricole Assurances;EDF;Groupe La Poste;Groupama;Safran;SNCF;Transdev;Opengate Capital;Tikehau Capital;Butler Industries;Mac Arthur Glen;LFPI;Sagax;Boardriders;Crédit Agricole Assurances (Predica);Groupama;SNCF;La Banque Postale;EDF;Bouygues Telecom,Mr François Baylion ;Mr Antoine Bonnasse ;Ms Mathilde Damon ;Mr Youssef Djehane ; Jérôme Fabre; Lucile Gaillard ;Mr Antoine Gosset-Grainville ;Mr Guillaume Jolly ; Kyum Lee;Mr Marc Loy ;Mr Thomas Meli ; Jean-Emmanuel Skovron ; Maria Trabucchi , 33 1 42 99 22 22,Antoine Gosset-Grainville;Maria Trabucchi;Kyum Lee;Antoine Bonnasse;Youssef Djehane;Jean-Emmanuel Skovron;Marc Loy;Guillaume Jolly,http://www.bdgs-associes.com
"Bardehle Pagenberg    AVOCATS AU BARREAU DE PARIS    SO SQUARE OPÉRA, 5 RUE BOUDREAU    75009 PARIS                France",https://www.legal500.com/wp-content/uploads/assets/client/firm_logo/11431.jpg?v=1580315452, Bardehle Pagenberg ,,info@bardehle.fr,BMW;H&M;Diesel;Pandora;Red.com;Van’s;Yum! Brands;Lactalis Group;Ferring Pharmaceuticals;easyGroup Ltd;Free/Free Mobile/Iliad;Parrot,Ms Rebecca Delorey ; Julien Fréneaux, 33 1 53 05 15 00,Rebecca Delorey;Julien Fréneaux,https://www.bardehle.com
Baro Alto    4 PLACE DE L'OPERA                    75002    France,https://www.legal500.com/wp-content/uploads/assets/client/firm_logo/17447.jpg?v=1580315485, Baro Alto ,,aal@baroalto.com,,Me GERALDINE BRASIER PORTERIE ;Me Pierrick JUPILE-BOISVERD ;Me Caroline Joly , +33 (0)1 44 69 89 40,Géraldine Brasier-Porterie;Caroline Joly;Pierrick Jupile-Boisverd;Caroline Joly,http://www.baroalto.com
Betto Perben Pradel Filhol    41 Avenue de Friedland        75008 PARIS                France,https://www.legal500.com/wp-content/uploads/assets/client/firm_logo/16529.jpg?v=1587048836, Betto Perben Pradel Filhol ,,jean-georges.betto@bettoseraglini.com,, Jean-Georges Betto; Gaëlle Filhol; Dominique Perben  ; Martin Pradel  ; Alexandre Reynaud, 00 33 1 40 55 38 77,Jean-Georges Betto;Gaëlle Filhol;Alexandre Reynaud,http://www.bettoseraglini.com
Benoliel Avocats    118 LA BOETIE        75008 PARIS                France,https://www.legal500.com/wp-content/uploads/assets/client/firm_logo/17029.jpg?v=1581413424, Benoliel Avocats ,,ba@benoliel-avocats.com,GROUPE TF1;ETABLISSEMENTS GABRIEL BOUDIER;GROUPE FUNECAP TOPCO;LOLA JAMES HARPER;TECHNOPHARMA LIMITED;GROUPE TF1;ETABLISSEMENTS GABRIEL BOUDIER;GROUPE FUNECAP TOPCO;LOLA JAMES HARPER;TECHNOPHARMA LIMITED,Maitre Sylvie BENOLIEL-CLAUX ;Ms Anne-Sophie LEROI;Maitre Clara VIGUIE , +33 1 45 61 38 00,Sylvie Benoliel-Claux;Sylvie Benoliel-Claux,http://www.benoliel-avocats.com
BCTG Avocats    14 AVENUE GOURGAUD        75017 PARIS                France,https://www.legal500.com/wp-content/uploads/assets/client/firm_logo/11668.jpg?v=1580315453, BCTG Avocats ,,c.broyet@bctg-avocats.com,GROUPE EDF RENOUVELABLES;VALOREM;TOTAL EREN;WPD;VSB ENERGIES NOUVELLES;JPEE;VOLTALIA;NIKE;Converse Inc. / ALL STAR C.V;STADA Arzneimittel AG / EG LABO;Uber;GROUPE EDF RENOUVELABLES;NEWMONT MINING;TOTAL EREN;VINCI ENVIRONNEMNET;VINCI CONSTRUCTION;VALOREM;WPD;VSB ENERGIES NOUVELLES;JPEE;VOLTALIA;Caudalie;STADA (EG Labo);Teva Santé;Johnson & Johnson Santé Beauté France;Genethon;Reckitt Benckiser;Boehringer Ingelheim;Biocodex;Céva Santé Animale;Genosafe;EDF RENOUVELABLES;NEWMONT MINING;TOTAL EREN;VINCI ENVIRONNEMNET;VINCI CONSTRUCTION;VALOREM;WPD;VSB ENERGIES NOUVELLES;JPEE;VOLTALIA,, 33 1 44 15 61 00,Paul Elfassi;Catherine Dupuy-Burin des Roziers;Diane Mouratoglou;Gaëlle Bloret-Pucci;Paul Elfassi;Hugues Villey-Desmeserets;Paul Elfassi;Sabine de Paillerets,http://www.bctg-avocats.com
"Barbier Legal    64, RUE DE MIROMESNIL        75008 PARIS                France",https://www.legal500.com/wp-content/uploads/assets/client/firm_logo/17870.jpg?v=1580315487, Barbier Legal ,,contact@barbier.legal,,, 33 1 85 09 71 08,Jérôme Barbier,http://www.barbier.legal
Wilhelm &amp; Associés    70 BOULEVARD DE COURCELLES        75017 PARIS                France,https://www.legal500.com/wp-content/uploads/assets/client/firm_logo/11603.jpg?v=1597242073, Wilhelm & Associés ,,cabwilhelm@wilhelmassocies.com,GROUPE CANAL +;GROUPE TELFRANCE;FRANCE CHANNELS;GROUPE CANAL +;CANAL + INTERNATIONAL;BETCLIC EVEREST;GROUPE FNAC DARTY;AMADEUS;GENERAL IMPORT;LEROY MERLIN;ZADIG & VOLTAIRE;NUXE;DOUGLAS – NOCIBE;CANAL +;BETCLIC EVEREST;ZADIG & VOLTAIRE;NUXE;NOCIBE;CAMAIEU;BANQUE HOTTINGUER;LEROY MERLIN;AMPLEGEST;FINANCIERE AMPLEGEST;TELFRANCE;CYRUS;RLCF;VALOTEL;ODAS;WILES VENTURES;LEROY MERLIN;CEETRUS;ETS SCHIEVER;DECATHLON;WELDOM;GROUPE DUVAL;FREY;IKEA;MCARTHURGLEN;FINANCIERE APSYS;KINEPOLIS;MEGARAMA;BRICOMAN;EIC TRANSACTION;MONOPRIX;HYPER U;SUPER U;LES ARCHES METROPOLES, Stéphanie Coen; Emilie DUMUR; Delphine D’ALBERT DES ESSARTS; Marie-Anne RENAUX ; Pascal WILHELM, 33 1 53 93 92 30,Pascal Wilhelm ;Pascal Wilhelm;Pascal Wilhelm;Marie-Anne Renaux;Delphine d’Albert des Essarts,https://www.wilhelmassocies.com
Bolze Associés    53 AVENUE VICTOR HUGO        75116 PARIS                France,https://www.legal500.com/wp-content/uploads/assets/client/firm_logo/14958.jpg?v=1580315468, Bolze Associés ,,contact@bolze-associes.com,,Maitre Ingrid BINET ;Maitre Eric BOLZE ;Maitre Alexandre CARTERET ;Maitre Tiphaine HUE ;Maitre Salomé KHANOYAN ;Maitre Florent PRISQUE , 33 1 56 43 65 40,,https://www.bolze-associes.com
Winston &amp; Strawn LLP    68 RUE DU FAUBOURG SAINT-HONORÉ        75008 PARIS                France,https://www.legal500.com/wp-content/uploads/assets/client/firm_logo/51080.jpg?v=1580315527, Winston & Strawn LLP ,,receptionpa@winston.com,"MNH;PointVision;Ramsay Générale de Santé;SC Johnson;Agefos PME;PrivatBank;Vert Marine;GEN BIO;Union Asset Management;Vivalto Santé;Biopath;Holding Portugal Luxembourg;Biopath;La Croix Rouge Française;Laboratoire ZTP;Mutuelle Nationale des Hospitaliers (MNH);PointVision;Ramsay Générale de Santé;Republic of Ecuador;Ministry of Justice of Ukraine;Sodexo;Atlas Holdings, Inc.;Banque Neuflize OBC;Carlsberg;Comcast;Dada Holdings LLC;GLL Real Estate Partners;Groupe Photosol;Hendrickson;Inovalis;Lear Corporation;MacLean Power;MNH;Nissan Europe SAS;PointVision;SC Johnson;SeLoger.com;Soitec More than;The Jordan Company, Inc.;Transcendia Inc.",Mr Gilles Bigot ; Aurelie Camard ; Nicola Di Giovanni ;Mr Jérôme Herbet ; Rim Khirddine ;Ms Maria Kostytska ; Jean-Patrice Labautière ; Mounir Letayf ;Ms Lefranc-Barthe Mathilde ; Virgile Puyau ;Ms Anne-Carine Ropars-Furet ; Stéphane Sabatier ; Sara Susnjar ; Julie Vern Cesano-Gouffrant , 33 1 53 64 82 82,Gilles Bigot;Gilles Bigot;Jérôme Herbet,https://www.winston.com
Weil &amp; Associés    26 AVENUE DE LA GRANDE ARMÉE        75017 PARIS                France,https://www.legal500.com/wp-content/uploads/assets/client/firm_logo/13160.jpg?v=1580315457, Weil & Associés ,,info@weil-paris.fr,,Ms Mathilde Houet-Weil;Maitre Patricia Vincent ;Maitre Bruno Weil ;Rechtsanwa Heinz Weil ;Maitre Eric Weil , 33 1 44 15 98 98,,https://www.weil-paris.fr
Villechenon    5 RUE DE LA BOÉTIE        75008 PARIS                France,https://www.legal500.com/wp-content/uploads/assets/client/firm_logo/16956.jpg?v=1580315480, Villechenon ,,contact@villechenon.com,Axa Venture Partners;CM-CIC Investissement;Cathay Innovation;Crocus;Ekinops;Gimv;Orange Digital Ventures;Prime Ventures;Serena Capital;WildBunch, Catherine Nahmias-Ferrandini , 33 1 42 68 81 30,Isabelle Burel-Blasoni;Morgan Hunault-Berret;Alexander Kotopoulis;Erwan Tostivint;Eric Hebras,http://www.villechenon.com
Villey Girard Grolleaud    15 AVENUE D'EYLAU        75116 PARIS                France,https://www.legal500.com/wp-content/uploads/assets/client/firm_logo/16536.jpg?v=1582633296, Villey Girard Grolleaud ,,pgirard@vggassocies.com,"EPC;Interiale / LMDE;Caisse des dépôts et consignation;Conforama;Française des Jeux;Groupe AB;Les Editions Rotatives (Charlie Hebdo);Rotana Jet Airline;LVMH;Neo Capital;Vallourec;LLSOLLU;Vallourec;Ethic Intelligence;Groupe AB;PSB Industries and Baikowski;Hachette Livre;Argon Consulting;Conforama;Bpifrance, Purple;Dévelopment and Almpatros;Caisse des Dépôts;Bpifrance Investissement;Clarins;Clarins;PSB Industries;Conforama;Financiere Haudecoeur",Ms Pascale Girard;Maitre Frédéric Grillier ;Maitre Yann Grolleaud ;Maitre Louis-Marie Pillebout ;Maitre Daniel Villey , 33 1 56 89 40 00,Daniel Villey;Louis-Marie Pillebout;Pascale Girard;Daniel Villey;Frédéric Grillier;Yann Grolleaud,https://www.vggassocies.com/fr
Vogel &amp; Vogel    30 AVENUE D'IÉNA        75116 PARIS                France,https://www.legal500.com/wp-content/uploads/assets/client/firm_logo/11262.jpg?v=1580315452, Vogel & Vogel ,,vogel@vogel-vogel.com,SNCF Mobilités/GEODIS;Renault;TF1;Bouygues;TF1;Alcyon;SALTO;Wane/UIPF;Digicel;PMT (Vodafone Polynesia),Mr Joseph Vogel ;Mr Louis Vogel , 33 1 53 67 76 20,Joseph Vogel;Louis Vogel;Juliette Blouet;Fernanda de Abreu;Laurence Boudailliez;Cécile Assémat;Charles Fahrner;Sylvain Corvol,https://www.vogel-vogel.com
Vivien &amp; Associés    3 RUE DE MONTTESSUY        75007 PARIS                France,https://www.legal500.com/wp-content/uploads/assets/client/firm_logo/11320.jpg?v=1582550746, Vivien & Associés ,,nicolas.vivien@va-fr.com,Mühlhaüser France;Total Specific Solution;PSB Industries;Rubix Group;Onepark SAS;Croix Rouge Française;Time Versalift SAS;OP.Serv – Rok Solution;Socialbakers;Shapr SAS;LK Bennett Ltd. and France SARL;Electrolux;Cyrus Capital;Comeca;Muhlhauser;Yara;BCBG Max Azria Group;Septodont;Overhead Door Corporation;La Poste Group;Schlumberger;NextiraOne;Akuo Energy;Amadeus IT Group;AP/HP;Assistance Publique-Hôpitaux de Paris;Arrow Electronics;Aryzta Group;Axereal;Babel;Baikowski;BVA;CCFA (Comité des Constructeurs Français d’Automobiles)°;Change;Cromology;Electrolux;EndemolShine;Engie;Eyrolles;Gazechim Group;Groupe La Poste;Le Coq Sportif;Les Cinémas Pathé Gaumont;Nelite;ONFI – Office National des Forêts International;OnePark;Pathé;PSB Industries;RATP;Rubix Group;Schlumberger;SGPA Technicolor;Total Specific Solutions Group;Total Webhosting Solutions;Union InVivo;Wessanen,Mme Laetitia Amzallag ;Mr Laurent Assaya ;Mme Emmanuelle Bouretz ;Mr Jérôme Chapus ;Mr Emmanuel Chauvet ;Mr Jacques Epstein ;Mme Judith Fargeot ;Mme Joëlle Hannelais ;Mme Marine Pelletier-Capes ;Mr Jean Reynaud ;Mme Marie-Emilie Rousseau-Brunel ;Mr Nicolas Vivien, 33 1 45 02 39 50,Emmanuelle Bouretz;Joëlle Hannelais;Marie-Emilie Rousseau-Brunel;Laurent Assaya;Nicolas Vivien;Judith Fargeot;Jacques Epstein;Laetitia Amzallag;Emmanuel Chauvet;Laurent Assaya;Simon Salter;Jérôme Chapus;Marine Pelletier-Capes,https://va-fr.com/
Veil Jourde    171 BOULEVARD HAUSSMANN                    75008 PARIS    France,https://www.legal500.com/wp-content/uploads/assets/client/firm_logo/13459.jpg?v=1580315459, Veil Jourde ,,p.masquet@veil.fr,"Société Générale;Total;Lagardère;Royal Bank of Canada Trust Company Limited;UBS AG;Didier Lombard;The Duke and Duchess of Cambridge;SNCF réseau & SNCF holding;Conseil national du notariat;ARDP;Autorité de régulation de la Distribution de la Presse;Canal Plus;Direct Energy;Artémis;Bureau national interprofessionnel du Cognac;Ville de Bayonne;Ileva;Société Générale;Total;Perfume subsidiaries of LVMH;Publicis;L’Oréal;Crédit Agricole Leasing & Factoring;Le Figaro;BPCE;Lagardère;Crédit Foncier;Aryes;Le Dôme, a well-known restaurant;Stéphane Gorrias, liquidator of 1855 – Arès / Héraclès;Fred Paris;Assofac;Lagardère;Jacquet Metal Service;Publicis;Delachaux;Vigeo;Crédit Agricole;Mazarine;Trail;Alès Groupe", Nicolas Brault ; Eric Deubel ; Pierre Deval ; Marie Errera ; François Esclatine; Nassim Ghalimi ; Emmanuel Glaser ; Benoît Gréteau ; Laurent Jobert ; Georges Jourde ; Hervé Pillard ; Véronique Prévôt-Leygonie ; Emmanuel Rosenfeld ; Géraud Saint Guilhem ; Pierre-François Veil; Jean Veil ; François de Navailles , 33 1 56 69 56 69,Jean Veil;Georges Jourde;Emmanuel Glaser;Jean Veil;Georges Jourde;Jean Veil;François Esclatine;André Dupont-Jubien;Georges Jourde;Nassim Ghalimi;Pierre Deval;François de Navailles;Géraud Saint Guilhem;Laurent Jobert,http://www.veil.fr
Valoris Avocats    14 Avenue Pierre Mendès-France    F-67300 Strasbourg-Schiltigheim                    France,https://www.legal500.com/wp-content/uploads/assets/client/firm_logo/233602.jpg?v=, Valoris Avocats ,,info@valoris-avocats.com,,Me Florence DREVET-WOLFF ;Me Xavier DUQUENNE ;Me Luc JULIEN-SAINT-AMAND ;Me Cécile PUIJALON-RADU ;Me Guillaume RUBECHI , +33 3 90 41 33 13,Florence Devret-Wolff;Xavier Duquenne;Luc Julien-Saint-Amand;Céline Puijalon-Radu;Guillaume Rubechi;Guillaume Rubechi;Luc Julien-Saint-Amand;Xavier Duquenne,https://valoris-avocats.com
"UGGC Avocats    47, RUE DE MONCEAU        75008 PARIS                France",https://www.legal500.com/wp-content/uploads/assets/client/firm_logo/11260.jpg?v=1583761948, UGGC Avocats ,,paris@uggc.com,"French Ministry of Culture;Château de Versailles Public Entity;Banque de France;SNCF Group;SEITA-Imperial Tobacco;Transdev;Spie Batignolles;Conair Group Inc.;Saint Gobain;Cité de la Musique – Philharmonie;Alliance Entreprendre;BPIfrance (French Public Bank);Advent France Biotechnoly;EDF Pulse Croissance;Caisse des dépôts et consignations (CDC);Isatis Capital;Entrepreneur Venture;Consorts Giacometti / Berthoud;Jean Paul Gaultier;Crédit Agricole Immobilier;Colas;Anne Frank Fonds;Johnson Outdoors;Arthurimmo;ESMOD;Paylead;AB SAGAX;CARLYLE REAL ESTATE;RED TREE CAPITAL;SNCF;The French State;CAISSE DES DEPÔTS ET CONSIGNATIONS;CAFOM;CA ANIMATION GROUP (GRAND SALOIR SAINT NICOLAS, SAPRESTI TRAITEUR, LES MONTS DE LA ROCHE);UNIKALO;SOLINEST;BPIFRANCE INVESTISSEMENTS and VALLOUREC TUBES;SWITCH;ASTON;GIFAS;LEICHEM;FIAT FRANCE/CHRYLSER FRANCE",, 33 1 56 69 70 00,"Thierry Dal Farra;Sophie Uettwiller;Charles-Emmanuel Prieur;Yves Mondellini;Julien Mayeras;Ali Bougrine;Elisabeth Logeais, Corinne Khayat, Jean François Canat;David Gordon Krief  Julien Mayeras;Michel Ponsard ;Corinne Khayat ",https://www.uggc.com
"Weil, Gotshal &amp; Manges LLP    2 RUE DE LA BAUME        75008 PARIS                France",https://www.legal500.com/wp-content/uploads/assets/client/firm_logo/51047.jpg?v=1580315527," Weil, Gotshal & Manges LLP ",,jacqueline.ancelet@weil.com,Total;EBM (Coopérative Elektra Birseck);ArchiMed;Orange;TDF;Caisse des dépôts et consignations;SNCF Group;Transdev;French State (Agence des Participations de l’Etat);BPI;Engie;Compagnie Nationale du Rhône;CDC Habitat;Action Logement;Aéroports de Paris;3i;Advent International;Antin Infrastructure;Carlyle;EQT;Equistone;Montagu Private Equity;Ontario Teacher’s Pension Plan;PAI Partners;Weinberg Capital Partners;Montagu Private Equity;CVC;3i;TowerBrook Capital Partners (UK) LLP;Astorg;HLDE;Chequers;Ardian;CEVA Santé Animale;Sanofi;Rallye/Casino;CCMP/MacqPisto;ATOS;Altarea Cogedim;Atos;Casino;Engie;Eutelsat;JCDecaux Holding;Orange;Primeo Energie;Sanofi;Total;Ardian;Casino;CVC;HLD;Elsan;La Poste;Oaktree;PAI;Sanofi;SFEC;Sushi Shop;Total;Towerbrook;3i;Ardian;Montagu Private Equity;Rothschild & Cie;3i;Antin Infrastructures;Parquest;Tereos;Chargeurs SA;Infravia;Eurazeo;Pernod Ricard, David Aknin;Mr Jean Beauchataud ;Mr Benjamin Blegiers (de) ; Frédéric Cazals; Stéphane Chaouat; James Clarke; Arthur De Baudry d’Asson; Jean-Dominique Daudier De Cassini; Edouard De Lamy; Alexandre Duguay; Romain Ferla; Emmanuelle Henry; Olivier Jauffret; Didier Malka; Anne-Sophie Noury ; Yannick Piette; Frédéric Salat-Baroux; Claude Serra; Agathe Soilleux, 33 1 44 21 97 97,Frédéric Salat-Baroux;Didier Malka;Jean-Dominique Daudier de Cassini;Anne-Sophie Noury;David Aknin;Olivier Jauffret;James Clarke;Claude Serra;Claude Serra;Yannick Piette;Didier Malka;Romain Ferla;Stéphane Chaouat;Edouard de Lamy,http://www.weil.com
Tirard Naudin Société d'Avocats    9 RUE BOISSY D'ANGLAS        75008 PARIS                France,https://www.legal500.com/wp-content/uploads/assets/client/firm_logo/20818.jpg?v=1580315493, Tirard Naudin Société d'Avocats ,,lawfirm@tirard-naudin.com,,, 33 1 53 57 36 00,Jean-Marc Tirard;Maryse Naudin,https://www.tirard-naudin.com
Taylor Wessing    69 AVENUE FRANKLIN D ROOSEVELT        75008 PARIS                France,https://www.legal500.com/wp-content/uploads/assets/client/firm_logo/3259.jpg?v=1580315506, Taylor Wessing ,,taylorwessing@taylorwessing.com,,, 33 1 72 74 03 33,Christian Valsamidis;Claire Saint-Laurent;Benoit Goulesque-Monaux;Marc Schuler;Christian Valsamidis;Claire Saint-Laurent-Mantoux;Valérie Aumage;Marc Schuler;Paul-Albert Iweins;Pierre-Olivier Leblanc;Philippe Glaser;Marc Schuler;Christian Valsamidis;Claire Saint-Laurent-Mantoux;Benoît Goulesque-Monaux;Marc Schuler;Sophie Pignon;Paul-Albert Iweins;Markus Asshoff;Evelyne Friedel;Evelyne Friedel;Valérie Aumage;Marc Schuler;Philippe Glaser;Marc Schuler;Gilles Amsallem;Nicolas de Witt;Laurence Lapeyre;François Mary;Christophe Flaicher;Sophie Pignon;Eric Charvillat;Sophie Nicolas;Paul-Albert Iweins;Philippe Glaser;Benoit Goulesque-Monaux;Pierre-Olivier Leblanc;Claudia Jonath;Markus Asshoff;Alfred Fink;Evelyne Friedel;Grégoire Toulouse,https://www.taylorwessing.com
Stephenson Harwood    48 rue Cambon        75001 Paris                France,https://www.legal500.com/wp-content/uploads/assets/client/firm_logo/3164.jpg?v=1580315505, Stephenson Harwood ,,info@shlegal.com,"BNP Paribas;Jifmar Offshore Services;Sunstone Ships;La Banque Postale;Corsica Ferries;Compagnie Fluviale de Transport (CFT);Compagnie du Ponant;Fimar;Compagnie des Pêches Saint Malo;CIC;CEPAC;CELR;Ingépar;Air Côte d’Ivoire (ACI);Lion Air Group;Merlin Aviation Holdings DAC;Airasia;Avico Group;Castelake;Avolon (formerly CIT);Aergo;XL Airways France;CIC (Crédit Industriel et Commercial);BNP Paribas;CIC;DVB Bank;BPCE Group;Natixis;Ingépar;CA-CIB;CIT Group Inc.;Air Côte d’Ivoire;Ponant;Acofi;Euler Hermès;Arkéa;Allied Irish Bank (AIB);ICBC;Exxon Mobil;Kellog Brown Root;Suez;Société Générale;SNC Lavalin;EDEIS;SG Kleinwort Hambros bank (CI) Limited;Baltic International Bank;Wells Fargo Bank Northwest Trustee;Jinwang Europe and Hunan Jinwang Bismuth Industrial Co.;Banque Européenne d’Investissement (BEI);Eurazéo;Léon de Bruxelles;SAS Degrémont France;Aviagen;SITRU;SUEZ;Société Générale;Société Générale Bank & Trust;EDEIS (ex SNC Lavalin);Daewoo Shipbuilding & Marine Engineering Co., Ltd (DSME);Joseph Dirand Architecture;Mercuria Energy Group;Heerema Marine Contractors Nederland SE;Navigators Underwriting Limited;RSA Group;Indigo Capital;Mirova;FFP Invest;Malakoff Médéric;Siaci Saint-Honoré;GDE Groupe Ecore;AD Education;Zoku International BV;Pradera;Archer Hotel Capital;Primonial REIM;Groupe Galeries Lafayette / Citynove;Icade", Yann Beckers ; Guillaume Briant ; Edward Campbell; Olivier Couraud ; Barthélemy Cousin ; Nicolas Demigneux ; Alain Gautron; Jeremy Grant ; Tiana Rambatomanga; Pierre-Nicolas Sanzey , 33 1 44 15 80 00,Alain Gautron;Edward Campbell;Alain Gautron;Edward Campbell;Yann Beckers;Barthélemy Cousin;Nicolas Demigneux;Tiana Rambatomanga;Patrick Mousset;Yann Beckers;Pierre-Nicolas Sanzey;Stéphane Salou,http://www.shlegal.com
"Stehlin &amp; Associés    48, AVENUE VICTOR HUGO        75116 PARIS                France",https://www.legal500.com/wp-content/uploads/assets/client/firm_logo/15472.jpg?v=1583925735, Stehlin & Associés ,,mail@stehlin-legal.com,Safran;Groupe Barrière;Groupe Tetra Media Studios (ITV Group);Eight Advisory;Etanco;Proxiserve;Stanhope;Artal/Invus;Equistone;Warwick;Crédit Mutuel Arkéa;Amphenol;Daniel Féau Immobilier;Econocom;Grenier à Pain;Trigo;Dickson;Décathlon;Crédit Mutuel Arkéa;Amphenol;Groupe Mimran;Artal / Invus;Warwick International;Daniel Féau Immobilier;William Grant & Sons;Dickson;Fauchon;CIM Belgium;Econocom;Corilus Belgium;HM Editions;Amiral Holding;Grenier à Pain;Accuracy;Arkéa Capita;3i;CMA – CGM;Bold Rock Management & Investments Ltd;Lucien Barrière;Hermès International;Petit Navire;Agatha;Heinz;Fauchon;Monaco Marine;Mairie de la Garenne Colombes;Barilla;Euro Ressources;Diagast;Dexxon;Inter Invest;Relais et Châteaux;Lectra;Breitling;William Grant;Children Worldwide Fashion;Consort;Ariston;Microstrategy;History Group;MB 92;Mairie le Pecq;Thierry 21;Fondation de France;Hotel Castille;Eleven Paris;DSI;Tech Mahindra;Sendra (Fuxia);Smart Wood;Comvivia;Surys;Sporoptic Pouilloux;1.2.3. Venture;Jacquemus;Christophe Lemaire;Thai Union Group;Crédit Mutuel Arkéa;Le Bristol;Fime;Biolog;Expléo;Alberta Ferreti;Moschino;Pinko;Engie;CCI France;Sivu Co Cli Co;Vicomte;TBES;Trigo;Azzaro;Véronique Leroy;Ingie Paris;Alexandre Vauthier;Oddo BHF;Chantier Naval de Marseille;Marc le Bihan;MSDental,, 33 1 44 17 07 70,Anna-Christina Chaves;Marc Pierre Stehlin;Armelle Maitre;Svetlana Tokoucheva;Cyrille Boillot;Vincent Renoux;Catherine de Manneville,http://www.stehlin-legal.com
"Taj    6, place de la Pyramide        92908, Paris – La Défense                France",https://www.legal500.com/wp-content/uploads/assets/client/office_logo/13229.jpg?v=1586354068, Taj ,,erevillion@deloitte.fr,,, 33 1 40 88 22 50,Sophie Blégent-Delapille,https://www.taj.fr
Solferino Associés    262 BOULEVARD SAINT GERMAIN        75007 PARIS                France,https://www.legal500.com/wp-content/uploads/assets/client/firm_logo/16700.jpg?v=1580315478, Solferino Associés ,,info@solferinoassocies.com,,, 33 1 40 62 72 72,,https://www.solferinoassocies.com
Viguié Schmidt &amp; Associés    146 BOULEVARD HAUSSMANN        75008 PARIS                France,https://www.legal500.com/wp-content/uploads/assets/client/firm_logo/10680.jpg?v=1580315450, Viguié Schmidt & Associés ,,contact@vs-a.fr,Fimalac;Sanofi Pasteur;Imerys;HIPay Group;BIM;AXA;Orco Property Group;Edilians;BMI Group;Sony Music Entertainment France;JOHNSON & JOHNSON;LFB Group;ENDYMED;Vacances Héliades;Mirova/Natixis;Faurecia / Parrot;Bandai Namco;Johnson & Johnson Santé Beauté France;Domino’s Pizza France;Vinci Construction;Vinci Energies;Groupe M6;Aufeminin;M6;Imerys;Mediawan;PSA/Peugeot Citroën;Saint-Gobain;HiPay Group;Crédit Agricole / CASA;SNCF / Geodis;Amaury Group;XL Airways / La Compagnie;Aviva France;UFF Banque;La Française;LFB Group;Amaury Group;SNCF/Geodis;Calcium Capital;aufeminin.com;Sony Music Entertainment;XL Airways / La Compagnie;Alter Equity;Crédit Agricole/CASA;Laborizon;Hipay Group;Mediawan;Fimalac Entertainment;LPCR Groupe;Groupe La Française,, 33 1 44 70 10 70,Yves Schmidt;Olivier Loizon;Etienne Gouesse;Iñaki Saint-Esteben;Nicolas Viguié;Yves Schmidt;Iñaki Saint-Esteben;Virginie Viallard ;Fabrice Veverka;Christel Alberti,http://www.vs-a.fr
"Squire Patton Boggs    7, RUE DU GENERAL FOY        75008 PARIS                France",https://www.legal500.com/wp-content/uploads/assets/client/firm_logo/50946.jpg?v=1580315526, Squire Patton Boggs ,,info@squirepb.com,HDI GLOBAL;XL London Market;Air New Zealand;Lufthansa German Airlines;Swiss International Air Lines Ltd.;Austrian Airlines;Eurowings;Germanwings;HDI;TAKEDA FRANCE,, 33 1 53 83 74 00,Carole Sportes;Valérie Ravit;Carole Sportes;Carole Sportes;Valérie Ravit;Pauline Pierce;Jean-François Rage,https://www.squirepattonboggs.com
Simmons &amp; Simmons    5 BOULEVARD DE LA MADELEINE        75001 PARIS                France,https://www.legal500.com/wp-content/uploads/assets/client/firm_logo/3058.jpg?v=1580315503, Simmons & Simmons ,,enquiries@simmons-simmons.com,Alpha Healthgroup;Cooper;CDPQ;Merck;Servier;Roche France;Pharma-gdd;Ultimate Software Group Inc;UBS Limited London and France;Société Générale;Crédit du Nord;Natixis – BPCE;Deutsche Bank AG;OFI Asset Management;Orange Bank (ex Groupama Banque);Elliott Management Corporation;Airbus (ex EADS);Air-France;Covéa including Covéa Finance;First Quantum Minerals;African Legal Support Facility (ALSF);Djibouti Ports & Free Zone Authority;De Run International;Proparco;DEG;TBEA Co. Ltd.;Kaminex Limited;Air Djibouti;EY;RCF Management;Malakoff;J.C. Bamford Excavators;Bell Helicopter Textron;Gemalto (Thales);Bayer Healthcare;Alkermes;Sigos;Wright Medical;Neo Medical;Merck KGaA;Genethon;Château Lafite Rothschild;Domaine Romanée-Conti;Ultimate Software Group Inc;Metro-Goldwyn-Mayer;BNP Paribas;Capza;Edmond de Rothschild;Eurazeo SME;InfraVia Capital Partners;Meridiam;RGreen Invest;Serena Capital;Siparex;Weinberg Capital Partners;Crédit Lyonnais;Crédit Industriel et Commercial;Société Générale;Banque Palatine;Bpifrance Investissement;EMZ Partners;CM-CIC Private Debt;Spie batignolles;Valor Real Estate Partners;Savills Investment Management;Caisse d’Epargne et de Prévoyance Hauts de France;DWS;Caisse de dépôt et placement du Québec;Roche France;Merck KGaA;JC BAMFORD EXCAVATORS;GlaxoSmithKline (GSK);Servier;Moneta Asset Management;Sodexo Pass International;Natixis / BPCE;Bayer;MSD;Stanley Black & Decker;Alpha Healthgroup;Tapì;Moody’s;BlackRock;SEDCO Capital;Cooper;Savills Investment Management;Valor Real Estate Partners LLP;Luigi Lavazza S.p.A.;CDPQ;Future Plc;Ultimate Software Group;Inteva Products;African Legal Support Facility (ALSF);Djibouti Ports & Free Zone Authority;De Run International;NordGold;KfW;Malakoff;Proparco and DEG;TBEA Co. Ltd.;Great Horn Investment Holdings SAS;Valor Real Estate Partners LLP;M7 Real Estate;Quaero Capital;RGreen Invest;TechLife Capital;Entrepreneur Venture;Premier Investissement, Ombline Ancelin;Ms Sarah Bailey ;Mr Yves Baratte ;Mrs Sandra Esquiva-Hesse ;Mr Thierry Gontard ;Mr Etinenne Kowalski ;Mr Alexandre Regniault ;Ms Laurence Renard ;Mr Jacques-Antoine Robert ; Agnès Rossi;Mr Christian Taylor , 33 1 53 29 16 29,Alexandre Regniault;Jacques-Antoine Robert;Sarah Bailey;Marina Cousté;Thierry Gontard;Yves Baratte;Marina Cousté;Francois Jonquères;Sarah Bailey;Sarah Bailey;Marina Cousté;Agnès Rossi;Colin Millar;Sarah Bailey;Jacques-Antoine Robert;Christian Taylor;Yves Baratte;Laurence Renard;Ombline Ancelin;Chloë Nessim;Philippe Cavalieros;Yves Baratte,https://www.simmons-simmons.com
Signature Litigation AARPI    49/51 avenue George V        75008                France,https://www.legal500.com/wp-content/uploads/assets/client/firm_logo/3912.jpg?v=1580315517, Signature Litigation AARPI ,,info@signaturelitigation.com,Allianz Global Corporate & Specialty;Continental Motors Inc.;Global Aerospace;Rolls-Royce Plc;Allianz;AXA;Boeing;Crédit Agricole Corporate & Investment Bank;Emerson;Euralis;Ferroglobe;GE;Honeywell;Meritor;Mersen;Renault;Société Générale;The Goodyear Tire & Rubber Company;Ugitech;GibFibre Limited;Petroleum Company of Trinidad and Tobago;BWIN GVC Holdings (Gibraltar) Limited;Fidux Trust Company, Nicolas Brooke ; Sylvie Gallage-Alwis ; Emmanuèle Lutfalla ; Flore Poloni ;Mr Thomas Rouhette, +33 (0)1 70 75 58 00,Thomas Rouhette;Nicolas Brooke ;Thomas Rouhette;Sylvie Gallage-Alwis;Emmanuèle Lutfalla;Elliot Philips,https://www.signaturelitigation.com/signature-litigation-paris/
TNDA: Tuffal-Nerson Douarre &amp; Associés    38 AVENUE HOCHE        75008 PARIS                France,https://www.legal500.com/wp-content/uploads/assets/client/firm_logo/16027.jpg?v=1580315474, TNDA: Tuffal-Nerson Douarre & Associés ,,accueil@tnda.eu,, Rémy Douarre ; Nicolas Durand-Gasselin ; Philippe Meylan ; Martine Rivereau-Trzmiel ; Véronique Tuffal-Nerson; Guillaume Verdier ; Armelle Walters-Renaud , 33 1 58 36 56 56,Véronique Tuffal-Nerson,https://www.tnda.eu
Steering Legal    20 RUE FORTUNY        75017 PARIS                France,https://www.legal500.com/wp-content/uploads/assets/client/firm_logo/18569.jpg?v=1580315491, Steering Legal ,,contact@steeringlegal.com,,Prof Mathias Audit ;Mme Stéphanie Berland ;Mr Jean-François Bette ;Mr Sébastien Fleury ;Mr Florian Guais ;Mr Olivier Guinard ;Me Nicolas Hallais ;Me Frédéric Raimbault ;Me Nuno de Ayala Boaventura ;Me Guillaume de Rocquigny , 33 1 45 05 15 65,,https://www.steeringlegal.com
SCP French Cornut-Gentille    146 BOULEVARD HAUSSMANN        75008 PARIS                France,https://www.legal500.com/wp-content/uploads/assets/client/firm_logo/16294.jpg?v=1580315475, SCP French Cornut-Gentille ,,p.cornut-gentille@scpfrench.com,, Amalia BENINI ; Pierre CORNUT-GENTILLE ; Mélodie DRISSI ; Catherine FILZI ; Pauline LAMBOUROUD ; Clément LOISEAU ; Virginie MONTEIL ; Peggy ROBERT , 33 1 40 70 00 11,Pierre Cornut-Gentille,http://www.scpfrench.com
Scotto Partners    112 AVENUE KLÉBER        75116 PARIS                France,https://www.legal500.com/wp-content/uploads/assets/client/firm_logo/14798.jpg?v=1580315466, Scotto Partners ,,info@scottopartners.com,Buffalo Grill;Comexposium;Etanco;Indigo;Loch Lomond;MC2i;Proxiserve;Sulo;Technicis;Wallenborn;Buffalo Grill;Delsey;Wallenborn;Etanco;Opteven;Edilians;T&S Group;Saur;Sulo;Scalian;MC2i;Proxiserve;Comexposium;GSE;Efront;Indigo;Technicis;Ales;Loch Lomond;Sateco;Staci;Verescence;Fichet (Gunnebo),Mr Adrien Badelon ;Mrs Isabelle Cheradame ; Jérôme Commerçon; Claire Revol-Renié;Mr Lionel Scotto le Massese , 33 1 83 92 38 38,Lionel Scotto le Massese;Nicolas Menard-Durand;Claire Revol-Renié;Isabelle Cheradame;Jérôme Commerçon;Xavier Colard,https://www.scottopartners.com
Shearman &amp; Sterling LLP    7 RUE JACQUES BINGEN        75017  PARIS                France,https://www.legal500.com/wp-content/uploads/assets/client/firm_logo/50895.jpg?v=1601656190, Shearman & Sterling LLP ,,egaillard@shearman.com,The People’s Republic of China;The People’s Democratic Republic of Algeria;The Arab Republic of Egypt;EssilorLuxoticca;The Ministry of Justice of Ukraine;The Republic of Lithuania;Sonatrach;Sanofi;L’Oréal;Orange;Bolloré;Nexans;APE;Oddo;Celeste Management SA;Saint Gogain;Wendel;Thales;ALD;Ardagh;CCI Lyon Métropole;Florac;Nokia;Robert Louis Dreyfus Family;Siparex;Société Générale;Sonatrach;HIG & Groupe Ecore;Frostkrone Group / Emeram Capital Partners;Sociéte Générale;HF Private Debt and Deutsche Bank;Siparex;Morgan Stanley;Trail capital;Guinea Alumina Corporation;JP Morgan;HSBC;L’Oréal;Orange;Bolloré;Nexans;APE;Oddo;Celeste Management SA;Saint Gogain;Wendel;Thales;Altice;Coca Cola;Sagemcom;Trail Capital;Florac;Siparex;CCI Lyon;First Eagle;Schneider Electric;Société Générale;BANQUE THEMIS;ALLGAIER-GROUP;SIR;The People’s Democratic Republic of Algeria;Sonatrac,Dr Yas Banifatemi ; Coralie Darrigade ;Prof Emmanuel Gaillard ; Maude Lebois ; Mohamed Shelbaya ; Jennifer Younan , 33 1 53 89 70 00,Emmanuel Gaillard;Yas Banifatemi;Hervé Letréguilly;Guillaume Isautier;Pierre-Nicolas Ferrand;Hervé Letréguilly;Niels Dejean;Pierre-Nicolas Ferrand;Emmanuel Gaillard;Yas Banifatemi,http://www.shearman.com
Seattle Avocats    1 RUE AMBROISE THOMAS        75009 PARIS                France,https://www.legal500.com/wp-content/uploads/assets/client/firm_logo/232521.jpg?v=, Seattle Avocats ,,contact@seattle-avocats.fr,MEDIAPART;DISCLOSE NGO;Samia Ghali;SOS Homophobie;SOS Méditerranée;Courrier des Balkans;Gregory BARANES;GONK STUDIO;Favola Films;Autochenille production;Ghwa productions;Samuel TOURNEUX;French agency for Biodiversity;Calanques National Park;Port-Cros National Park;Saint-Martin National Nature Reserve;INDUSTRIAL & ENVIRONMENTAL PLATEFORM SAS;BLOOM (NGO);WWF-France (NGO);Guyane Nature Environnement (NGO);Europe Ecologie Les Verts (EELV);SHERPA (NGO);Mighty Earth (NGO);Notre Affaire à Tous;VENDOME CAPITAL PARTNERS / VENDOME REIM;UCB Pharma;Fondation CEMAVIE (Crédit Mutuel);Parti Socialiste (Fédération de Seine Saint Denis);CARVEN;Rivington;SEMEC (Palais des Festivals et des Congrès de Cannes);62 investors in ARISTOPHIL;Investors in APOLONIA;Commune de Pontault-Combault;Commune de Plaissan;Football club Athis Mons;Ecole Miroirs Citoyens,Maitre Sébastien MABILE ;Maitre François RONGET ;Maitre Emmanuel TORDJMAN ;Maitre Maud TOUITOU ;Mr François de Cambiaire, 33 (0)1 44 29 77 77,Emmanuel Tordjman;François de Cambiaire;François Ronget;François Ronget;Sébastien Mabile;François de Cambiaire;François Ronget;Emmanuel Tordjman;Emmanuel Tordjman;François de Cambiaire;Maud Touitou,https://seattle-avocats.fr/
Schapira Associés    10 RUE SAINT MARC        75002 PARIS                France,https://www.legal500.com/wp-content/uploads/assets/client/firm_logo/17027.jpg?v=, Schapira Associés ,,contact@schapira-associes.eu,,Ms Marion Gregoire;Mr Sébastien Schapira, 33 1 40 28 13 29,Sébastien Schapira;Marion Grégoire,http://www.schapira-associes.eu/
Santarelli    49 AVENUE DES CHAMPS-ELYSÉES        75008 PARIS                France,https://www.legal500.com/wp-content/uploads/assets/client/firm_logo/11338.jpg?v=1580315452, Santarelli ,,contact@santarelli.com,,Mr Thierry Caen ;Mrs Lecornu Hélène ;Mr Laurent Kurtz ;Mr Eric Le Bihan ;Mr Augustin Le Tourneau ;Mr François Lepelletier-Beaufond ;Mrs Sophie Marc ;Mrs Nathalie Rey ;Mr Luc Santarelli ;Mme Hélène Stankoff ;Mr Ghislain de Tremiolles , 33 1 40 55 43 43,,http://santarelli.com/en/
Renault Thominette Vignaud &amp; Reeve    31 AVENUE HOCHE        75 008 PARIS                France,https://www.legal500.com/wp-content/uploads/assets/client/firm_logo/14772.jpg?v=1580315465, Renault Thominette Vignaud & Reeve ,,contact@rtvlaw.com,Bpifrance Investissement;Lafarge Holcim;Autorité des marchés financiers;Sodistour;Venise Groupe;Australie;Nutimpex;Syndicat des Energies Renouvelables;Electricité des Eaux de Madagascar;Liouba Stoupakova Wildenstein;Edicourtage;Française de l’Energie;Alstom;EMC2,, 33 01 58 05 43 00,Renaud Thominette;Jason Reeve,http://www.rtvlaw.com
Ravetto Associés    19 rue de Milan        75 009 PARIS                France,https://www.legal500.com/wp-content/uploads/assets/client/firm_logo/15216.jpg?v=1580315470, Ravetto Associés ,,paul.ravetto@ravetto-avocats.com,Saar LB;Primeo;CIC;Gazprom;Voltalia;Toulouse Métropole;GRTgaz;Saint-Germain-en-Laye;Caisse des dépôts et consignations;ENGIE,, 33 1 80 48 12 60,Paul Ravetto;Patrick Labayle-Pabet;Anne-Laure Proisy;Claire Bretheau;Rémy Coin,https://www.ravetto-associes.fr
Soulez Larivière Avocats    22 AVENUE DE LA GRANDE-ARMÉE        75017 PARIS                France,https://www.legal500.com/wp-content/uploads/assets/client/firm_logo/11259.jpg?v=1593433338, Soulez Larivière Avocats ,,contact@soulezlariviere.com,,Mme Aurélia Grignon ;Mme Capucine Lanta de Bérard ; Daniel Soulez-Larivière, 33 1 47 63 37 22,,https://www.soulezlariviere.com
Preel Hecquet Payet-Godel PHPG Avocats    3 AVENUE BUGEAUD        75116 PARIS                France,https://www.legal500.com/wp-content/uploads/assets/client/firm_logo/14363.jpg?v=1580315462, Preel Hecquet Payet-Godel PHPG Avocats ,,phpg@phpg-avocats.com,,Mr Romain Bruillard ;Mrs Françoise Hecquet ;Mr Jean-Baptiste Payet-Godel ;Mrs Charlotte ROGER ;Mrs Cécile TIBERGHIEN , 01 58 05 25 35,Jean-Marie Preel;Françoise Hecquet;Charlotte Roger;Françoise Hecquet;Jean-Baptiste Payet-Godel;Charlotte Roger,https://www.phpg-avocats.com
Poulain &amp; Associés    65 RUE DE MONCEAU        75008 PARIS                France,https://www.legal500.com/wp-content/uploads/assets/client/firm_logo/12151.jpg?v=, Poulain & Associés ,,cabinet.poulain@cabinet-poulain.com,Majencia;Groupe Apavou,Mr Jean-Paul Poulain ; Antoine Poulain ; Amandine Rominskyj , 33 1 53 23 43 00,,http://www.cabinet-poulain.com
Proskauer Rose LLP    374 RUE SAINT-HONORÉ        75001 PARIS                France,https://www.legal500.com/wp-content/uploads/assets/client/firm_logo/50804.jpg?v=1580315526, Proskauer Rose LLP ,,info@proskauer.com,,Mr Johan Bernoville ;Mr Mathieu Brule ;Ms Estelle Coulombel ;Ms Ariane Duchesne ;Ms Karin Dulac ;Mr Victor Jean-Baptiste ;Mrs Stephanie Martinier ;Ms Mathilde Pépin ;Mr Geoffrey Roche ;Mr Paul Romatet ;Ms Doriane Shannon ;Mr Corentin Soucachet ;Mrs Delia Spitzer ;Ms Ana Vermal , 33 1 53 05 60 00,Yasmine Tarasewicz;Ana Vermal,http://www.proskauer.com
"Pamina Avocats    6, Place Saint-Sulpice        Paris	75006                France",https://www.legal500.com/wp-content/uploads/assets/client/firm_logo/232135.jpg?v=1580315497, Pamina Avocats ,,david.epaud@pamina-avocats.com,Sotheby’s;Wildenstein Plattner Institute;Imprimerie Nationale;DP World;France Galop;Credit Agricole Leasing & Factoring;Sotheby’s;Keolis;Air France;Conseil Supérieur des Messageries de Presse (CSMP);Secure Identity Alliance;Syndicat des Compagnies aériennes autonomes (SCARA);AMECS;Daklapack Europe;Ilex Ascenseurs,Mr David Epaud; Rémi Sermier, +33 1 45 44 51 47,Rémi Sermier ;Rémi Sermier;David Epaud ,https://pamina-avocats.com
Osborne Clarke    163 BOULEVARD MALESHERBES        75017 PARIS                France,https://www.legal500.com/wp-content/uploads/assets/client/office_logo/21943.jpg?v=1591705316, Osborne Clarke ,,beatrice.delmas-linel@osborneclarke.com,CASINO (Ocommerce);PAGESJAUNES (SOLOCAL);WIZWAY SOLUTIONS;DOCUSIGN;DPD Group;Onepoint;INTEGRAL AD SCIENCE;AMADEUS;BOUYGUES Construction;Group Lucien Barriere;INNOCENT FRANCE (Coca-Cola Group);EXPEDIA /HOTEL.COM;LIGUE NATIONALE DE RUGBY;TABOOLA;POKEMON;Solocal / Pages Jaunes;DBApparel (HanesBrands);INTEGRAL AD SCIENCE (IAS);SONOS;DEEPREACH;Docusign;Dyson;Groupe Lucien Barrière;Integral Ad Science;Laboratoires Expanscience;Ligue Nationale de Rugby;Médiamétrie;Onepoint;Stadline;Vetoquinol;Etablissements Coquet;Esprit Europe Services GmbH;Shopdeco;Popsockets;Innocent France (Coca-Cola Group);SPRD.NET;Parisartistes;Harper Collins;WIRECARD CARD SOLUTIONS LIMITED;PALAIS DES THES;Européenne d’Hotellerie (The Originals Human Hotels & Resorts);ESPRIT EUROPE SERVICES GmbH;FILATURES DU LION;BRENTRONICS;POPSOCKETS;Schuhmarketing GmbH;BOLT MOBILITY Corp. & B MOBILITY FRANCE;JOM Car Parts & Car Hifi GmbH;DYSON;Cap Gemini;NOVO NORDISK;Orange;onepoint;HARPER COLLINS;HACHETTE GROUP;SYMPHONY EYC;Yume;Groupe Bertrand/ Flo;GRIFOLS;Bird Rides;Diageo;Premier Research;France Galop;DECKERS;NORWEGIAN AIR RESOURCES;ONEPOINT;DURANCE;CRAM;RETAIL & CONNEXIONS;ONEPOINT;UNICANCER;HISTOVERY;CONDUENT;onepoint;WIRELESS LOGIC;CAPGEMINI;PURCH GROUP;SHOPINVEST;Abbott International;AbbVie;Monsanto/Bayer;Microwave Vision;AS Watson;Boston Scientific;World Flight Services;Safran;Grifols;Abasic (Desigual);Onepoint, Claire Bouchenard;Mr Stéphane Catays ;Ms Stéphanie Delage ; Béatrice Delmas-Linel;Mr Thomas Devred ; Alexandre Glatz;Mr David Haccoun ;Ms Sophie Jouniaux ;Mr Alexandre  Le Mière ;Ms Catherine Olive ; Xavier Pican;Mr Maxime Pigeon ;Mr Jérôme Scapoli , 33 1 84 82 41 10,Béatrice Delmas-Linel;Claire Bouchenard;Xavier Pican;Claire Bouchenard;Xavier Pican;Béatrice Delmas-Linel;Béatrice Delmas-Linel;Claire Bouchenard;Xavier Pican;Claire Bouchenard;Xavier Pican;Béatrice Delmas-Linel;Claire Bouchenard;Xavier Pican;Béatrice Delmas-Linel;Maxime Pigeon;Jérôme Scapoli;Alexandre Glatz;Alexandre Le Mière;Catherine Olive;David Haccoun;Sophie Jouniaux,http://www.osborneclarke.com
Rigaud Avocats    5 AVENUE DE L'OPERA                    75001    France,https://www.legal500.com/wp-content/uploads/assets/client/firm_logo/232137.jpg?v=, Rigaud Avocats ,,info@rigaudavocats.com,,Miss Pascale BARON ; Xavier Pignaud;Mr David RIGAUD , 01 53 75 91 91,"David Rigaud, Pascale Baron ;Xavier Pignaud ",https://www.rigaudavocats.com
Ormen Passemard – ORPA Legal    47 RUE DUMONT D'URVILLE        75116 PARIS                France,https://www.legal500.com/wp-content/uploads/assets/client/firm_logo/16694.jpg?v=, Ormen Passemard – ORPA Legal ,,ormen.passemard@orpa.legal,,Mr Rémi Passemard, 33 1 70 37 39 00,Pascal Ormen;Rémi Passemard,https://www.orpa.legal
Opleo Avocats    154 BOULEVARD HAUSMANN        75008 PARIS                France,https://www.legal500.com/wp-content/uploads/assets/client/firm_logo/17748.jpg?v=1580315487, Opleo Avocats ,,contact@opleo-avocats.com,Edgewhere,, 33 1 58 22 16 80,Sandrine Gardel;Pierre-Olivier Bernard;Pierre-Olivier Bernard;Antoine Degorce;Pierre-Olivier Bernard,https://www.opleo-avocats.com
Norton Rose Fulbright    PARISEIGHT    40 RUE DE COURCELLES    75008 PARIS                France,https://www.legal500.com/wp-content/uploads/assets/client/firm_logo/2511.jpg?v=1580315499, Norton Rose Fulbright ,,info@nortonrosefulbright.com,"Bank of China;BNP Paribas;Bpifrance Assurance Export;Crédit Agricole;CIC;Crédit Suisse;Euler Hermes Deutschland AG;Export Development Canada;HSBC;Natixis;Société Générale;UK Export Finance;UniCredit Bank;Africa50;Barrick Gold;BNP Paribas;Contour Global;Engie;International Finance Corporation;Moroccan Agency for Sustainable Energy;RTE;TOTAL;World Bank;BNP Paribas;HSBC;IFC;Royal Bank of Canada;Société Générale;TOTAL;Crédit Agricole;Investec;Apicil Group;Altus Group;Allianz;UCPI, Coramine and Saint-Gobain Weber;APICIL Group;AIG;Allianz Africa;Africa50;Barrick Gold;BNP Paribas;Contour Global;Engie;International Finance Corporation;Lekela Power;Moroccan Agency for Sustainable Energy;Tiger resources;TOTAL;World Bank;Attijariwafa bank;BNP Paribas;CDC Group plc;Caisse de Dépot et Gestion;Crédit Agricole;Crédit Suisse;HSBC;Kingdom of Morocco;Oddo & Cie;Santander;Sequa Petroleum NV;Société Générale;Allianz;Altus Group;Apicil Group;PFIZER France;SYNLAB France;Medtronic France;Carlsberg UK Limited;Econocom France;MS Mode France;Mycronic AB;Sumitomo Mitsui Banking;Westbrook;TOTAL MARKETING France;Tokyo Electron Ltd;HSBC;PFIZER France;SYNLAB France;Medtronic France;Emerisque Group (MCS);UBS;AIG;Allianz;Allianz Africa;Altus Group;AnaCap Financial;Partners;APICIL Group;Avril Group;BNP Paribas;CDC Group;Euro Information;Telecom;Google;Medidata;Merck Santé;Tenova S.p.a.;Vallourec;ABN AMRO;BayernInvest;Crédit Agricole CIB;Certas;HUK-Coburg;KKR;Swiss Life;Vodafone;Kohlberg Kravis Roberts & Co. (KKR);Bureau Veritas;Deliveroo;AIG;Société Générale;CACIB;Pastacorp;Panasonic;Medidata;Genki", Christophe Asselineau ; Jean-Pascal Bus ; Janet Butterworth ; Arnaud Bélisaire; Antoine Colonna d’Istria ; Roberto Cristofolini ; Simon Cudennec ; Mathieu Dahan ; Christian Dargham ; Benedicte Denis; Christine Ezcutari ; Marta Giner Asins ; Philippe Hameau ; Marc Hamilton ; Laure Joncour ; Anne Lapierre ; Godefroy Le Mintier ; Alain Malek ; Nadège Martin; Souâde Messaoudi ; Karine Montagut ; George Paterson ; Marion Roquette-Pfister ; Alexandre Roth ; Arnaud Sanz ; Alex Wass , 33 1 56 59 50 00,George Paterson;Anne Lapierre;Christine Ezcutari;Christine Ezcutari;Christian Dargham;Nadège Martin;Bénédicte Denis;Anne Lapierre;Roberto Cristofolini;Nadège Martin;Marion Roquette-Pfister;Marta Giner Asins;Philippe Hameau;Marion Roquette-Pfister ;Christian Dargham;Christian Dargham;Bénédicte Denis;Jean-Pascal Bus;Antoine Colonna d’Istria;Marta Giner Asins,https://www.nortonrosefulbright.com
"Orrick Rambaud Martel    31 AVENUE PIERRE, 1ER DE SERBIE        CEDEX 16, 75782 PARIS                France",https://www.legal500.com/wp-content/uploads/assets/client/office_logo/17165.jpg?v=1580317959, Orrick Rambaud Martel ,,sferreira@orrick.com,BNP Paribas;Crédit Agricole Corporate and Investment Bank (CACIB);La Banque Postale;BPCE;Morgan Stanley;SANEF;Natixis;Crédit Agricole Consumer Finance;Air Liquide;Arcole Industries;BDO Italia;Biom’up;Bpifrance;Bureau Veritas;CACIB;Carmignac Gestion;Consortium de Réalisation;Coriolis;Crédit Agricole;Crawford;Cromology;Deloitte;DNCA;Elliott Capital Advisors;Iliad;Mercialys;Officiis Properties;Zodiac;Bastide Le Confort Medical;AXA Assistance;GIE AXA;AXA IM;Astanor Ventures;Banque Palatine;Candriam;Club Med;Crédit Agricole;Eurodisney;Dataiku;Facebook;Getaround;GoPro;Heineken;La Banque Postale;Lilly;Michelin;Mondelez;Pernod;Solocal;Snapchat;The French Gouvernment;Terega;Bouygues;Société Générale;Caisse des Dépôts et Consignations;ENEO;ERG;CDC Group Plc;Off Grid Electric;Eranove;La Banque des Territoires (Caisse des Dépôts Group);The Government of Mali;Engie;Voltalia;Ministère de l’économie des finances (French Ministry of economic and financial affairs);Groupe Bertrand;Frans Bonhomme;Arkéa Banque Entreprises et Institutionnels;BNP Paribas;Société Générale;la Banque Postale;Crédit Agricole Corporate and Investment Bank;Oaktree;AXA REIM France;Caisse des Dépôts;DSO;EDF;Europcar;Goldman Sachs;Naturex;Randstad;Royal Mail Group Ltd;SFR;Montefiore Investment;Nexeya;Deloitte France;Aledia;AnotherBrain;Arkea;Biom’Up;Bpifrance;Codexo;Highlife;Impala;Paycar;Volta Medical;The French State;Tunnel Euralpin Lyon-Turin;Colas Projects;Allianz;Caisse des dépôts;Axa;Crédit Agricole;Société Générale;China State Construction Engineering Corporation;Egis Road Operation;VINCI Airports;ENEO;Republic of Serbia;Africa50;Eranove;CDC Group Plc;Off Grid Electric;Advanced Accelerator Applications;Advent International;Assystem;Axa-REIM France;BCBG Max Azria;Biom’Up;BPCE Group;Danone;DIF;DRT;Dufour Yachts;Ferroglobe;Hachette Livre;Hivy;Kosc;Naturex;Nexeya;Renault;RTE;Syndicat National de l’Edition;Vivendi;Wildenstein;Nexans;Total;Barrick;Enel;Tamagot Bumi and Bumi Mauritania;Safran;Voigt & Collegen;Assystem;Auchan;AXA IM;EOS Holding;EPF & FFP;Euro Disney;Groupe Bertrand;Jaguar Network;Mercialys;Naturex;Nexeya;SIB (Société d’Investissement Bastide);Zodiac;3i;Advent International;Capzanine;AXA Reim;CNP Assurances;DIF;EOS Holding;Impax Asset Management;LBO France;Malakoff Médéric;Schröders;Société Générale Insurance;TVM Capital Life Science;Natixis;CACIB;BNP Paribas;Davidson Kempner;Société Générale;Triton;Oaktree Capital Management;Värde Partners;Centerbridge;Transdev;French Ministry for Ecological and Inclusive Transition;Tunnel Euralpin Lyon Turin (TELT);French Ministry of Economy and Finance;Société du Grand Paris;Vinci Construction France;Allianz Global Investors;CACIB;Arkéa Banque Entreprises et Institutionnels;BNP Paribas;Caisse d’Épargne et de Prévoyance de Midi-Pyrénées;Crédit Foncier de France;La Banque Postale;Société Générale;Altitude Infrastructure;Bouygues Bâtiment Nord-Est;Aéroport du Grand Ouest;Eiffage;Caisse des Dépôts et Consignations (CDC);AXA REIM France;Bolloré Transport & Logistics;SANEF,, 33 1 53 53 75 00,Hervé Touraine;Frédéric Lalance;Jean-Pierre Martel;Alexis Marraud des Grottes;Emmanuel Bénard;Yves Lepage;Hervé Touraine;Patrick Hubert;Benjamin Cichostepski;Olivier Edwards;Yves Lepage;Anne-Sophie Kerfant;Michael Bühler;Charles Kaplan;Patrick Tardivy;Patrick Tardivy;Emmanuel Ringeval;Carine Mou Si Yan;Noël Chahid-Nouraï;Geoffroy Berthon,http://www.orrick.com
"NomoS    63, AVENUE DES CHAMP-ELYSÉES        75008 PARIS                France",https://www.legal500.com/wp-content/uploads/assets/client/firm_logo/21699.jpg?v=1580315493, NomoS ,,nomos@nomosparis.com,LAGARDERE ACTIVE;EUROPE 1;VIRGIN RADIO;EURONEWS;LAGARDERE STUDIOS;PJP PRODUCTIONS;RHAMSA/ FRANKLIN PRODUCTIONS,Mr Sylvain Naillat ;Mr Romain Pietri , + 33 1 43 18 55 00,Eric Lauvaux;Hélène Delabarre;Eric Lauvaux ;Virginie Delestre;Anne Ciret,https://www.nomosparis.com
NMW Law    5 RUE DE CHAILLOT        75116 PARIS                France,https://www.legal500.com/wp-content/uploads/assets/client/firm_logo/12730.jpg?v=1593433338, NMW Law ,,contact@nmw.law,AXA France;AXA CORPORATE SOLUTIONS;AGCS;ZURICH;QBE INSURANCE;AON;Proxiserve;Urssa scoop;Satelec,, +33 1 83 62 54 54,Sarah Lugan;Laurent De Gabrielli,https://www.nmw.law
"Morgan, Lewis &amp; Bockius LLP    68 RUE DU FAUBOURG SAINT-HONORÉ        75008 PARIS                France",https://www.legal500.com/wp-content/uploads/assets/client/firm_logo/50696.jpg?v=1580315525," Morgan, Lewis & Bockius LLP ",,info@morganlewis.com,Barclays Bank;Consolidated Precision Products;Crédit Suisse;Merck;Otis;PAI Partners;Stallergenes;UGI Corp,Maitre Alexandre Bailly ;Maitre Olivier Chambord ;Maitre Charles Dauthier ;Ms Laetitia De Pelet ;Maitre Xavier Haranger ;Mr Xavier Martin ;Ms Victoria Régis ;Maitre Sabine Smith-Vidal ;Maitre Allison Soilihi ;Maitre Stephen Walters , 01 53 30 43 00,Sabine Smith-Vidal,http://www.morganlewis.com
"Marsigny Gosset Avocats    189, BOULEVARD SAINT-GERMAIN        75007 PARIS                France",https://www.legal500.com/wp-content/uploads/assets/client/firm_logo/17478.jpg?v=1580315485, Marsigny Gosset Avocats ,,info@marsigny.eu,SNCF;The family of Mr Hongwei Meng;Vice-President of Equatorial Guinea Teodoro Nguema Obiang Mangue;Former French Ministry of Justice Jean-Jacques Urvoas;CARREFOUR, Cyril Gosset ; Louis Guesdon ; Emmanuel Marsigny , 01 53 71 20 00,Emmanuel Marsigny;Cyril Gosset;Louis Guesdon,https://www.marsignygosset.eu
M B A - Moisand Boutin &amp; Associés    4 AVENUE VAN DYCK        75008 PARIS                France,https://www.legal500.com/wp-content/uploads/assets/client/firm_logo/10243.jpg?v=, M B A - Moisand Boutin & Associés ,,info@mba-avocats.com,,, 01 47 66 51 19,Christine Hillig-Poudevigne;Dorothée Traverse;Marie-Eve Chauvière;François Morazin,https://www.mba-avocats.com
Luzi Avocats    27 RUE DUMONT D'URDVILLE        75 116 PARIS                France,https://www.legal500.com/wp-content/uploads/assets/client/firm_logo/18221.jpg?v=1580315490, Luzi Avocats ,,oluzi@luzi-avocats.com,Clustree;Consumer Goods Forum;Fédération Française du Bâtiment;Groupe SCR;Immucor France;KPMG;Lagardère Active;Lyreco;Student Factory;Traveldoo;OVH;NRJ GROUP;KPMG;LAGARDERE ACTIVE;GEFCO;SQILLS;TRAVELDOO (Expedia Group);ZETURF / ZEBET;FEDERATION FRANCAISE DU BATIMENT;ORTHOCLINICAL DIAGNOSTICS;LYRECO;AGRICONOMIE;CGF (Consumer Goods Forum);CLUSTREE;MONBUILDING;STUDENT FACTORY (VINCI);IMMUCOR FRANCE;LEGALLAIS;EVENTEAM;KP1;ALBATROSS – CUSTOMER CX GROUP;Groupe SCR,Mrs Olivia Luzi, 33 1 86 95 19 80,Olivia Luzi;Olivia Luzi,http://www.luzi-avocats.com
"Lusis Avocats    31, 33 Rue de Mogador        75009 Paris                France",https://www.legal500.com/wp-content/uploads/assets/client/firm_logo/232932.jpg?v=, Lusis Avocats ,,contact@lusis-avocats.com,,, +33 (0) 178 90 34 34,,https://www.lusis-avocats.com/
Peltier Juvigny Marpeau &amp; Associés    49 AVENUE DE L’OPÉRA        75002 PARIS                France,https://www.legal500.com/wp-content/uploads/assets/client/firm_logo/16535.jpg?v=1580315477, Peltier Juvigny Marpeau & Associés ,,contact@pjmassocies.com,"Casino;Bolloré;Vinci;Vivendi;Groupe Canal Plus;BNP Paribas;Servier;Merial;Advent;Engie;Searchlight Capital Partners;Naxicap Partners;Baring Private Equity Asia;BTSG;Intermediate Capital Group (ICG);Apax Partners;Wendel;Newfund Capital;Milleis Bank;TCI;Intermediate Capital Group (ICG);Altamir;BPIfrance and European Investment Fund;Deloitte;CIC and Crédit Mutuel Insurance Group;Barclays Bank Plc;Milleis Bank;BPCE;SELAFA M.J.A.;SELARL FIDES;SELAS MJS Partners;SCP BTSG²;Mr. Bernard Gnecchi;Mr. Edouard Hubsch and related entities (MFG, LOLA CREATION …);Polycor Inc.;ToysRus;Beate Uhse Group;Stanbridge;CRÉDIT AGRICOLE MUTUEL CHARENTE MARITIME DEUX SÈVRES;BNP Paribas;GIE CARDIF;BMW France;BMW Finance;Banco Santander;Arval;Santander Consumer;VTG;Altarea Cogedim;Agrial;Impala;Indigo New;Casino;Altran Technologies;Compagnie des Alpes;HSBC;Bridgestone Europe;Apax Partners", Aurélie Fournier ; Benoit Marpeau ; Nicolas Partouche ; Frédéric Peltier; Thibault Reymond ; Ning-Ly Seng ; Olivier de Juvigny , 33 1 42 25 78 78,Olivier de Juvigny;Thibault Reymond;Ning-Ly Seng;Frédéric Peltier;Frédéric Peltier;Nicolas Partouche;Aurélie Fournier;Benoit Marpeau,http://www.pjmassocies.com/
Lmt Avocats    5 RUE BEAUJON        75008 PARIS                France,https://www.legal500.com/wp-content/uploads/assets/client/firm_logo/20728.jpg?v=1591701747, Lmt Avocats ,,lmt@lmtavocats.com,Laboratoire Bouchara-Recordati;Bayer HealthCare;Novartis SA;Therabel Lucien Pharma;Substipharm;Laboratoire X.O.;Ethypharm;Effik;HDI Global SE;AstraZeneca, Benoît Arnaud ; Joseph Benillouche ; Arnaud Bourdon ; Thierry Cheymol ; Christian Connor ; Gaëlle Dadez ;Mr Emmanuel Fleury; Alexandre Gruber ; Pierre-Yves Guérin ; Nathalie Le Bris ; Antoine Lemétais; Olivier Samyn ; Nathalie Sinavong ; François Veuillot , 01 53 81 53 00,Antoine Lemétais;Olivier Samyn,https://www.lmtavocats.com
"LL Berg    45, RUE DE COURCELLES, 75008 PARIS        75008 PARIS                France",https://www.legal500.com/wp-content/uploads/assets/client/firm_logo/14476.jpg?v=, LL Berg ,,paris@ll-berg.com,,Mr Olivier Abergel;Mr Julien Carrascosa ;Mrs Gaëlle Quillivic , 33 1 75 77 42 62,Olivier Abergel,http://www.ll-berg.com
"LEXLOR    48, PASSY STREET        PARIS 75016                France",https://www.legal500.com/wp-content/uploads/assets/client/firm_logo/16523.jpg?v=1580315477, LEXLOR ,,info@lexlor.com,,, 33 1422 41685,,http://www.lexlor.com
Le 16 Law    16 RUE DE L'ELYSÉE        PARIS 75008                France,https://www.legal500.com/wp-content/uploads/assets/client/firm_logo/232131.jpg?v=1580315497, Le 16 Law ,,anne-claire.hans@le16law.com,Infineon AG;CEGC;UPS;Autodistribution;Orange;AEW Europe;Axione (subs. of Bouygues Energie Services);Mr. Stanislas Dewynter;Suez Group;Patrizia;Monte Paschi Banque,, +33 1 86 95 57 90,Jean-Luc Larribau;Alexandra Szekely;Samuel Sauphanor;Samuel Sauphanor;Samuel Sauphanor;Julie Spinelli;Jean-Luc Larribau,https://le16law.com/en/home/
Lawways    4 AVENUE HOCHE        75008 PARIS                France,https://www.legal500.com/wp-content/uploads/assets/client/firm_logo/16697.jpg?v=1580315478, Lawways ,,contact@lawways.com,SOFICO;QUANTALYS;ALLO-MEDIA;RAISE PARTNER;FONCIA;MORI HAMADA & MATSUMOTO;APPLAUSE;FORSEE POWER;FINANCO;3D MATRIX;CM-CIC FACTOR, Ségolène Delmas ; Magali Morlani ; Pauline Pasquer ; Hortense Rouvier ; Gilles Rouvier ; Stéphanie Schmitt ; Claire Sevrain ; Yasmine Vivier , 01 43 18 16 50,Gilles Rouvier,http://www.lawways.com
LPA-CGR avocats    136 AVENUE DES CHAMPS-ELYSÉES        75008 PARIS                France,https://www.legal500.com/wp-content/uploads/assets/client/firm_logo/11627.jpg?v=1580315452, LPA-CGR avocats ,,paris@lpalaw.com,AIR LIQUIDE;ARKEMA;PORTS DE PARIS;BOLLORE;RENAULT;RIO TINTO;SOLVAY;VEOLIA;ENGIE;CROWN;DALKIA;GAS NATURAL FENOSA;Primonial Reim;AVARA PHARMACEUTICAL;Groupe SMA;Michael Kors;Groupe DUC;BNP Paribas Personal Finance;La Française de l’Energie;NEWREST WAGONS LITS France;Moët Hennessy;Comexposium;Iberdrola;Valorem;Valeco;FEE (France Energie Eolienne);Solaire Direct;Kallista;Quadran;RP Global;Tenergie;Res;PRIMONIAL REIM;ACCOR;ELSAN;AG2R LA MONDIALE;GROUPAMA;GINKGO;UFF (AVIVA GROUP);Stam Europe;BARINGS REAL ESTATE;ABERDEEN STANDARD INVESTMENTS;GENERALI REAL ESTATE;DEKA IMMOBILIEN;RAIFFEISEN;UBS;Hermitage;Unibail;Ivanhoé Cambridge;Consortium Iberdrola/Res;Gecina;Dalkia;Fnac/Darty;Cora;ADP (Aéroports de Paris);SNCF Energie;Groupama Immobilier;Fraikin;Unilabs;Agence Nationale de l’Habitat;My Money Bank;CSN Energy;Caisse Nationale des Dépôts et Consignations (CDC);AIG EUROPE;VEOLIA;VEDIF;DALKIA;EIFFAGE ENERGIE;LEONIDAS;AXA CORPORATE SOLUTIONS;African Development Bank/Africa 50;World Bank;Mata Capital;Credit Agricole Corporate and investment banking;Societe Generale;Codic/Nexity;Binary Investments Europe Ltd;Eternam;Barings;Attijariwafa Bank;BCP/Chaabi Bank;Guidance financial;Harbert Fund Advisors;Europe Arab Bank;Natixis;ERAM;FEDERATION DES INDUSTRIES NAUTIQUES;FRANPRIX/LEADER PRICE (GROUPE CASINO);NATIXIS;HISCOX;PRIMONIAL;SFR;SUEZ ENVIRONNEMENT AND GDF SUEZ;SFIL/DEXIA;ENGIE;ODDO;BIBLIOTHEQUE NATIONALE DE FRANCE (BNF);SOCIÉTÉ FONCIÈRE LYONNAISE (SFL);CONSEIL RÉGIONAL DES NOTAIRES DE LA COUR D’APPEL DE PARIS;LINDT & SPRÜNGLI;PIETRASANTA;BUTIN – SEDIC;SIKA;Caisse des dépôts et Consignations (CDC);Brough Superior Motorcycle;EnBW;Calcium Capital;Barings Real Estate;AG2R La Mondiale;Aberdeen Standard Investments;Groupama;Generali Real Estate;IMPACT FIELD;MARKETING GROUP;Calcium Capital;ENECO;URBASOLAR;ENbW;B&M European Value;Retail SA;CAISSE DES DEPOTS;EFFY;ARTEFACT;TAISHO;PHARMACEUTICAL;APM Monaco;NISHI-NIPPON RAILROAD;ARCELORMITTAL;FAST RETAILING;BNF / KONBINI;COMEXPOSIUM,Mr Frédéric Bailly ;Mr Hubert Bazin ;Mr Alexandre Bensoussan ;Mr Romain Berthon ;Mme Martine Blanck-Dap ; Karine Bézille;Mme Prudence Cadio ;Mr Fabrice Cassin ; Frédérique Chaillou;Mr Raphaël Chantelot ;Mme Julie Cittadini ;Mr Xavier Clédat ; Hélène Cloëz; Aurélie Dauger;Mr Alexandre De Konn ;Mme Florence Defradas ;Mme Anne Delorme ;Mr Arnaud Depierrefeu ;Mr Stéphane Erard ;Mme Alexia Eskinazi ; François-Régis Fabre-Falret;Mme Sandra Fernandes ; Alexae Fournier-De-Faÿ; Sidonie Fraîche-Dupeyrat;Mr Betrand Galvez ;Mr Gilles Gassenbach ; Hélène Gelas; Sandra Hundsdörfer;Mr Philippe Jacques ;Mme Sophie Marinier ;Mr Arnaud Molinier ;Mme Silke Nadolni ;Mrs Fanny Nguyen ; Géraldine Piedelièvre;Mr Philippe Raybaud ;Mr Mathieu Selva-Roudon ;Mr Vincent Sol ; Chloé Thiéblemont;Mme Florence Trognon-Dumain ;Mr Nicolas Vanderchmitt ;Mr Romain Viret ;Mme Marie-Laetitia de La Ville-Baugé , 33 1 53 93 30 00,Frédérique Chaillou;Aurélie Dauger;François-Régis Fabre-Falret;Denis Chardigny;Philippe Jacques ;Karine Bézille;Alexandre Bensoussan;Fabrice Cassin;Hélène Gelas;Silke Nadolni;Hélène Cloëz;Fabrice Cassin;Hélène Gelas;Prudence Cadio;Gilles Gassenbach;Arnaud Molinier;Alexia Eskinazi;Alexae Fournier-de Faÿ;Xavier Clédat;Pascaline Déchelette-Tolot;Alexandre de Konn;Prudence Cadio;Sandra Fernandes;Frédéric Bailly,https://www.lpalaw.com
Meridian    27 RUE TAITBOUT        75009 PARIS                France,https://www.legal500.com/wp-content/uploads/assets/client/firm_logo/16980.jpg?v=1580315481, Meridian ,,odelsupexhe@meridian-avocats.com,, Julien Canlorbe ;Mr Olivier Delsupexhe; Xavier Desnos ; Paul-Henri Dubois ; Marie-Christine Le ; Vincent Vilchien , 33 1 85 08 01 60, Olivier Delsupexhe;Xavier Desnos;Julien Canlorbe;Vincent Vilchien;Julien Canlorbe;Vincent Vilchien;Marie-Christine Le,http://www.meridian-avocats.com
Lantourne &amp; Associés    3 RUE CIMAROSA        75116 PARIS                France,https://www.legal500.com/wp-content/uploads/assets/client/firm_logo/16979.jpg?v=1580315481, Lantourne & Associés ,,aferrez@lantourne.fr,,, 33 1 77 37 94 84,Maurice Lantourne;Flavie Hannoun;Maurice Lantourne;Flavie Hannoun;Maurice Lantourne;Flavie Hannoun,https://www.lantourne.fr
Lacourte Raquin Tatar    36 RUE BEAUJON        75008 PARIS                France,https://www.legal500.com/wp-content/uploads/assets/client/firm_logo/13797.jpg?v=1580315460, Lacourte Raquin Tatar ,,contact@lacourte.com,Woodeum;Amundi;Hines France;Oxford Properties;BNP Paribas;Groupe Lagardère;The Student Hotel;Groupama Immobilier;Poste Immo;Racing Arena;Gecina;Tikehau IM;Aermont Capital LLP;LaSalle Investment Management;JP Morgan AM;Unibail-Rodamco Westfield;Westbrook;Immochan;ARDIAN;Novaxia;Angelo Gordon;Tivoli Capital;Unibail Rodamco Westfield;Barclays France / Milleis;Wiji;Russell Investments;LaSalle Investment Management;Mandarine Gestion;Naxicap Partners;Tikehau Capital Advisors;Hines;Poste Immo;Gecina;SFL;Carrefour Property;Immochan/Ceetrus;Unibail;Allianz Real Estate;LaSalle Investment Management;Heineken;General Mills;Total;Tikehau;Amundi Immobilier;Ceetrus;BPI France;BNP Paribas;Vinci Immobilier;SNCF;Altarea Cogedim;Oddo BHF;Groupe CASTEL;MCS & Associés;Orange;Unibail-Rodamco-Westfield;Korian;Frey;Aermont;Tikehau Capital Advisors;Naxicap Partners;Mandarine Gestion;Russell Investment;LaSalle Investment Management;Vinci Immobilier;Allianz Group;Poste Immo (La Poste Group);Axa;Unibail-Rodamco-Westfield;Ivanhoé Cambridge;JP Morgan Asset Management;SFL;Aermont Capital LLP;Lasalle Investment Management;Viparis;MCS & Associés;Blackrock;Immobel;Quartus, Damien Luqué , 01 58 54 40 00,Jean-Jacques Raquin;Damien Luqué;Vincent Guinot;Serge Tatar;Damien Luqué;Émilie Capron;Jean-Yves Charriau,https://www.lacourte.com
King &amp; Spalding LLP    12 COURS ALBERT 1ER        75008 PARIS                France,https://www.legal500.com/wp-content/uploads/assets/client/firm_logo/50539.jpg?v=1580315525, King & Spalding LLP ,,kingspalding@kslaw.com,"EXIDE;Recylex;Saint-Gobain;Veolia;Veolia;Union Fenosa Gas;Government of Turkey;Doosan Heavy Industries & Construction Ltd.;Air Canada;Trinh Vinh Binh;Minera Aratiri;Emirates International Investment Company LLC;Société des Parcs d’Alger;Cavalum SGPS, S.A.;KS Invest GmbH & TLS Invest GmbH;Cube Infrastructure Fund SICAV;Demeter Partners;ESPF Beteiligungs GmbH et al.;Tauber Solar;DeutschSolargesellschaft;VC Holding II S.a.r.l. et al;CIC GmbH;Enernovum GmbH;SunReserve Luxco Holdings S.a.r.l. et al.;CEF Energia B.V.;Foresight Luxembourg;FREIF Eurowind Holdings Ltd.;9Ren Holdings;Greentech Energy Systems;Obrascon Huarte Lain S.A.;DCM;Edisun Power;Hannover Leasing;Triodos Renewable Europe;LSG Building Solutions GmbH;Green Source Consulting GmbH;Samsung;Core Value Investments GmbH;Pressburg UK GmbH;ACF Renewable Energy Ltd.;European Solar Farms A/S;Sapec S.A.;Chevron;Dea Erdoel AG – formerly RWE Dea;Dragon Oil;Endesa Energia;General Electric;Maersk Oil;Anadarko;Snc Lavalin;Vermilion Energy;Maurel & Prom;CNP Assurances;La Française Real Estate Partners;AEW;M&G Real Estate;Segro Plc;WeWork;Deka Immobilien GmbH;Diderot Real Estate;Novaxia;Banque Mirabaud;Vermilion;Maurel & Prom;Université Paris 2 Panthéon-Assas;Mirabaud Bank;Smart Me Up SAS;SFPI Group;M&G Real Estate;Photo-Me International Plc;Dragon Oil;Dea Erdoel AG;Dea;British American Tobacco;Chevron;Baker Hughes GE;GE (Transportation);GE Power;Welltec;OMV;CNPCIA;Ronessan;Bloom/ EIIC;OMV", Guillaume Aubatier; Mehdi Haroun; Joëlle Herschtel ; Ruxandra Lazar, 33 1 73 00 39 00,Joëlle Herschtel-Jornod;James Castello;Mehdi Haroun;Guillaume Aubatier;Ruxandra Lazar;Aurélia de Viry;Mehdi Haroun;Mehdi Haroun;Mehdi Haroun,https://www.kslaw.com
Karman Associés    11 AVENUE DELCASSÉ                    75008    France,https://www.legal500.com/wp-content/uploads/assets/client/firm_logo/18147.jpg?v=1601031095, Karman Associés ,,g.guery@karman-associes.com,MANPOWER;LOUVRE HOTELS;REXEL;ORANGE;EIFFAGE;ESSILOR;TUI;ILIAD (FREE);HERTZ;SOCIÉTÉ GÉNÉRALE;NEXTER;CONSEIL SUPÉRIEUR DU NOTARIAT, François Brocard ; Romain Chiss; Florence Froment-Meurice; Erwan Jaglin; Carine Rohou-Borsello , 33 1 56 89 92 22,Romain Chiss;Florence Froment-Meurice;Erwan Jaglin,https://www.karman-associes.com/
IXAS Conseil    15 RUE EMILE ZOLA        69 002 LYON                France,https://www.legal500.com/wp-content/uploads/assets/client/firm_logo/14370.jpg?v=1580315463, IXAS Conseil ,,martin.schmidt@ixas-conseil.com,, Vanessa Darbouret ; Isabelle Daviot ; Martin Schmidt ; Jean-Philippe Schouller , 33 4 78 37 75 16,,http://www.ixas-conseil.com
Jeantet    11 RUE GALILÉE        75116 Paris                France,https://www.legal500.com/wp-content/uploads/assets/client/firm_logo/10291.jpg?v=1580315447, Jeantet ,,info@jeantet.fr,Société Générale;Société Générale de Banque au Liban;GOVERNMENT OF GUINEA;INNERGEX INC;AFRICAN LEGAL SUPPORT FACILITY;ENBRIDGE INC;EB Sustainable Investments Luxembourg;ENI GAS & POWER France;FNAC;PROFILE PHARMA;ACTION LOGEMENT;VALUE RETAIL;ELITE MODEL MANAGEMENT;LAGARDERE TRAVEL RETAIL;LVMH;ZIEGLER;TRANSDEV ILE DE FRANCE;TRAINLINE;CASTORAMA;Keren Finance;ENI;BRASSERIE DE TAHITI;LACTALIS;BRANDT;PELLEGRIN;VEOLIA;DESCOURS ET CABAUD;PLASTIC OMNIUM;COLAS/AXIMUM;NICOT;Intrasense;NSSMC;Archos;Radiall;Groupe Open;Prologue;L1 Capital;Yorkville Advisors;Advini;O2i;M2i;Cogelec;Alpha Blue Ocean;EO2;GLOBAL BIOENERGIES;NEGMA GROUP;MAROC TELECOM;GROUPE SOCOMORE;SPOTIFY;CRH;LSC COMMUNICATIONS;VALUE RETAIL;SWISS LIFE AM;EUROPCAR;SOCIETE GENERALE DE BANK AU LIBAN;(BPCE);TRIMET ALUMINIUM;GEA Group;FONDATION ASSET MANAGEMENT;SWDEN AB;LIMAGRAIN;FORMEL D;MIDSONA;INTERDIGITAL;ARDIAN;DEUTSCHE BETEILIGUNGS AG;ORANO (Former AREVA);GENES DIFFUSION;DCC ENERGY LTD;BPCE;INNERGEX ENERGIE RENOUVLABLE;SYSTEME U;VALEO;DONNELLEY FINANCIAL SOLUTIONS;NIPPON STEEL SUMITOMO METAL CORPORATION (NSSMC);SECTOR ALAM;VOESTALPINE AG;COMPAGNIE DES ALPES;GROUPE INDUSTRIEL MARCEL DASSAULT;MIGROS;CEWE;AB-INBEV;AMPLIFON;LA FRANCAISE REAL ESTATE MANAGERS;Société des Centres Commerciaux (SCC) / LSGI;TAT;LBO France;Interdigital;La Française AM;Groupe Socomore;Metropolitan Filmexport;Donnelley Financial;Société Générale de Banque au Liban (SGBL);Hoist Group France;AIR LIQUIDE INTERNATIONAL;VICAT, Jean-François Adelle ; Thierry Brun ; Loraine Donnedieu De Vabres-Tranié;Mr Cyril Deniaud ; Yvon Dréano; Jean-Guillaume Follorou ; Karl Hepp de Sevelinges ; Christophe Jacomin ;Mrs Ioana Knoll-Tudor ; David Lasfargue ;Mr Thierry Lauriol ; Patrice Lefèvre-Péaron ;Mr Philippe Malléa ; Nicolas Mancret ;Mr Frank Martin Laprade ;Mr Philippe Matignon ; Vincent Netter ; Thomas Picot ; Philippe Portier; Florent Prunet ; Catherine Saint Geniest ; Martine Samuelian ; Frédéric Sardain ;Mrs Anne Toupenay-Schueller ; Jacques-Henry de Bourmont , 01 45 05 80 08,Martine Samuelian;Thierry Lauriol;Julia Bombardier;Loraine Donnedieu de Vabres-Tranié;Xavier Pernot;Loraine Donnedieu de Vabres-Tranié;Martine Samuelian;Frank Martin Laprade;Loraine Donnedieu de Vabres-Tranié;Frank Martin Laprade;Cyril Deniaud;Karl Hepp de Sevelinges;Yvon Dreano;Thierry Brun;Philippe Portie;Catherine Saint-Geniest;Patrice Lefèvre-Péaron;Jean-Guillaume Follorou;Thierry Lauriol;Ioana Knoll-Tudor;Xavier Pernot,https://www.jeantet.fr
ITLAW Avocats    281 RUE DE VAUGIRARD        75015 PARIS                France,https://www.legal500.com/wp-content/uploads/assets/client/firm_logo/14576.jpg?v=1580315464, ITLAW Avocats ,,claudia.weber@itlaw.fr,Assemblée Nationale;Vinci Energies SI;Diebold Nixdorf;USF,Mrs Marie Bernardeschi ;Mrs Lamia El Fath ;Mrs Marine Hardy ; Jean-Christophe Ienné;Mrs Odile Jami-Caston ;Mr Arthur Poirier ;Mr Mathieu Vincens ;Mrs Pauline Vital ;Me Claudia WEBER , 01 83 62 61 75,Claudia Weber;Jean-Christophe Ienné,https://www.itlaw.fr
Latournerie Wolfrom Avocats    164 RUE DU FAUBOURG    SAINT HONORÉ    75008 PARIS                France,https://www.legal500.com/wp-content/uploads/assets/client/firm_logo/20386.jpg?v=1580315492, Latournerie Wolfrom Avocats ,,mh.tonnellier@latournerie-wolfrom.com,Clear Channel;Free;Free Mobile;Région Grand Est;Région Bretagne;Région Normandie;The State of Gabon;Paris la Défense;Groupe SNCF;Région Grand Est;Caisse des dépôts et consignations;EUTELSAT;CNOUS;POST IMMO;ADP;L’OREAL;BOUYGUES ENERGIES SERVICES;POLE LEONARD DE VINCI;UNIVERSITE PARIS SUD;Appscho;Autolib;AXA;Bein Sports;BLACKFIN;Bolloré Group;Bouygues;The State of Burkina Faso;Carambar;Caisse des Dépôts et Consignations (CDC);COLAS;Conforama;CNOP (Conseil national de l’Ordre des Pharmaciens);Daimler Trucks;DRONE RACING LEAGUE;ECONOCOM;EDF;ENEDIS;Energie Demain;Eure Normandie Numérique;Expleo (ex Assystem);European Space Agency;Fiters;Fnac Darty;France TV;Galeries Lafayette Group;FLCP;Groupe Roullier;IDI;Ingenico;Kerudys (ex SVP Group);Kosc Telecom;Les Furets;Maroc Telecom;MOET HENNESSY;Neocase;Nexstage;Nikon;OUI SNCF;Paris la Défense;Pôle Emploi;Primavista;Pumpkin;Radio France;RATP;Relais & Chateaux;SNCF;Sopra Steria;SOUFFLET GROUP;STIF;SQLI;TELT;Thomas Cook;Vivendi Group;Ville de Saint-Etienne;Wolters Kluwer;BNP Paribas Développement;Bpifrance Investissement;Black River Ventures;Eiris Foundation;Galiena Capital;MML Capital;NextStage;Paris Fonds Vert;Ring Capital;SnapCall;ECOLE ALSACIENNE;SOCIETE EDITRICE DU MONDE;COURRIER INTERNATIONAL;L’OBS;REGIE OBS;M PUBLICITE;TELT;TEVA;TELERAMA;HUFF POST;CAPA TV;ALLODIAG;PUMPKIN;AI.VEN;SQLI;NEWEB;NextStage;Gimar & Cie;ADP;Atechsys;Lagardère;Oxygn;Agence France Presse;HeliCoJyp;HMData Lab;Waga Energy;Askia;Proviridis;CME, Caroline Basdevant-Soulié ; Terence Cabot ; Hervé Castelnau ; Chantal Cordier-Vasseur ; Marion Delaigue ; Thibaut Kazémi ; Pierre Lafarge ; Jean Latournerie ; Jean-Luc Marchand ; Sarah-Jane Mirou ;Mrs Marie-Hélène Tonnellier; Christian Wolfrom ; Pauline de Lanzac ; Laurent de la Brosse , 01 56 59 74 74,Térence Cabot;Jean Latournerie;Laurent de la Brosse;Terence Cabot;Marion Delaigue;Marie-Hélène Tonnellier;Térence Cabot;Christian Wolfrom;Caroline Basdevant-Soulié;Pierre Lafarge;Sarah-Jane Mirou;Christian Wolfrom;Hervé Castelnau;Thibaut Kazémi,https://www.latournerie-wolfrom.com
Intuity    44 RUE FORTUNY        75017 PARIS                France,https://www.legal500.com/wp-content/uploads/assets/client/firm_logo/12991.jpg?v=1580315456, Intuity ,,chenin@intuity-legal.com,AstraZeneca;Boehringer Ingelheim France;Ipsen;Orion Pharma;Groupe Patrick Choay SAS;Santen Switzerland SA;Vifor Pharma,, 33 1 43 18 53 53,Christophe Hénin,http://www.intuity-legal.com
McDermott Will &amp; Emery AARPI    23 RUE DE L'UNIVERSITÉ        75007 PARIS                France,https://www.legal500.com/wp-content/uploads/assets/client/firm_logo/50652.jpg?v=1580315525, McDermott Will & Emery AARPI ,,mberteau@mwe.com,Poxel;Servier;Innate Pharma;Vivet Therapeutics;Pierre Fabre;DBV Technologies;Biocorp;Transgene;Yukin Therapeutics;Keen Eye;Kurma Partners;Tricares;Advent Biotechnology;PDCLine Pharma;Action Logement Groupe;ADP;Arriva Plc;Climespace;Corsica Ferries;Engie/SHEM;GRDF;Ideal Industries;IPC Petroleum;Geopetrol;BridgeOil;Orange;Five Arrows Direct Lending;Tikehau Capital;Capza;Andera Partners;RBC Royal Bank;Citi Bank;Crédit Immobilier de France;Oscaro;Groupe Rougier;Groupe Grégoire;Bpifrance Financement;Groupe Almage;Ballouhey SAS;Bpifrance Investissement;Prudentia Capital;Amundi Private Equity Funds;Luxin-Rio;Compagnie Marco Polo;Weber Automotive;Soleytanche Freyssinet;Comité National Olympique et Sportif Français;Montefiore Investment;Siparex;COBEPA;Andera;Capzanine;Azulis;Ardian;Péchel Industries;Activa Capital;Quilvest PE;GIMV;Eurazeo PME;Abénex;Argos Wityu;Sagard;Antin Infrastructure;Platina Partners;Chequers;Five Arrows Private Equity;HLD;MBO Partenaires;Sagard;21 INVESTMENTS;Florac;Galiena Capital;G SQUARE;IK Investment Partners;Vaisala;Hana Group;Atlas For Men;Geodesial;Sogetrel;ProNatura;Vacanceselect;Group Label;Ubitransport;Siparex;DBV Technologies;Geodesial;Ubitransport;Vivet Therapeutics;Ardian;Innate Pharma;Oscaro;Campari;GIMV,Mr Grégoire Andrieux ; Laurent Ayache ;Mr Jacques Buhart ;Ms Carole Degonse ;Ms Shirin Deyhim ; Aymeric Discours; Timothée Gagnepain;Mr Lionel Lesur ;Mr Jilali Maazouz ;Mr Pierre-Arnoux Mayoly ; Sabine Naugès;Mr Anthony Paronneau ;Mr Henri Pieyre de Mandiargues ;Ms Emmanuelle Trombe ;Mr Antoine Vergnat ; Alexis Werl, 33 1 81 69 15 00,Emmanuelle Trombe ;Sabine Naugès;Laurent Ayache;Pierre-Arnoux Mayoly;Alexis Werl;Aymeric Discours;Alexis Werl;Timothée Gagnepain;Grégoire Andrieux;Henri Pieyre de Mandiargues;Antoine Vergnat,https://www.mwe.com
Latham &amp; Watkins    45 RUE SAINT DOMINIQUE        75007 PARIS                France,https://www.legal500.com/wp-content/uploads/assets/client/office_logo/10427.jpg?v=1580317955, Latham & Watkins ,,marina.lott@lw.com,Ardian;Astorg;Bridgepoint;Eurazeo;Intermediate Capital Group;Ipsen;Permira;Vivalto;TA Associate;Unither Pharmaceuticals;Arkea Banque Entreprises et Institutionnels;BNP Paribas;Credit Agricole Corporate and Investment;Deutsche Bank;Natixis;JP Morgan;Goldman Sachs;BAML (France);Deutsche Bank;Natixis;TOTAL;AXA France;Aviva France;Air Liquide;Club Med;Mariner Investments;Cairn Capital;Magnetar Capital;Al Mirqab Holdings;Ado Properties;Orange;Essilor Luxottica;CMA CGM;France Télévisions;Worldline;Orange;Philip Morris;L’Oréal;Auchan Holding;Air France;American Airlines;Edenred;CCR;ONET;Ardian;Astorg;BC Partners;Bridgepoint;CMP Capital Management Partners;Eurazeo;ICG;PAI Partners;TA Associates;Ipsen;Total;Air France-KLM;Atos;Essilor Luxottica;Eurazeo;Galeries Lafayette;Groupe Bertrand;L’Oréal;Siemens;Vallourec;Wendel;Worldline;Auchan Holding;Bridgepoint;Astorg;Imerys;Intermediate Capital Group;Shandong Ruyi Investment Holding;Ardian;HRA;TA Associates;Total;Eutelsat;Ipsen S.A.;Permira;Eurazeo;Pernod Ricard SA;Vivalto;Crédit Agricole Corporate and Investment;Wendel;TechnipFMC;Natixis S.A.;Deutsche Bank;Republic of Colombia;Cofradis S.A;GICOM;Grupo Chaidneme;Laboratoires Servier;Recope;Republic of Ecuador, John Adam ; Semih Bayar Eren ; Alexander Benedetti ; Bénédicte Brémond ; Pierre-Louis Cléro; Denis Criton ; Alexander Crosthwaite ; Lionel Dechmann ; Hervé Diogo Amengual ; Michael Ettannani ; Fabrice Fages ; Xavier Farde ; Thomas Forschbach ; Etienne Gentil ; Gaëtan Gianasso ; Adrien Giraud ; Charles-Antoine Guelluy ; Jacques-Philippe Gunther ; Michel Houdayer ; Carla-Sophie Imperadeiro ; Jean-Luc Juhan ; Patrick Laporte ; Fernando Mantilla-Serrano ; Thomas Margenet-Baudry ; Olivia Rauch-Ravise ; Xavier Renard ; Matthias Rubner ; Myria Saarinen ; Mathilde Saltiel ; Suzana Sava-Montanari ; Thomas Vogel ; Olivier du Mottay , 01 40 62 20 00,Michel Houdayer;Thomas Vogel;Jacques-Philippe Gunther;Frédéric Pradelles;Adrien Giraud;Alexander Benedetti;Denis Criton;Alexander Crosthwaite;Thomas Forschbach;Gaëtan Gianasso;Charles-Antoine Guelluy;Olivier du Mottay;Thomas Margenet-Baudry;Thomas Margenet-Baudry;Myria Saarinen;Jean-Luc Juhan;Pierre-Louis Cléro;Xavier Renard;Olivia Rauch-Ravisé;Fernando Mantilla-Serrano;Matthias Rubner;Fabrice Fages;Myria Saarinen,https://www.lw.com
Hughes Hubbard &amp; Reed LLP    8 RUE DE PRESBOURG        75116 PARIS                France,https://www.legal500.com/wp-content/uploads/assets/client/firm_logo/50478.jpg?v=1580315525, Hughes Hubbard & Reed LLP ,,stefanie.gutierrez@hugheshubbard.com,Airbus;Ecobank;Warner Bros.;Disney / Lucasfilm;Paramount;Saban Brands;Richard Mille;Coorstek Medical;Lonza;Fresenius Medical;Kering;Samsung;WIPO,, 33 1 44 05 80 00,Bryan Sillaman;Michael Huneke;Nicolas Tollet;Olivier Dorgans;Félix de Belloy;Stefan Naumann,http://www.hugheshubbard.com
HPML    45 RUE DE COURCELLES        75008 PARIS                France,https://www.legal500.com/wp-content/uploads/assets/client/firm_logo/12720.jpg?v=1591807892, HPML ,,vvalev@hpml-avocats.com,,, 33 1 40 98 20 45,Thomas Hermetet;Nada Sbaï;Aurélie Bonsch;Thomas Hermetet;Nada Sbaï;Aurélie Bonsch;Philippe Rolland;Nicolas Privat,http://www.hpml-avocats.com
Herald Avocats    91 RUE DU FAUBOURG SAINT HONORÉ        75008 PARIS                France,https://www.legal500.com/wp-content/uploads/assets/client/firm_logo/11876.jpg?v=1580315453, Herald Avocats ,,contact@herald-avocats.com,France Télévisions;Cabinet Letourneur conseil;BURGEAP;OXAND;Seen environnement;Figeres services;Moncassin;LAMO;Lenoir elec;Setec environnement;ADIM Ile de France;OVH;Business insider;Casa Pashma;Emoi;Eurowings;ICO;KCC;Mister Chrono;Promensil;OVH;Business insider;Casa Pashma;Emoi;Eurowings;ICO;KCC;Mister Chrono;Promensil,, +33 (0)1 53 43 15 15,"Jean Castelain;Jean Castelain;William Azan;Christophe Bourdel;Richard Milchior;Anne Cousin;Stéphane Micheli;Jean Castelain;Richard Milchior, Anne Cousin",https://www.herald-avocats.com
Grall &amp; Associés    63 AVENUE DE VILLIERS        75017 PARIS                France,https://www.legal500.com/wp-content/uploads/assets/client/firm_logo/13801.jpg?v=1580315460, Grall & Associés ,,contact@grall-legal.fr,, Jean-Christophe Grall , 33 1 53 57 31 70,Charles-Henri Calla;Jean-Christophe Grall;Thomas Lamy,https://www.grall-legal.fr
Gowling WLG    38 AVENUE DE L'OPÉRA        75002 PARIS                France,https://www.legal500.com/wp-content/uploads/assets/client/firm_logo/3617.jpg?v=1580315514, Gowling WLG ,,paris@gowlingwlg.com,STIL;C.W.F Children Worldwide Fashion (C.W.F);Engie;Amec;Hutchinson;UTC;HTC;Faurecia;SKF France;MAN Truck & Bus;Meggitt;Presstalis;Delachaux,, 33 1 42 99 35 00,Céline Bey;Philippe Rousseau;Philippe Rousseau;Frédéric Dereux,https://www.gowlingwlg.com
"Goodwin    12, RUE D'ASTORG        75008 PARIS                France",https://www.legal500.com/wp-content/uploads/assets/client/firm_logo/50382.jpg?v=1580315524, Goodwin ,,mbloch@goodwinlaw.com,BNP PARIBAS;Crédit Agricole CIB;Capzanine / Atalante;Natixis;Alcentra;NJJ Holding;Partners Group;IK Investment Partners;Les Nouveaux Constructeurs;BlueBay Asset Management;LGT Capital Partners;Ares;Holdco;Equistone Partners Europe;Sicame;Astorg Partners;Rallye SA;Rossignol;AMS Industries;FPEE;Cerba Healthcare;Maisons du Monde;La Martiniquaise- Bardinet;Rallye;Exclusive Networks;Explinvest;Cisco Systems;Meininger Hotel Europe;MACSF;Cerba Healthcare;FPEE;Parquest Capital;B&Capital;Céréa Partenaires;Baumont Real Estate Capital;LFPI Gestion;Astorg Partners;Equistone Partners Europe;Rallye SA,, 33 1 85 65 71 67,Arnaud David;Arnaud Fromion;Frédéric Guilloux;Maxence Bloch;Maxence Bloch;Céline Domenget-Morin;Maxence Bloch;Sarah Fleury;Marie-Laure Bruneel;Charles-Henri de Gouvion Saint-Cyr,https://www.goodwinlaw.com
Ginestié Magellan Paley-Vincent    10 PLACE DES ETATS UNIS        75116 PARIS                France,https://www.legal500.com/wp-content/uploads/assets/client/office_logo/10262.jpg?v=1587378170, Ginestié Magellan Paley-Vincent ,,paris@ginestie.com,Hermès Paris;Teleperformance group;Galeries Lafayette;Etam Developpement;Apax Partners SA, Yves Ardaillou ; Brigitte Berdugo ; Emmanuelle Bismuth ; Pierre De Montalembert ; Julien Desclozeaux ; François Devejdian ; Carine Duchemin ; Madeleine Fabre ;Ms Philippe Ginestié; Jean-Baptiste Guillot ; Agathe Lévy-Sébaux ; François Lefort ; Nicolas Lepetit ; Pierre Mudet ; Catherine Paley-Vincent; Emmanuel Schulte ; Marine Vanhoucke , 33 1 57 57 50 00,Catherine Paley-Vincent ;Philippe Ginestié;Catherine Paley-Vincent;Yves Ardaillou;Emmanuel Schulte;Pierre de Montalembert;Emmanuel Schulte;Philippe Ginestié;Brigitte Berdugo;Madeleine Fabre,http://www.ginestie.com
H2O Avocats    222 BOULEVARD SAINT-GERMAIN        75007 PARIS                France,https://www.legal500.com/wp-content/uploads/assets/client/firm_logo/18177.jpg?v=, H2O Avocats ,,contact@h2o-avocats.com,,, 33 1 85 73 41 41,Nicolas Herzog,http://www.h2o-avocats.com
Galembert Avocats    49 AVENUE HOCHE    75008 PARIS                    France,https://www.legal500.com/wp-content/uploads/assets/client/firm_logo/233481.jpg?v=, Galembert Avocats ,,contact@galembert-avocats.com,Siaci Saint-Honoré (ex- key management team);Picard (Key managers);Edenred;Remy Cointreau;Tunstall Group Acquisitions;Azimut (founding partners and ex- CEO);Andreas Schroeder (ex- CEO of Vertbaudet GmbH);Galax;SPIE;Centre Privé de Radiothérapie de Metz;European Chemicals Agency;Intégrale Prépa;Futurmaster;Monnoyeur;Big Boss;WFS;XK Corporate Finance;Famille Faiveley Participations, Pierre-Alain Marquet ; Florence Portal ; Victoire Segard ; Noémie de Galembert, +33 1 40 54 31 20,Noémie de Galembert,https://www.galembert-avocats.com/en/home/
"FTPA    1 BIS, AVENUE FOCH        75116 PARIS                France",https://www.legal500.com/wp-content/uploads/assets/client/firm_logo/10064.jpg?v=1580315445, FTPA ,,info@ftpa.fr,NORTEL NETWORKS SA;MARANATHA;BRITISH AMERICAN TOBACCO;GROUPE MONPLAISIR;SARIA INDUSTRIES;SEGULA TECHNOLOGIES;TEMSA;VSD;CITYA IMMOBILIER;EULER HERMES;Arcure;Eulerian Technologies;PeopleDoc;Weave;Tikehau Capital;Scaled Risk;Sources;Nova Consulting;Dilitrust;Olinc;Easymovie;Johnson & Johnson;Mood Media;SNCF;Manoir Industries;Pregis;Glanbia;Sumiriko;Getinge;Moma Group;Visufarma;Amomed;Munters;Orano (formerly Areva);Atos;Orange Group;Rethmann;CSP Technologies;Veolia Group;Tikehau Capital;ContentSquare;Citya Immobilier;Arcure;Peopledoc;Oceane Consulting,, 33 1 45 00 86 20,Robert Corcos;Raphaël Crespelle ;Philippe Pochet;Antoine Gautier-Sauvagnac;Boriana Guimberteau;Antoine Gautier-Sauvagnac;Boriana Guimberteau;Raphaël Crespelle;Serge-Antoine Tchekhoff;Bruno Robin;Edouard Fabre;Nathalie Younan;Coralie Oger;Sylvain Clérambour;Alexandre Ebtedaei;Nathalie Younan;Serge-Antoine Tchekhoff;Rajeev Sharma Fokeer;Nicolas Message;Pierre-Antoine Bachellerie,http://www.ftpa.com
"Fréget &amp; Associés    171, BOULEVARD HAUSSMANN        75008 PARIS                France",https://www.legal500.com/wp-content/uploads/assets/client/firm_logo/17034.jpg?v=1593444102, Fréget & Associés ,,katia.victorine@ftdp-avocats.fr,TOTAL DIRECT ENERGIE;ILIAD;NOVARTIS;GOOGLE;BAYER;TDF;GENERAL ELECTRIC;AUDIENS;JOHNSON & JOHNSON;GROUPE CANAL PLUS;MOLOTOV;Centre Français des Constructeurs Automobiles;LEEM Pharma association;OCTOPLUS;NATURE & PEOPLE FIRST;JOUL, Olivier Fréget, 33 1 85 08 04 01,Olivier Fréget ,https://freget-associes.fr/FR/
Gide Loyrette Nouel A.A.R.P.I.    15 rue de Laborde        Paris            75008    France,https://www.legal500.com/wp-content/uploads/assets/client/firm_logo/10224.jpg?v=1580315446, Gide Loyrette Nouel A.A.R.P.I. ,,info@gide.com,"Kepler Cheuvreux;Eurazeo;Icamap;Younited Credit;BNP Paribas;Crédit Agricole Corporate & Investment Bank;Bank of Ireland;Société Générale;Natixis;CIC;HSBC France;ING;Morgan Stanley;KKR;Europcar Group;Crédit Logement;CACIB;Société Générale;BNP Paribas;Veolia Environnement;CNP Assurances;Gecina;Citigroup Global Markets;Natixis;Banque Palatine;Crédit Mutuel Arkéa;Société Générale;Idinvest Partners SE;BNP Paribas;Crédit Agricole CIB;Natixis;UniCredit Bank AG;SCOR Investment Partners SE;Europcar Group;Bank of America Merrill Lynch;Deutsche Bank;LVMH;CDC Habitat;DFDS Seaways;Stora Enso;AccorInvest;Akers;Vueling;Storengy;Alten;DPD France;FFT;Paris Inn Group;Air Austral;Council of Europe Development Bank;Mondadori;FNAC Darty;Thales;Vinci Autoroute;Total;PSG;Agence Nationale de Gestion des Déchets Radioactifs (ANDRA);Electricité De France (EDF);BMW;Eqiom;UMICORE;ExxonMobil;EDF;Meridiam;IFC – International Finance Corporation;Eiffage Infrastructures;Poleol & Imwind;Exeltium;Teréga SNAM;Total Direct Energie;SNEDAI Group;Petroci Holdings;Contino SA;Debiopharm Holding  SA;Cryo Pur;Organisation de la Communauté Economique des Etats des Pays des Grands Lacs (CEPGL) pour l’Energie des Pays des Grands Lacs (EGL);LVMH;Clarins;Parfums Christian Dior;CELINE;L’Oréal;Parfums Guerlain;L’Oréal;FEBEA;Maus Frères;SOGEM MALI;WARCIP Togo;Marpij Consulting – ECOWAS;ARTEC MADAGASCAR;Teyliom;Cabo Verde Telecom;Ageas;AIG;Allianz;AXA;BNP Paribas Cardif;CCR;DCNS;Aon;EDF;Eli Globa;Eurazeo;Europcar;Europ Assistance;La Banque postale;Le Conservateur;Legal & General;MACSF;MAF;Natixis;Odysseyre;Orange;Paris Saint-Germain Football Club;Peugeot;PSA;QBE;Renault;RTE;SCOR;Société Générale;Fondazione Prada;Renault;Shanghai Icicle Fashion Co Ltd;Guerbet;Bristol-Myers Squibb (BMS) and ONO Pharmaceuticals;Maury Imprimeur;Sanofi-Aventis Deutschland GmbH;Koninklijke Douwe Egberts BV (“KDE”), part of Jacobs Douwe Egberts group (“JDE”);Apple;Janssen (J&J) and G.D. Searle (Pfizer);Sanofi;Verasonics;Accel Partners;Bpifrance;Dataïku;Doctolib;Eurazeo Growth;General Catalyst;Innovafeed;Launchmetrics;Meero;Partech Partners;Naval Group;EDF;Organisation de la Communauté Economique des Etats des Pays des Grands Lacs (CEPGL) pour l’Energie des Pays des Grands Lacs (EGL);Mediterranean Shipping Company (MSC);Meridiam and FGIS;Consortium composed of Eiffage, Mirova, Engie and Recrea;The Government of the Hashemite Kingdom of Jordan;International Finance Corporation (IFC) and the government of Barbados;International Finance Corporation (IFC) and the Government of Senegal;European Investment Bank (EIB), International Finance Corporation (IFC) and the Government of Botswana;International Finance Corporation (IFC) and the Government of Malawi;French Ministry of Transport;ARELIA and sponsors: Bouygues, DIF and Abeedeen;SNEDAI group;Petroci Holdings;Société Ivoirienne de Raffinage;Ministry of Tourism and Leisure of Ivory Coast;BNP Paribas;Swiss Life Management Partners;ICAMAP/ICAWOOD;EURAZEO Patrimoine;Emerige;Groupe Casino;Groupe Monoprix;McArthuglen European Development Limited;Nuveen;Oxford Properties;Westbrook Partners;APICIL;JP Morgan Asset Management;GLL Real Estate Partners;Les Nouveaux Constructeurs & Aermont Capital;AccorInvest;Brookfield;Infrared Capital Partners;Crédit Agricole Corporate & Investment Bank,;BNP Paribas,;Société Générale;Amundi;Mirae;CACIB;ING;HELABA;Natixis;Eiffage;Enedis;French State;TELT (SAS Tunnel Euralpin Lyon Turin);Lonza;SMTPC (Company Marseillaise du Tunnel Prado Fairing);US Embassy in France;SNCF Réseau,;Kaufman & Broad;Altarea-Cogedim;Indigo Elogie;Société NUMA – Partouche Group;Ardian;Société Générale;Inventiva;Erytech Pharma;GenSight Biologics;Morgan Stanley;République Française – Agence des Participations de l’Etat;EOS Imaging;Veolia;Citigroup Global Markets Ltd;Stiffel;Jefferies;Goldman Sachs;Credit Agricole CIB;HSBC;Natixis;BNPParibas;Oddo;EFG Hermes;France Télévisions;Iveco;Conseil National de l’Ordre des Architectes;STILH;Maus Frères SA;L’Oréal;Fnac-Darty;Cosmetics Europe;FEBEA;AVRIL;Transat;Webedia;Paris Olympics 2024;Huawei;Arnoldo Mondadori Editore;Guerbet;Coloplast;Bristol Myers Squibb (BMS);ONO Pharmaceuticals (Ono);Sanofi-Aventis Deutschland GmbH.;J&J;Pfizer;Naval Group;France Télévisions;Ubisoft;Ile de France Region;Radio France;La Comédie Française;France Télévisions;ARTE;French Ministry of Culture and Communication;WEBEDIA;Spideo;Arkéa;Axa;BNP Paribas;Essilor Luxottica;Eurazeo;Fnac Darty;Groupama;Maus Frères;Mirova;Pernod Ricard;Algonquin;Eiffel Investment Group;Eurazeo;Five Arrows Managers;Gaia Capital Partners;Omnes Capital;Primonial REIM;Schneider Electric;Swiss Life Asset Management;Tikehau Investment Managers;Swiss Life Asset Managers;Eurazeo;Fnac Darty;Casino Group;BPCE;BNP Paribas;Amundi;Horizon;Grupo Planeta;Drivy;Arkéa;Fives Arrows;Evolem;Katjes International;ICAMAP;Aermont Capital;International Chamber of Commerce;Crédit Foncier de France;Fincantieri Cantieri Navali Italiani;Finmeccanica;Saipem;Mr. Victor Pey-Casado;President Allende Foundation;Petroci;SNCF;Top manager of Business France;Mr. Alexander Studhalter;AhTop",Mr Franck Audran ;Mr Renaud Baguenault de Puchesse ;Ms Ann Baker ;Mr Kamel Ben Salah ;Mr Olivier Bernardi ;Ms Capucine Bernier ;Mr Aurélien Boulanger ;Ms Marie Bouvet-Guiramand ;Ms Magali Buchert ;Mr Christian Camboulive ;Mr Eric Cartier-Millon ;Mr Antoine Choffel ; Jean-Nicolas Clément;Mr Thomas Courtel ;Mr Olivier Cousi ;Mr John D Crothers ;Mr Olivier Dauchez ; Raphaëlle Dequiré-Portier;Mr Olivier Diaz ;Mr Dimitri Dimitrov ;Mr Thierry Dor ;Mr Stanislas Dwernicki ;Mr Christophe Eck ;Mr Jean-Gabriel Flandrois ;Mr Alexandre Gauthier ;Mr Richard Ghueldre ;Mr Guillaume Goffin ; Michel Guénaire;Mr Nicolas Jean ;Mr David Jonin ;Mr Bertrand Jouanneau ;Mr Pierre Karpik ;Ms Caroline Lan ;Mr Emmanuel Larere ;Mr Antoine Lelong ;Ms Laetitia Lemercier ;Mr Jean-François Levraud ;Mr Jean-François Louit ;Ms Carole Malinvaud ;Mr Didier Martin ; Eric Martin-Impératori; Bénédicte Mazel;Mr Arnaud Michel;Mr Laurent Modave ;Mr Hugues Moreau ;Ms Alexandra Munoz ;Mr Guillaume Navarro ; Nadège Nguyen; Frédéric Nouel;Mr Christian Nouel ;Mr Bertrand Oldra ;Mr Alexis Pailleret ;Mr Michel Pitron ;Mr Nicolas Planchot ;Mr Jean-Philippe Pons-Henry ; Stéphane Puel;Mr Bruno Quentin ;Mr Emmanuel Reille ;Mr Guillaume Rougier-Brierre ;Mr Hugues Scalbert ;Ms Sophie Scemla ;Mr David-James Sebag ;Mr Christopher Szostak ;Mr Antoine Tézenas du Montcel ; Rémi Tabbagh;Ms Anne Tolila ;Ms Axelle Toulemonde ; Grégoire Triet;Mr Thomas Urlacher ; Stéphane Vernay;Mr Emmanuel Vital-Durand ;Mr Xavier de Kergommeaux ;Mr Jean-Hyacinthe de Mitry ;Mr Charles de Reals ;Mr Foulques de Rostolan ;Mr Jean-Guillaume de Tocqueville ;Mr Antoine de la Gatinais , 33 1 40 75 60 00,Jean-Guillaume de Tocqueville;Stéphane Puel;Kamel Ben-Salah;Eric Cartier-Millon;Rémi Tabbagh;Laetitia Lemercier;Thomas Binet;Hubert Merveilleux du Vignaux;Arnaud Duhamel;Melinda Stege-Arsouze;Arnaud Duhamel;Xavier Chassin de Kergommeaux;Aurélien Boulanger;David Jonin;Baudouin de Moucheron;Guillaume Navarro;Foulques de Rostolan;François Vergne;Jean-Nicolas Clément;Michel Guénaire;Stéphane Vernay;John Crothers;Marie Bouvet-Guiramand;Nicolas Jean;Alexis Pailleret;Antoine Choffel;Olivier Diaz;David Jonin;Emmanuel Larere;Franck Audran;Olivier Cousi;Richard Ghueldre;Capucine Bernier;Raphaëlle Dequiré-Portier;Emmanuel Larere;Arnaud Michel;Jean-Hyacinthe de Mitry;Grégoire Triet;Olivier Cousi;Julien Guinot-Deléry;Raphaëlle Dequiré-Portier;Emmanuel Larere;Arnaud Michel;Jean-Hyacinthe de Mitry;Grégoire Triet;Raphaëlle Dequiré-Portier;Emmanuel Larere;Arnaud Michel;Jean-Hyacinthe de Mitry;Grégoire Triet;Pierre Karpik;David-James Sebag;Stéphane Vernay;Marie Bouvet-Guiramand;Frédéric Nouel;Michel Guénaire;Thomas Courtel;Bénédicte Mazel;Emmanuel Vital-Durand;Alexandre Gauthier;Arnaud Duhamel;Melinda Stege-Arsouze;Bruno Quentin;Jean-Philippe Pons-Henry;Sophie Scemla ;Thierry Dor;Jean-Guillaume de Tocqueville;Bruno Quentin;Stéphane Puel;Jean-Philippe Pons-Henry;Antoine Choffel;Emmanuel Reille;Dimitri Dimitrov;Franck Audran;Raphaëlle Dequiré-Portier;Dimitri Dimitrov;Arnaud Duhamel;Anne Tolila;Thierry Dor;Olivier Cousi;Julien Guinot-Deléry;Olivier Diaz;Ann Baker;Stéphane Puel;Laurent Modave;Magali Buchert;Olivier Dauchez;Bertrand Jouanneau;Bruno Quentin;Jean-Philippe Pons-Henry;Sophie Scemla;Christian Camboulive;Carole Malinvaud;Alexandra Munoz;Rupert Reece;Bruno Quentin;Jean-Philippe Pons-Henry;Sophie Scemla,https://www.gide.com
Flichy Grangé Avocats    66 AVENUE D'IÉNA        75116 PARIS                France,https://www.legal500.com/wp-content/uploads/assets/client/firm_logo/22050.jpg?v=1580315493, Flichy Grangé Avocats ,,contact@flichy.com,Société Générale;Goodyear,, 33 1 56 62 30 00,Joël Grangé;Philippe Montanier;Arnaud Chaulet;Marine Conche;Florence Aubonnet;Juliana Kovac;Olivier Kress;Stéphanie Guédès da Costa;Stéphanie Dumas;Jeannie Crédoz-Rosier;Charlotte Michaud;Aurélie Cormier Le Goff;Florence Bacquet,https://www.flichygrange.com
Foley Hoag    153 RUE DU FAUBOURG SAINT-HONORÉ        75008 PARIS                France,https://www.legal500.com/wp-content/uploads/assets/client/firm_logo/50332.jpg?v=1580315524, Foley Hoag ,,contact@foleyhoag.com,ENGIE;Mines de potasse d’Alsace (MDPA);Northrop Grumann;RTE;ENEDIS;STAUB;ELECTROLUX;SEQENS;ELIS;BASF;Slovakia;Croatia;Czech Republic;Uzbekistan;Ukraine;Russian Federation;Belgium;Madagascar;Ecuador;India;Mauritius;Ghana;Bulgaria;Somalia;Venezuela;European Commission / Cyprus, Carine Le Roy-Gleizes, 33 1 70 36 61 30,Carine Le Roy-Gleizes;Frédéric Scanvic;Corentin Chevallier ;Catherine Muyl;Andrea Pinna,https://www.foleyhoag.com
FBT Attorneys-at-Law    4 AVENUE HOCHE        75008 PARIS                France,https://www.legal500.com/wp-content/uploads/assets/client/firm_logo/11184.jpg?v=1580315451, FBT Attorneys-at-Law ,,info@fbt.ch,,Mrs Stéphanie Barreira ;Mr Jérôme Bissardon ;Mrs Pascale Cano ;Mr Alain Moreau , 33 1 45 61 18 00,,http://www.fbt.ch
Fairway A.A.R.P.I.    25 RUE MURILLO        75008 PARIS                France,https://www.legal500.com/wp-content/uploads/assets/client/firm_logo/15890.jpg?v=1580315473, Fairway A.A.R.P.I. ,,fairwayavocats@fway.fr,PRIMONIAL REIM;GENERALI REAL ESTATE;BROOKFIELD;CARLYLE;ARES MANAGEMENT;BENSON ELIOTT;MATA CAPITAL;PSA;KORIAN;SCOR;TIKEHAU;LA FRANCAISE AM;HELABA;PITCH PRMOTION;SOGARIS;INVESCO;DENTRESANGLE INITIATIVES;JC DECAUX;VINCI;PEUGEOT PSA;AMUNDI IMMOBILIER;STAM EUROPE;Stam Europe;Dentressangle Initiatives;Intuitae;JC Decaux Holding;Ares Management, Franck Denis , 33 1 56 43 48 30,Frédéric Lefébure;Aubry d’Argenlieu;Emmanuel Cazin;Juliette Bril;Emmanuel Galifer,https://www.fairwayavocats.com
EBL Lexington Avocats    72 BOULEVARD DE COURCELLES        75017 PARIS                France,https://www.legal500.com/wp-content/uploads/assets/client/firm_logo/16698.jpg?v=1590052946, EBL Lexington Avocats ,,contact@lxt-law.com,Petrus;J.M. Weston;Bonpoint;Piper-Heidsieck;Charles Heidsieck;Gas Bijoux;Normalu;Mackage;Sartore & Compagnie;Bonneval Waters;Duclot;Société protectrice des animaux;Malt;Codage;Les Graphiquants;Go On Media;Artclair;Air Austral;Woodoo, Karine CLOLUS-DUPONT; Arnaud Demont ; Laurent LEVY; Mathieu MOUNDLIC; Michaël Piquet-Fraysse ; Olivier d’ABO, 33 1 83 75 41 41,Laurent Levy,http://www.lxt-law.com
Eversheds Sutherland (France) LLP    8 PLACE D'IÉNA        75116 PARIS                France,https://www.legal500.com/wp-content/uploads/assets/client/firm_logo/50974.jpg?v=1580315527, Eversheds Sutherland (France) LLP ,,remikleiman@eversheds-sutherland.fr,Islamic Republic of Iran;National Iranian Oil Company;KPC;SNCF;INEOS;Wärtsilä;CyrusOne;Nefful International Holdings;Halliburton;Mattel;Nordex;GlaxoSmithKline;Eurazeo PME;Ardian;Perwyn;RemadeGroup;Idinvest;Novi2;Mirova;DXC;Wartsila;Promopharm (HIKMA);Amazon;Iranian Offshore Engineering Company, Alice Allard ; Déborah Attali ; Sarah Ayoub ; Maud Balagna ; Paul Boussicault ; Ana Brandao ; Rima Bugaighis ; Elsa Charifi ; Gaetan Cordier ; Philippe Desprès ; Alexis Eichenbaum-Voline ; Virginie Estéoule ; Greg Falkof ; Jawad Fassi-Fehri ; Monique Figueiredo ; Gillian Forsyth ; Augustin Gaujal ; Marine Gourlet ; Baudouin Gueyffier ; Louis-Narito Harada ; Jeremy Juanola ; Anne-Laure Khun ; Rémi Kleiman ; Franck-Olivier Klein ; Aurélie Klinsboccke ; Aurélie Klinsbocckel ; Charles Koskas ; Erwan Le Lay ; Virginie Lejeune ; Francois Lichere ; Ghjuvana Luigi ; Clémence Macé de Gastines ; Christina Mangani ; Fabrice Martinez Tournalia ; Sarah Monnerville Smith ; Diane Pellet ; Nanette Pilkington ; Mathilde Plenat ; Myriam Saragoussi ; David S Sellers ; Amine Senouci Bereksi ; Thomas Strange ; Guillaume Talneau ; Manuel Tomas ; Audrey Tomaszewski ; Estelle Vernejoul ; Laura Yvonne Zielinski ; Frédérique de La Chapelle , 33 1 55 73 40 00,Gaëtan Cordier;David Sellers;Wesley Pydiamah;Louis-Narito Harada;Sophie Perus;Louis-Narito Harada;David Sellers;Bruno Richard ;Rémi Kleiman;Déborah Attali;Myrtille Lapuelle;Vincent Denoyelle;Gaetan Cordier;Jacques Mestoudjian;Boris Martor;David Sellars;Atousa Mahmoudpour,https://www.eversheds-sutherland.fr
DWF (France) AARPI    137-139 RUE DE L'UNIVERSITE    TOQUE K0165    75116 PARIS                France,https://www.legal500.com/wp-content/uploads/assets/client/firm_logo/867.jpg?v=1580315548, DWF (France) AARPI ,,enquiries@dwf.law,RSA;Allianz;Zurich;Glencore International AG;Rubis Terminal;Schneider Electric;Jersey Electricity;Fimosa Capital, Sabrina Aïnouz ; Carole Arribes ; Ali Boroumand ; Simon Christiaën ; Romain Dupeyré ; Pascale Gallien ; Florence Karila ; Jérôme Lehucher ; Jean-Francois Mercadier ; Mathilde Plénat ; Anne-Sylvie Vassenaix-Paxton , 33 1 40 69 26 50,Romain Dupeyré;Jean-François Mercadier;Simon Christiaën,http://www.dwf.law/
FTMS Avocats    67 BOULEVARD MALESHERBES        75008 PARIS                France,https://www.legal500.com/wp-content/uploads/assets/client/firm_logo/13789.jpg?v=1580315460, FTMS Avocats ,,mdias@ftmsavocats.com,AMERICAN BUREAU OF SHIPPING;BPCE;BANQUE POPULAIRE;RIVES DE PARIS;CAISSE D’EPARGNE ILE DE FRANCE;CAISSE D’EPARGNE RHONE-ALPES;CAISSE D’EPARGNE LOIRE CENTRE;MONOPRIX;SCHNEIDER ELECTRIC;LAURA SMET;ALP;Accor;TF1;Tereos;French National Football League,Mr Olivier Angotti ;Mr Laurent Barbotin ;Mr Mathias Chichportich ; Tristan Dupré De Puget; Cédric Fischer;Mr Marc Henry ;Mr Jean Néret ;Mr Pierre-Olivier Sur ;Mr Silvestre Tandeau de Marsac , 33 1 47 23 47 24,Cédric Fischer;Marc Henry;Pierre-Olivier Sur;Mathias Chichportich;Jean Néret;Olivier Angotti;Isabelle Pontal;Cédric Fischer;Silvestre Tandeau de Marsac;Tristan Dupré de Puget;Marc Henry,https://www.ftmsavocats.com
EBA Endrös-Baum Associés    63 RUE DE VARENNE        75007 PARIS                France,https://www.legal500.com/wp-content/uploads/assets/client/firm_logo/17516.jpg?v=1580315485, EBA Endrös-Baum Associés ,,eba@eba-avocats.com,,, 33 1 53 85 81 81,,http://www.eba-avocats.com
Deprez Guignot Associés    21 RUE CLÉMENT MAROT        75008 PARIS                France,https://www.legal500.com/wp-content/uploads/assets/client/firm_logo/11882.jpg?v=1580315453, Deprez Guignot Associés ,,ddg@ddg.fr,Groupe M6;GROUPE M6;INTERMARCHE;MONOPRIX;BOULANGER, Jean-Christophe André ; Philippe Bonnet ; Jean-Daniel Bouhenic ; Aurélie Brégou ; Laurent Carrié ; Pierre Deprez; Frédéric Dumont; Vincent Fauchoux; Olivier Guidoux ; Grégoire Guignot ; Ana Paula Reis Lopes , 33 1 53 23 80 00,"Jean-Christophe André;Pierre Deprez;Frédéric Dumont;Philippe Bonnet;Guillaume Deglaire;Pierre Deprez;Frédéric Dumont;Philippe Bonnet;Frédéric Dumont;Vincent Fauchoux;Pierre Deprez, Vincent Fauchoux, Frédéric Dumont, Philippe Bonnet et Guillaume Deglaire;Pierre Deprez, Jean-Christophe André, Olivier Guidoux, Philippe Bonnet and Guillaume Deglaire",https://www.ddg.fr
Franklin    26 AVENUE KLÉBER        75116 PARIS                France,https://www.legal500.com/wp-content/uploads/assets/client/firm_logo/21594.jpg?v=1580315493, Franklin ,,info@franklin-paris.com,Apex Energies;Arkolia Energies;Banque CIC;Caisse d’Epargne;Enedis;Fonroche;Groupe Engie;Groupe Valeco;Hanau;Helia Conseil;Natixis Energeco;Prime Capital;Reden Solar;Valorem;ACOFI;RGreen Invest;BPI;IDIA Capital Investissement;Sofilaro;Groupe Danone;Altice;Enedis;SFR Group;Proparco;BPI France;Danone;Credit Agricole d’Aquitaine / Crédit Agricole Pyrénées Gascogne;Credit Lyonnais;Natixis;Caisse d’Epargne CEPAC;Helia Conseil (Caisse d’Epargne Group);Auxifip;Caisse d’Epargne Midi-Pyrénées (CEMP);Banco Sabadell;CIC;Crédit Agricole CIB,Mr Stéphan Alamowitch ;Mr Yam Atallah ; Philippe Bouillon ;Mr Jérémy Chiche ;Mr Yann Colin ;Mr Serge Durox ;Mr Jérémy Goldblum ;Mrs Hélène Lebon ;Mr Lionel Lesur ;Mr Xavier Marchand ;Mr Alexandre Marque ; Jérôme Michel;Mr Numa Rengot ;Mrs Sandra Strittmatter ;Mr Patrick Thiébart ; François Verdot;Mrs Myriam de Gaudusson , 33 1 45 02 79 00,Patrick Thiébart;Myriam de Gaudusson;Jérôme Michel;Jérôme Michel ;David Blondel;Yann Colin;François Verdot;Jérôme Barré,https://www.franklin-paris.com
Delaby Dorison Avocats    12 RUE HENRI ROCHEFORT        75017 PARIS                France,https://www.legal500.com/wp-content/uploads/assets/client/firm_logo/17000.jpg?v=1580315481, Delaby Dorison Avocats ,,contact@delaby-dorison.com,Ardian;Credit Mutuel;Galileo;Caisse d’Epargne IDF;Aon;Marignan;MEP;LFPI;Tiama;Siblu;Trescal;Bacacier,, 33 1 84 16 84 20,Emmanuel Delaby;Sophie Dorison,http://www.delaby-dorison.com
De Pardieu Brocas Maffei    57 AVENUE D'IENA    CS 11610    75773 PARIS CEDEX 16                France,https://www.legal500.com/wp-content/uploads/assets/client/firm_logo/10152.jpg?v=1587118937, De Pardieu Brocas Maffei ,,info@de-pardieu.com,"BORALEX;INNOVENT;NEOEN;ALBIOMA;DIF Infrastructures;ENEDIS;EDF RENOUVELABLES;GREEN YELLOW;VEOLIA;DALKIA;BANK OF TOKYO;MITSUBISHI UFJ;SUMITOMO MITSUI BANKING CORPORATION GROUP;DEUTSCHE PFANDBRIEFBANK (PBB);LA BANQUE POSTALE;ANTIN INFRASTRUCTURE PARTNERS;ORANO (ex AREVA);SUEZ;LANDESBANK SAAR;FIRST STATE INVESTMENT;CAISSE DES DEPOTS;TOTAL;CNP ASSURANCES;EDF;AXA;RTE;ELECTRICITE DE STRASBOURG;IPM / SAMSUNG ASSET MANAGEMENT;INFRALION;THE ORCHARD;TOYS “R” Us;MARIE BRIZARD WINE & SPIRITS;GROUPE BATA;RENAULT;GROUPE SEA INVEST;OAKTREE;ALCHEMY PARTNERS;FARALLON;KARTESIA;MAKURIA;TIKEHAU;ROUNDSHIELD PARTNERS;EQT;GROUPE CREDIT AGRICOLE (CA CIB, LCL, Caisses Régionales);BNP PARIBAS;GROUPE BPCE (NATIXIS, BRED, PALATINE, CAISSES d’EPARGNE et BANQUE POPULAIRE);BANK OF IRELAND;GOLDMAN SACHS;SOCIETE GENERALE;AAREAL BANK AG;ACCOR INVEST;ALLIANZ;ALTAREA COGEDIM;AMUNDI IMMOBILIER;APSYS;AXA IM;BATIPART;BLACKSTONE;BNP PARIBAS;CARREFOUR / CARMILA;CEETRUS;CHEYNE CAPITAL;COVIVIO;CREDIT AGRICOLE;DEKA BANK;EMERIGE;EQT;GALIMMO;GECINA;GENERALI;GOODMAN;GROUPAMA;HENDERSON PARK;ING;NATIXIS;PGIM;SOCIETE GENERALE;TISHMAN SPEYER;CAISSE DES DEPOTS ET CONSIGNATIONS;CNP ASSURANCES;STORENGY;ENEDIS;ANTIN INFRASTRUCTURE;BEI;CANAL PLUS RATP;CREDIT AGRICOLE;ORANO;UNIDEN;CONSEIL DU COMMERCE DE FRANCE;TOTAL;EDF;AXA IM;RTE;ELECTRICITE DE STRASBOURG;CA-CIB (CREDIT AGRICOLE GROUP);SOCIÉTÉ GÉNÉRALE;BNP PARIBAS;LCL;NATIXIS;CDC;ING;AAREAL BANK;DEUTSCHE BANK;DEKABANK;TIKEHAU CAPITAL;CREDIT FONCIER;ETAM;EIB;INVIVO;TERRENA;HSBC;IDINVEST;La BANQUE POSTALE;Chargeurs;Marie Brizard Wine & Spirits;Groupe Looping;GECINA (EUROSIC);BOOKING.COM;BNP PARIBAS;CA CIB;CORA;VALEO;EUROFINS;SHAFTESBURY;INTESA BANK;AXA REIM;SNI (CDC HABITAT);GENERALI;ASIA BROADCAST SATELLITE (ABS);BRINK;LIFE LIKE TOURING (TEG GROUP);THE NORTH FACE INC.;NAPAPIJRI;TIMBERLAND;VEOLIA;TOTAL SA;TOTAL RAFFINAGE CHIMIE;VINCI SA;VINCI Construction;TF1;EUROVIA;SUEZ;ENDEL;COVIVIO;IDEX;BOUYGUES IMMOBILIER;BERTIN GROUP;MBWS;VINCI AIRPORTS;CEETRUS;ENTREPOSE;DESSANGE;ACERGY;SCHNEIDER;OETKER;Groupe BELL AG;ELLIOTT;TERRENA;EDF;GLOBAL BLUE;GILEAD;CAA 11 (marketing agency of UEFA);Paris 2024 (Olympic Games organization Committee);FEDERATION FRANCAISE DU BATIMENT;CNP;ESSILOR;AMERICAN TOWER;Groupe GBH;CIC-CREDIT MUTUEL;FPS TOWERS;LES CINEMAS PATHE GAUMONT;GROUPE GASCOGNE;FEDERATION DES INDUSTRIES NAUTIQUES;LIGUE DE FOOTBALL PROFESSIONNEL;LIGUE NATIONALE DE BASKETBALL;BOOKING.COM;SOCIETE GENERALE;MALAKOFF MEDERIC;ALTAREA-COGEDIM;GROUPE SOUFFLET;GROUPE RUBIS;AXA;AXEREAL;THE NORTH FACE;TIMBERLAND;VANS;ISOTONER;NAPAPIJRI;FRENCH PROFESSIONAL FOOTBALL LEAGUE;FRENCH PROFESSIONAL BASKETBALL LEAGUE;FRENCH FOOTBALL FEDERATION;SPORT & CO;CAA 11;PARIS 2024;PERNOD RICARD;ELLIOTT MANAGEMENT;21 Centrale Partners;Ardian;CM-CIC Investissement;Cathay Capital;Five Arrows Managers;Idinvest;Nixen Partners;Siparex;Tikehau;UI Gestion;BORALEX;INNOVENT;EDF RENOUVELABLES;GREEN YELLOW;EIFFEL;NEOEN;ALBIOMA;SOCIETE GENERALE;CEPAC;VINCI;BEI;CREDIT FONCIER DE FRANCE;EIFFAGE;DEUTSCHE PFANDBRIEFBANK (PBB);BNP PARIBAS;LA BANQUE POSTALE;BANK OF TOKYO / MITSUBISHI UFJ / SUMITOMO MITSUI BANKING CORPORATION GROUP;DIF INFRASTRUCTURES;LANDESBANK SAAR;AUXIFIP;CREDIT AGRICOLE CORPORATE AND INVESTMENT BANK;Tishman Speyer;Batipart;Carrefour;Gecina;Altarea Cogedim;Emerige;Fonciere Des Regions;Credit Agricole Assurances;Rothschild;Eurosic;21 Centrale Partners;Financiere Cep;Ergon Capital;EMZ Partners;GBH;ITS Group SA;Algonquin and Cardif;CA-CIB;SOCIETE GENERALE;BNP PARIBAS;LCL;NATIXIS;CREDIT DU NORD;BARCLAYS BANK PLC.;HSBC;INVIVO;BASTIDE;IN VIVO;ORANO (ex. AREVA);CNP ASSURANCES;NATIXIS GLOBAL ASSET MANAGEMENT;AXEREAL;BATIPART;AGRIAL;GROUPE SOUFFLET;CARREFOUR;LOOPING GROUP;LA BANQUE POSTALE;CREDIT AGRICOLE ASSURANCES;SPHERE;IPM GROUP AND SAMSUNG ASSET MANAGEMENTCO., LTD;PROPLAST;ADIT;LOOPING;DENTRESSANGLE;MBWS;TOFANE;GROUPE FREY;COVIVIO;Copywrighte;Timberland;VF Corporation;Eurofins Scientific;Totes Isotoner;Vans;Asia Broadcast Satellite (ABS);The North Face;Napapjri",, 33 1 53 57 71 71,Christine Le Bihan-Graf;Jean-Renaud Cazali;Philippe Dubois;Joanna Gumpelson;Emmanuel Fatôme;Paul Talbourdet;Christine Le Bihan-Graf;Christophe Gaillard;Olivier Hubert;Paul Talbourdet;Philippe Dubois;Barbara Levy;Philippe Rozec;Philippe Guibert;Emmanuel Durand;Barbara Levy;Emmanuel Durand ;Jean-François Pourdieu;Cédric Chanas;Jean-Renaud Cazali;Emmanuel Chauve;Corentin Coatalem;Patrick Jaïs;Thierry Brocas;Patrick Jais;Jean-François Pourdieu;Guillaume Touttée;Barbara Levy,https://www.de-pardieu.com
De Gaulle Fleurance &amp; Associés    9 RUE BOISSY D'ANGLAS        75008 PARIS                France,https://www.legal500.com/wp-content/uploads/assets/client/firm_logo/15892.jpg?v=1580315473, De Gaulle Fleurance & Associés ,,contact@dgfla.com,BPCE;Diet Sensor;@health;247 Films;Bibliothèque Nationale de France;BSA;BPCE;CBS;CNC (Centre national du cinéma et de l’image animée);Dassault Systems;Dreamworks Animation/NBC Universal;Editions Xavier Barral;Epic Games;Fox21;Lavazza;Microsoft;No Money Productions;TF1;Ubi Bene;Yale University Press;Alstom;Château de Versailles;Colgate-Palmolive;Culligan;DreamWorks Animation/NBC Universal;Epic Games;Etam;GIP Paris 2024;Haribo;Hill’s Pet Nutrition;Interior’s;Les Amis de Delâge;Mango;Monte Carlo – Société des Bains de Mer;National Football League;Nexity;Palais des Thés;Showroomprive.com;Skechers;UEFA;Yann Couvreur Pâtisserie;247 Films;DreamWorks Animation;No Money Production;Ran Entertainment;Vamonos Films;Koch Films;NBC Universal;Warner Bros. (US);Amaury Sport Organisation;French Tennis Federation;Meïssa N’Diaye;Paris 2024 Olympics and Paralympics bid committee;Syndicat National des Moniteurs du Ski Français;UEFA;UNESCO;ASO-Amaury Sport organization;Paramount;TF1;Twentieth Century Fox;@Health;DietSensor;Icade;Ythera;Adobe;ASO Amaury Sport Organization;AUF (Agence Universitaire de la Francophonie);Autodesk;BPCE;Cegedim;Dassault Systèmes;Dexia;Microsoft;Monte-Carlo Société des Bains de Mer;SAS Institute;TF1;UEFA;Alstom;Alyse;Caisse des dépôts et consignations;Collectivité Territoriale de Guyane;Conseil Régional de la Réunion;Fédération Française du Transport de Personnes sur Route (FFTPR);Global Ecopower;Gouvernement de la Nouvelle Calédonie;Ministry of Justice;Photosol;Ubi Bene;UEFA;WireCo/CASAR;Doctrine.fr;Hospices civils de Lyon;Innergex;Solideo;Alstom;BPCE;CBS;Daniel Féau Conseil Immobilier;Goliath;Groupe Bel;Koch Media;LVMH;Maaf Assurances;Microsoft;Monte Carlo Societe Des Bains De Mer;UEFA;Acofi;Action Logement;Apex;Banque Palatine;Banques Populaires;Baywa;BHC Energy;Bioinvest;BNP Paribas;BPCE;BPI Groupe;Caisses D’Epargne;Cam Energie;Capvert;Credit Agricole;Credit Cooperatif;Credit Mutuel – CIC;Danske Commodities;Demeter Partners;Engie Envision;Alstom;Cahors;Genoway;Ythera;Acofi;Antalis;Arkéa Banque Entreprises et Institutionnels;Arval;Astris Finance;Auchan Holding;Banque Internationale à Luxembourg;Banque Palatine;Banques Populaires;BNP Paribas;BPCE;Caisses d’Epargne;Covea;Crédit Agricole d’Ile de France;Crédit Agricole Immobilier;Crédit Coopératif;Crédit Mutuel-CIC;CSI Leasing;Demeter Partners;Deutsche Pfandbriefbank;Envision;Fonds Européen d’Investissement;Foresight;Forsa Energy;Gageo;Greenwish;HSBC;IDCM Partners;IdInvest;Immochan;Islamic Corporation for the Development of the Private Sector (ICD);KFW Epex;La Banque Postale;LCM Partners;Lendix;Mediobanca;Meridiam;Natixis;Nord LB;Omnes Capital;Philips;Préjeance;Société Générale;SQN;Stern & Co;Sumitomo Mitsui Banking Corporation (SMBC);Tikehau;Touax;Transdev;Triodos;European Homes;RATP Dev;Renault;Société Française de Gériatrie et Gérontologie,Mr Jean-Christophe Amy ; Linda Azizi ;Mr Matthieu Bichon ;Ms Catherine Castro ;Mr François Couhadon ;Mr Georgie Courtois ; Matthieu Dary; Déborah David; Frédéric Destal;Ms Blandine Fauran ; Philippe Feitussi ;Mr Henri-Nicolas Fleurance ;Mr Louis de Gaulle ;Mr Thierry Gillot ;Ms Muriel Guillin-Modaine ;Mr Julien Horn ;Ms May Jarjour ;Mr Jean-Marie Job ; Jérôme Labrousse ;Mr Gilbert Ladreyt ;Mr Pierrick Le Goff ;Mr Serge Lederman ; Agnès Macaire;Mr Philippe Moncorps ;Ms Mireille Mull-Jochem ;Ms Samantha Nataf ;Mr Jean-François Paque ;Ms Sylvie Perrin ; Francine Le Péchon-Joubert;Mr Charles-Edouard Renault ; Vanessa Ruffa ;Mr Jean-Baptiste Santelli ;Mr Vincent Schmitt ;Ms Danielle Smolders ;Mr Anker Sorensen ;Mr Jonathan Souffir ; Cécile Théard-Jallu;Mr Thierry Titone ;Ms Gaïa Witz ;Mr François Zocchetto ;Mr Julien de Michele , 33 1 56 64 00 00,Georgie Courtois;Jean-Sébastien Mariez;Cécile Théard-Jallu;Louis de Gaulle;Julien Horn;Julien Horn;Serge Lederman;Charles-Edouard Renault;Julien Horn;Louis de Gaulle;Rhadamès Killy;Agnès Macaire;Charles-Edouard Renault;Louis de Gaulle;Blandine Fauran;Jean-Marie-Job;Cécile Théard-Jallu;Louis de Gaulle;Julien Horn;Frédéric Destal;Agnès Macaire;Gaïa Witz;Louis de Gaulle;Jean-François Paque;Sylvie Perrin;Louis de Gaulle;Francine Le Péchon-Joubert;Matthieu Barthélemy;May Jarjour;Sylvie Perrin;Jean-Baptiste Santelli;Jonathan Souffir;Henri-Nicolas Fleurance;Vincent Schmitt,https://www.degaullefleurance.com
Degroux Brugère    134 BOULEVARD HAUSSMANN        75008 PARIS                France,https://www.legal500.com/wp-content/uploads/assets/client/firm_logo/15202.jpg?v=, Degroux Brugère ,,contact@degrouxbrugere.com,Patrimmofi;Delcourt;Société de la Tour Eiffel;Huchet Demorge;Capital Croissance, Nicolas Ballet ; Denis Brugère ; Philippe Delattre ; Valery Diaz-Martinat ; Dominique Dumas ; Augustin Fleytoux ;Mr Frédéric Hennes; Jean Melcion ; Sybille Plantin ; Jérémie Swiecznik , 33 1 42 65 70 81,Denis Brugère;Frédéric Hennes;Nicolas Ballet,https://www.degrouxbrugere.com
De Castro &amp; Stasse    125 BOULEVARD SAINT GERMAIN        75006 PARIS                France,https://www.legal500.com/wp-content/uploads/assets/client/firm_logo/18394.jpg?v=1580315490, De Castro & Stasse ,,cabinet@decastro-stasse.com,,, 33 1 82 83 48 10,,https://www.decastro-stasse.com
Debevoise &amp; Plimpton LLP    4 PLACE DE L'OPERA        75002 PARIS                France,https://www.legal500.com/wp-content/uploads/assets/client/firm_logo/50273.jpg?v=1580315524, Debevoise & Plimpton LLP ,,pclermontel@debevoise.com,Société Générale;American Express,Mr Eric Bérengier ;Mr Pierre Clermontel ;Mr Antoine Kirry ;Mr Philippe Tengelmann , 33 1 40 73 12 12,Antoine Kirry;Antoine Kirry;Frederick Davis,http://www.debevoise.com
Dechert LLP    32 RUE DE MONCEAU        PARIS 75008                France,https://www.legal500.com/wp-content/uploads/assets/client/firm_logo/9038.jpg?v=1580315549, Dechert LLP ,,Kieran.Morgan@dechert.com,AbbVie Biotherapeutics;Abivax;Affluent Medical;Allergan;Astorg / Laboratoire HRA Pharma;Biomunex;BPIFRANCE (PSIM);Caravelle;DNA Script;Edwards Lifesciences;GlaxoSmithKline;Illumina Ventures;Kurma Partners;Idinvest;Lbo France;Bnp Paribas Developpement;PSSF;L’Air Liquide;Lysogene;MedinCell;MSD;Poxel;Roche;Sofinnova Partners;Spineguard;Tikehau;The Republic of Poland;The Czech Republic;Rizzani De Eccher S.p.A.;Colombian investors Carlos Mario Rios Velilla & Francisco Javier Rios Velilla;Autopista del Norte S.A.C.;The Republic of Ecuador;The Republic of Colombia;The Plurinational State of Bolivia;CIT Group;DNA Script;Inside Secure;Nuance;Orange;PepsiCo;Deutsche Bahn AG;Bénéteau;ArianeGroup;Generali;InVivo;Astorg/HRA;Caravelle;Crown Holdings;Cora;Roche;IBM;Generali;Sifi;NHCO Nutrition;Bénéteau Group;HRA Pharma;Affluent Medical;Axa Venture;Blisce;Bpifrance;CM-CIC Innovation;CapDecisif;Gigamesh;Illumina Ventures;LBO France;Sofinnova Partners;Dow Chemicals;Enedis;STEVA;Comsa Emte;Groupe Casino;Pepsico;BYD;Lysogene;MedinCell;Biomunex;Tikehau;Rothschild Asset Management;Rothschild Martin Maurel;Cheyne Capital Management;Generali;Partech Partners;Tikehau;Allianz;G4Partners (Geneo);Blisce;Alexandre Mars;EPIC Foundation;17Capital;Artemis – Financière Pinault;LGT European Capital for Paris;Truffle Capital;Crédit Agricole Corporate and Investment Bank;Natixis;La Banque Postale;BNP Paribas;HSBC France;ING Bank N.V;Artemis – Financière Pinault;SunCapital;Chequers;Tikehau;Rothschild Martin Maurel;Eurazeo PME;Astorg;17 Capital;Blisce – Alexandre Mars;Edmond de Rothschild Private Equity;Crown Holdings;Caravelle;Alven Capital;Partech  Partners;Certares;Allianz Global Investors;Generali;Prudential – PGIM;LGT European Capital;Cheyne Capital Management;Qube Research & Technology;Laboratoires CTRS;Archimed;Lysogene;Abivax;MedinCell;Bryan Garnier;RBC Europe Limited;Poxel;Spineguard;Generali Insurance Asset Management;S.p.A.;InVivo;Eurovia;Groupe Bénéteau;Arkema;Stanley Europe BVBA;Air Liquide;Astorg Partners SAS;BearingPoint France SAS;ALIAD;PepsiCo;Caravelle;HGH Infrared Systems;Certares;Marquetis;HysetCo;Five arrows;Eurazeo PME;Cathay Capital;The Republic of Colombia;The Republic of Ecuador;The Plurinational State of Bolivia;Petróleos Paraguayos (Petropar);Colombian investors Carlos Mario Rios Velilla & Francisco Javier Rios Velilla;AUNOR (Autopista del Norte),Ms Claudia Annacker; Laurence Bary;Ms Ermine Bolot ;Ms Sabina Comis ; Louis De Chezelles;Mr Alain Decombe ;Mr Philip Dunham ;Mr Cyril Fiat ; Marie Fillon; François Hellot; Xavier Leroux; Isabelle Marguet; Laurent Martinet; Thibault Meiers;Mr Xavier Nyssen ; Sophie Pelé; Marion Provost; José Manuel García Represa; Anne-Charlotte Rivière;Mr Eduardo Silva Romero ;Mr Jacques Sivignon ; Mélanie Thill-Tayara;Mr Philippe Thomas ; Privat Vigand, 33 1 57 57 80 80,Alain Decombe;Mélanie Thill-Tayara;Marie Fillon;François Hellot;Isabelle Marguet;Sophie Pelé;Anne-Charlotte Rivière;Jacques Sivignon;Eduardo Silva Romero;Philippe Thomas ;Mélanie Thill-Tayara;Marie Fillon;Anne-Charlotte Rivière;François Hellot;Laurent Martinet;Jacques Sivignon;Marie Fillon;Sabina Comis;Cyril Fiat;Privat Vigand;Sabina Comis;François Hellot;Alain Decombe;Ermine Bolot;François Hellot;Eduardo Silva Romero,https://www.dechert.com/paris
"Curtis, Mallet-Prevost, Colt &amp; Mosle LLP    6 AVENUE VELASQUEZ        75008 PARIS                France",https://www.legal500.com/wp-content/uploads/assets/client/firm_logo/51309.jpg?v=1580315529," Curtis, Mallet-Prevost, Colt & Mosle LLP ",,contactus@curtis.com,The Republic of Kazakhstan;Russia;Arkema;Cameroon;National Oil Corporation of Libya;Romania;Cyprus;Government of India;Unipharm;Pernod Ricard,, 33 1 42 66 39 10,Peter Wolrich;Geoffroy Lyonnet;Marco Blanco,https://www.curtis.com
Diametis AARPI    45 RUE DE COURCELLES        75008 PARIS                France,https://www.legal500.com/wp-content/uploads/assets/client/firm_logo/18160.jpg?v=1580315489, Diametis AARPI ,,contact@diametis.com,Aviva Investors France;Rgreen Invest;Bred Banque Populaire;Allianz Global Investors GmbH (Allianz Group);Yelloan;NH Hotels Group;Credit Agricole Consumer Finance (Credit Agricole Group);MACIF;PREPAR IARD (BPCE Group);PREPAR VIE (BPCE Group);Tradewind Holding GmbH;MoneyCup / Wide Asset Management,, 33 1 78 94 58 41,Jean-Pascal Brun,https://www.diametis.com
Courrégé-Foreman    3 avenue Victor Hugo                    75116    France,https://www.legal500.com/wp-content/uploads/assets/client/firm_logo/17983.jpg?v=1580315488, Courrégé-Foreman ,,avocats@courrege-foreman.com,SAFRAN GROUP;AÉROPORTS DE PARIS;UBER;ALLIANZ GLOBAL AND CORPORATE SPECIALTY SE;GLOBAL AEROSPACE INC;LA REUNION AERIENNE;DIRECTION GENERALE DE L’AVIATION CIVILE;AXA Corporate Solutions;SAFRAN;TOTAL;AEROPORTS DE PARIS;UBER;DIRECTION GENERALE DE L’AVIATION CIVILE, Mauricia Courrégé;Mr Simon Foreman , 33 1 85 08 02 40,Mauricia Courrégé;Simon Foreman;Mauricia Courrégé;Simon Foreman,http://www.courrege-foreman.com
"Corus, Société d'avocats    14 RUE D'ANJOU        75008 PARIS                France",https://www.legal500.com/wp-content/uploads/assets/client/firm_logo/16853.jpg?v=1580315479," Corus, Société d'avocats ",,corus@corus-avocats.com,,Mr Thierry Bernard, 33 1 42 66 58 57,,https://www.corus-avocats.com
"Cohen &amp; Gresser LLP    30, RUE LA BOÉTIE        75008 PARIS                France",https://www.legal500.com/wp-content/uploads/assets/client/firm_logo/53067.jpg?v=1580315537, Cohen & Gresser LLP ,,info@cohengresser.com,Exane Derivatives;Exane Derivatives;Alexis Kuperfis;Ackermans & van Haaren NV;Tordjmans family;Virginie Calmels;Grant Thornton;NSIA Banque en Cote D’Ivoire;Parkeon SAS;Mr. Matthieu Lambeaux;Coyote Conseil SAS & Christophe Dechavanne;Loewe;Tordjmans family;Ackermans & van Haaren NV;Manuchar;CS Groupe;Celeste Management;LVMH;Alfresco;Cisco;Paymium;Avril;Constellation Software;Groupe Les Echos;BNP Paribas Group and BNP Paribas Factor;Dalenys;Altares;Sync;Impala Group;Seiko France;Famille Perrin;Apple Tree Group;Owkin France;William Brad Pitt;UBS AG, Angéline Duffour; Muriel Goldberg-Darmon ; Guillaume Guérin; Loïc Henriot; Johannes Jonas ; Franck Le Mentec ; Héloïse Masson ; Anna Milleret-Godet ; Guillaume Seligmann , 33 1 53 53 45 01,Muriel Goldberg-Darmon;Muriel Goldberg-Darmon;Loïc Henriot;Loïc Henriot;Angéline Duffour;Loïc Henriot;Guillaume Seligmann ;Franck Le Mentec,http://www.cohengresser.com
Coblence Avocats    62 AVENUE MARCEAU        75017 PARIS                France,https://www.legal500.com/wp-content/uploads/assets/client/firm_logo/10129.jpg?v=1580315445, Coblence Avocats ,,contact@coblence-avocats.com,Tereos;George V;Alcatel Submarine Networks;McDonald’s;Althea Healthcare Group;DHL;Icon;Allianz Vie;Mercedes Benz;Mizuho;Clear Channel;France Télévisions;Jungheinrich;France Médias Monde;Radio France;GAMNED;UNIGRAINS;OCP / Mc KESSON;SUET;GUERBET;LE BRONZE ALLOYS;CTS COMPUTER AND TELECOMMUNICATIONS;SYSTEMS;ANDLINGER;BAVARIA;STEINMANN MANAGMENT DEVELOPPMENT, Anne-Dominique Bousquet ; Alexandre Brugière ; Frédéric Coppinger ; Catherine Davico-Hoarau ; Ludovic Dorès ; Pierre-Antoine Dubecq ;Mrs Mélanie Erber ; Marion Fabre ; Chantal Giraud-van Gaver ; Laurent Guardelli ; Elisabeth Laherre ; Benjamin Magnet ; Alexandre Polak ; Martine Riou , 33 1 53 67 24 24,Chantal Giraud-van Gaver;Catherine Davico-Hoarau;Elisabeth Laherre;Laurent Guardelli;Martine Riou;Ludovic Dorès,https://www.coblence-avocats.com
CG LAW GUYOMARC'H    27 Bis Avenue Foch / 48 rue Paul Valery        75116 PARIS                France,https://www.legal500.com/wp-content/uploads/assets/client/firm_logo/17455.jpg?v=, CG LAW GUYOMARC'H ,,contact@cglaw.fr,,, 33 1 71 19 74 32,,https://www.cglaw.fr/
Clifford Chance    1 RUE D'ASTORG        75008 PARIS                France,https://www.legal500.com/wp-content/uploads/assets/client/firm_logo/679.jpg?v=1580315547, Clifford Chance ,,info@cliffordchance.com,"French Ministry for Ecological and Inclusive Transition;EDF Renouvelables;Société du Grand Paris;Eiffage Concessions;Transdev;RATP;Antin Infrastructure Partners;Bolloré Energie;Mirova;The European Bank for Reconstruction and Development (EBRD);Association of Morrocan asset managers and investment funds) (ASFIM);Amundi AM;Samsung;European Investment Bank;Ardian Private Debt;Ares Capital;Barings;BlackRock;Capzanine;EQT Infrastructure III;LBPAM;SCOR Investment Partners SE;CDC (Caisse des dépôts et consignations);EIB;Ministry of Transport of Finance;BPI France;The European Bank for Reconstruction and Development;FIA Europe;LCH Clearnet S.A.;World Bank;3i;Apax Partners;Apollo;Ardian;Bridgepoint;DIF Infrastructure;Carlyle Group;CDC I Capital;Cinven;Clayton Dublier & Rice;KKR;InfraVia;Macquarie;Meridiam;Permira;Wendel;Airbus;AXA;Bouygues;Carrefour;EDF;Eiffage;L’Oréal;Pierre & Vacances;Ramsay Santé;SANEF;TOTAL;Vinci;Bank of America Merrill Lynch;Barclays;BTMU;Credit Suisse;Deutsche Bank;Goldman Sachs;HSBC;ING;IKB;JP Morgan;UniCredit;Rothschild;SMBC;BNP Paribas;Crédit Agricole;CACEIS;Natixis;Société Générale;BNP Paribas;Crédit Agricole CIB;Natixis;Société Générale;Goldman Sachs;Bank of China International Holdings Ltd;Citigroup;HSBC;J.P. Morgan;Morgan Stanley;National Bank of Abu Dhabi;Standard Chartered Bank;Accor Hotels;Carmila;Carrefour;Dassault Systèmes;Neopost;Unibail-Rodamco-Westfield;VINCI;Volvo;Thales;UMG Groupe VYV;Société du Grand Paris;The Government of Sultanate of Oman;CADES;BNP Paribas;Société Générale;Natixis;Crédit Agricole CIB;Goldman Sachs;CItibank;Morgan Stanley;J.P. Morgan;Deutsche Bank;HSBC;UBS;Barclays;Credit Suisse;ING;Vallourec;Unibail-Rodamco;Ubisoft;Europcar Mobility Group;Sopra Steria;Jackpotjoy;Accor;Veolia;Carmila;Arkema;Scor;Apax;Caisse de dépôt et placement du Québec;PrimaryBid;Airbus;AB Electrolux;Rexel;Ingram Micro;Teva Pharmaceuticals;Crédit Agricole;Natixis;My Money Bank;CIC;Credipar;EBRD;EIB;EIF;IFC/World Bank;Banco Santander;Deutsche Bank;Credit Suisse;Banque Internationale à Luxembourg;AXA;CNP Assurances;Carrefour;Constellium;Rexel;Elior;XPO;Ingram Micro;Ostrum Asset Management;Mirova;Kartesia;Montefiore;Meridiam;Primonial;Zencap Asset Management;Schroder;Carrefour;Airbus;Cinven;Apax;JP Morgan;SFR;Pfizer;Jacob Douwe Egberts (JDE);Royal Bank of Scotland;Europcar;AXA IM;Ligue de Football Professionnel;The Kooples;Cessna;Europcar;Kingspan;General Electric;Agence des Participations de l’Etat (APE);Airbus;Ariane Group;Arkema;BNP Paribas;Carrefour;Crédit Agricole/CACEIS;Crédit Mutuel;Engie;Europcar;Framatome;General Electric;Hearst;Ingram Micro;Ligue de Football Professionnel;Oracle;Plastic Omnium;Rexel;Shell;Tereos;Teva Pharmaceuticals Industries;Total;Bahrain Steel;Africa50 Infrastructure Fund;Bouygues;CDC Group Plc;Eiffage;EDF;ENGIE;ENEL;Meridiam;TOTAL;Agence Française de Développment (AFD);Africa Finance Corporation;African Development Bank (ADB);Asian Development Bank;Asian Infrastructure Investment Bank (AIIB);DEG;EBRD;EIB;FMO;IDA;IFC;Inter-American Development Bank;Inter-American Investment Corporation;MIGA;OeEB;OFID;OPIC;Proparco;The Emerging Africa Infrastructure Fund (EAIF);The Korean Development Bank;Bpifrance;Euler Hermes;K-sure;SACE;UK Export Finance;Auxifip;Barclays;CIC;HSBC;Macquarie;MUFG;Santander;Standard Chartered bank;Türkiye Garanti Bankasi A.Ş.;UniCredit;BNP Paribas;CACIB;Natixis;Société Générale;Fédération Française de Football;Ligue de Football Professionnel;Fédération Française de Tennis;Paris Gay Games 2018;African Development Bank (ADB);Asian Development Bank;Asian Infrastructure Investment Bank (AIIB);DEG;EBRD;EIB;FMO;IFC;Inter-American Development Bank;Inter-American Investment Corporation;MIGA;OeEB;OPIC;Proparco;The Emerging Africa Infrastructure Fund (EAIF);The Korea Development Bank;Agence Française de Développement (AFD);Africa Finance Corporation;Emerging Africa Infrastructure Fund;FMO;OFID;Ethiopian Electric Power;French Ministry of Ecology, Sustainable Development and Energy;Ministry of Water Irrigation and Energy, Government of the Federal Democratic Republic of Ethiopia;Bpifrance;Hermes;K-sure;SACE;UK Export Finance;BNP Paribas;CACIB;CDC;Natixis;Société Générale;Bouygues;EDF;Eiffage;ENGIE;Meridiam;Total;Vinci;Barclays;HSBC;Macquarie;Santander;Standard Chartered bank;Türkiye Garanti Bankasi A.Ş.;UniCredit;MUFG;AEW Ciloger;Allianz Real Estate;Amundi;Axa IM;Benson Elliott;Blackstone Real Estate;BNP Paribas REIM;CDC Investissement Immobilier;Colony NorthStar;Crédit Suisse Asset Management;DWS;Fortress;Gecina;GIC;HSBC REIM;Icade;Ivanhoé Cambridge;Klépierre;La Française REM;LaSalle Investment Management;Maple Knoll Capital;Partners Group;Patrizia;PGGM;Primonial REIM;Prologis;Scaprim;Schroders;Swiss Life REIM;Union Investment Real Estate;Westbrook;Airbus;ATR (Avions de Transport Régional G.I.E.);Airbus Helicopters;Airbus Defence & Space;Cessna Citation European Service Center;ArianeGroup;Engie;Insmed;Plastic Omnium;SMCP;Samsung Electronics France;Standard & Poor’s;Airbus;FXCM;Fortune Legend Ltd;Airbus;Pfizer;Zoetis;Teva;NovoNordisk;IPSEN;Ethics;Meda Pharma;Insmed;Sofinnova Partners;ArchiMed;Kurma Partners;Bpifrance Investissement;Intervascular;Abbott;Iscador;Klosterfrau Healthcare Group;BTG International Germany GmbH;Merck;Nicox;PTC Therapeutics;Dassault Systèmes;Stallergenes;Sandoz;Pyxus International;Ring Holding;LFB;Sanity Group;Innovative Surgery;Airbus Group;Axel Springer;Caisse des dépôts et consignations;Crédit Agricole;Eiffage;Engie;L’Oréal;Mondelēz;Plastic Omnium;Veolia;3i;Apax Partners;Ardian;Bridgepoint;Capzanine;Cinven;Goldman Sachs;Permira;SCOR Investment Partners SE;Wendel;AEW;Wendel;Rexel;Carlyle European Real Estate;AXA;Orion;QIA;EDF;Amundi;Accor;Altaréa Cogedim;Primonial;Ipsen;Swiss Life REIM;L’Oréal;Engie;PAI;Spie;The Government of Taiwan;Crédit Agricole;Bahrain Steel;WANZL;Von Roll;PayPal;Schaeffler;Hanon Systems Charleville;Visteon Corporation;Trèves;Pfizer;ALLLIA (GEBERIT);Visteon Electronics France;Beckman Coulter France;Fujifilm France", François Bonteil; Reinhard Dammann ; Anthony Giustini , 33 1 44 05 52 52,David Préat;Gauthier Martin;Frédérick Lacroix;Thierry Arachtingi;Daniel Zerbib;Nikolaï Eatwell;Alex Bafi;Cédric Burford;Jonathan Lewis;Alex Bafi;Aline Cardin;Thomas Baudesson;Charles-Henri Boeringer;Jonathan Lewis;Julien Rocherieux;Frédérick Lacroix;Thomas Baudesson;Diego de Lammerville;Thibaud d’Alès;David Tayar;Katrin Schallenberg;Anthony Giustini;Delphine Siino Courtin;Nikolaï Eatwell;Richard Tomlinson;Laurent Schoenstein;Daniel Zerbib;David Préat;Gauthier Martin;Jason Fry;Simon Greenberg;Yves Wehrli;Xavier Comaills;Anthony Giustini;Nikolaï Eatwell;Delphine Siino Courtin;Richard Tomlinson;Daniel Zerbib;David Préat;Gauthier Martin;François Bonteil;Alexandre Couturier;Fabrice Cohen;Dessislava Savova;Yves Wehrli;Dessislava Savova;Thomas Baudesson;Diego de Lammerville;Charles-Henri Boeringer;Thomas Baudesson;Charles-Henri Boeringer;Thomas Baudesson;David Tayar;Olivier Gaillard;Gaëlle Merlier;Fabrice Cohen;Gilles Lebreton;Marianne Pezant;Mathieu Rémy;Laurent Schoenstein;Thierry Schoen;Fabrice Cohen;Marianne Pezant;Eric Davoudet;Alexandre Lagarrigue;Jason Fry;Simon Greenberg;François Farmine;Delphine Caramalli;Reinhard Dammann,https://www.cliffordchance.com
CBR &amp; Associés    20 AVENUE DE L'OPERA        75001 PARIS                France,https://www.legal500.com/wp-content/uploads/assets/client/firm_logo/12067.jpg?v=1580315454, CBR & Associés ,,Debeine@cbr-law.com,NEXTRADIO TV;MOLOTOV;SFR;TF1;LAGARDERE ACTIVE;ADIDAS;BRITISH AMERICAN TOBACCO;BACARDI MARTINI FRANCE;PRIMAGAZ;KAEFER WANNER;PROCTER & GAMBLE;SFR;TOTAL DIRECT ENERGIE;EUROVIA;TF1;EUROPCAR;ARAMIS;LAGARDERE ACTIVE;MSC CRUISES;GRUPPO CIMBALI;CLINIQUE SAINT JEAN L’ERMITAGE;SELAFA MJA represented by F. Lévy;SELAFA MJA represented by V. Leloup-Thomas;L’AMY SA;Suntec Industries France;Société Civile des Personnels des Publications de la Vie Catholique,, 33 1 53 65 70 00,Alain Barsikian;Michael Majster;Pierre-Olivier Chartier ;Judith Vuillez;Pierre-Olivier Chartier;Olivier Debeine,http://www.cbr-law.com
Carbonnier Lamaze Rasle    8 RUE BAYARD        75008 PARIS                France,https://www.legal500.com/wp-content/uploads/assets/client/firm_logo/20584.jpg?v=1580315492, Carbonnier Lamaze Rasle ,,ddebernis@carlara.com,ARTE FRANCE;ARTE GEIE;FRANCE MEDIAS MONDE;FRANCE TELEVISIONS;LC2 INTERNATIONAL;LC2 MEDIAS;LES EDITIONS JALOU;QUINTA COMMUNICATIONS;BAUDINTER,, 33 1 53 93 61 41,Michel Rasle ;Edouard de Lamaze,http://www.carlara.com
"Carakters    69, BOULEVARD MALESHERBES        75 008 PARIS                France",https://www.legal500.com/wp-content/uploads/assets/client/firm_logo/15009.jpg?v=1580315469, Carakters ,,cabinet@carakters.com,,Mr Xavier MARCHAND , 33 01 53 83 95 00,,http://www.carakters.com
Cabinet Neuer    26 AVENUE KLEBER        75116 PARIS                France,https://www.legal500.com/wp-content/uploads/assets/client/firm_logo/14433.jpg?v=, Cabinet Neuer ,,contact@cabinetneuer.com,Brancusi estate;Picasso estate;Giacometti Foundation;Klein estate;Arman estate,, 33 1 45 02 15 00,Jean-Jacques Neuer,http://www.cabinetneuer.com
Candé Blanchard Ducamp    5 AVENUE MESSINE        75008 PARIS                France,https://www.legal500.com/wp-content/uploads/assets/client/firm_logo/17451.jpg?v=1580315485, Candé Blanchard Ducamp ,,cabinet@cbdavocat.com,,, 33 1 84 16 75 35,Patrice de Candé;Julien Blanchard ;Claire Herissay-Ducamp.;Patrice de Candé;Julien Blanchard;Claire Herissay-Ducamp;Margaux Nègre-Carillon;Clarisse Tourneux;Anna Revidi;Patrice de Candé;Julien Blanchard;Claire Herissay-Ducamp;Margaux Nègre-Carillon;Clarisse Tourneux;Anna Revidi,http://www.cbdavocat.com
Cabinet Menasce Chiche    35 AVENUE D'EYLAU        75116 PARIS                France,https://www.legal500.com/wp-content/uploads/assets/client/firm_logo/16936.jpg?v=1580315480, Cabinet Menasce Chiche ,,contact@avocat-affaires.com,, Dan HASSON ;Me Véronique MENASCE-CHICHE ; Charles MEYER , 33 1 47 27 11 11,,https://www.avocat-affaires.com
Cabinet Bouchara Avocats    17 RUE DU COLISEE        75008 PARIS                France,https://www.legal500.com/wp-content/uploads/assets/client/firm_logo/15715.jpg?v=, Cabinet Bouchara Avocats ,,vb@cabinetbouchara.com,"BA & SH;PAUL & JOE;LA FRANCAISE DES JEUX;IKKS GROUP (IKKS, ONE STEP, I CODE);WESTERN DIGITAL;KIDILIZ GROUP;ELEVEN PARIS;TECHNITOIT;ATTIJARIWAFA BANK;LES DEUX MAGOTS;VALEGE;NETBET;BA & SH;Paul & Joe;La Francais des Jeux;IKKS Group;Western Digital;Kidiliz Group;Eleven Paris;Technitoit;Attijariwafa Bank;Les Deux Magots;Valege;Netbet", Vanessa Bouchara, 33 1 42 25 42 30,,https://www.cabinetbouchara.com
brL Avocats    11 - 13 AVENUE DE FRIEDLAND        75008 PARIS                France,https://www.legal500.com/wp-content/uploads/assets/client/firm_logo/17386.jpg?v=1601550475, brL Avocats ,,secretariat@brl-avocats.com,VINCI;GROUPE FNAC;CONFORAMA;GROUPE ACCOR;GROUPE ELSAN;GENERAL MILLS AND YOPLAIT;CERBA HEALTHCARE / CERBALLIANCE GROUP;SIGNIFY;AGCS (Allianz Group Corporate Specialty);KUEHNE NAGEL;NESTLE FRANCE;OGF;TECH DATA;TAKEDA;APERAM;LACOSTE;CALZEDONIA France;PARASHOP;GETRONICS;ZADIG & VOLTAIRE,, 33 1 48 88 50 50,Nicolas Czernichow,http://www.brl-avocats.fr
"Branche Masset &amp; Associés    10, AVENUE DE L'OPERA        75001 PARIS                France",https://www.legal500.com/wp-content/uploads/assets/client/firm_logo/17813.jpg?v=1592560622, Branche Masset & Associés ,,branchelawoffice@gmail.com,,Mr Jean-Michel Branche; Valérie Masset , 33 1 42 22 10 11,,http://www.branchemasset.fr
AyacheSalama    47 Avenue Hoche                    75008 Paris    France,https://www.legal500.com/wp-content/uploads/assets/client/firm_logo/13597.jpg?v=1580315459, AyacheSalama ,,contact@ayachesalama.com,PREMIERE LIGUE;LIGUE NATIONALE DE RUGBY;FEDERATION FRANCAISE DE RUGBY;UCPR;PARIS SAINT GERMAIN;CLASSICO SPORTS;XL SPORT;LOUIS KAWAY TOUTIN;LIGUE NATIONALE DE BASKET;DAVID LUIZ;DEMBA BA;RAPHAEL VARANE;GAEL KAKUTA;LASSANA DIARRA;HOUSSEM AOUAR;PARIS VOLLEY;TOULOUSE FOOTBALL CLUB;FC LORIENT;GIRONDINS DE BORDEAUX;IDEMIA;Lagardère Active;Ceetrus;UGC;ICG (Intermediate Capital Group);Azulis Capital;Consolis;AUREL BGC;Groupe Soufflet;Eurotitrisation;Picard;Clarins;Galeries Lafayette;Caisse des Dépôts et Consignations (CDC);Concorde Finance;Tenergie;Intermediate Capital Group (ICG);GIE Notimo;Amplifon;Groupe La Dépêche du Midi (GLDM);Groupe All;Syndicat National de l’Edition (SNE);Laiterie Saint-Denis de l’Hôtel (LSDH);Vinci Autoroute;Lime;SOGARIS;Kapten;Monnaie de Paris;APEX 2100;CDC Habitat;Groupe Duval;Atelier Médicis;Weaving group;Groupe EDH;Grand Paris Aménagement;Eric Kayser;Vixtechnology;SEMAEST;Ministère de la transition écologique;CRH;Battiston-Violea;Eversheds Sutherland;Boltenko Law;Courcheland;Penningtons Manches Cooper, Caroline André-Hesse;Mr Bernard Ayache ;Mr David Ayache ;Mr Michel Ayache ;Mrs Sandrine Benaroya ;Mrs Linda Bessa ;Mrs Justine Coret ; Gwenaëlle De Kerviler;Mr Bruno Erard ; Frédéric Fuchs;Mrs Fleur Jourdan ;Mr Alain Levy ;Mr Jacques Messeca ;Mrs Marie Pouget ;Mr Denis Salama ;Mr Olivier Tordjman ;Mr Grégoire Zeitoun , 33 1 58 05 38 05,Jacques Messeca;Caroline André-Hesse;Justine Coret;Michel Ayache;Frédéric Fuchs;Fleur Jourdan;Bruno Erard;Jacques Messeca,https://www.ayachesalama.com
Bredin Prat    53 QUAI D'ORSAY        75007 PARIS                France,https://www.legal500.com/wp-content/uploads/assets/client/firm_logo/10088.jpg?v=1580315445, Bredin Prat ,,info@bredinprat.com,Airbnb;Areva / Orano;Bayer/Monsanto;Cerba Healthcare;Coty;Covea;Danone;Delfin;Domino’s Pizza;Euronext;Foncia;Ineos;Legrand;Philips;Rothschild & Co;Steelcase;Technicolor;Uber;Wendel;Bridgepoint;DS Smith;ENGIE;Equistone Partners Europe;Fincantieri;Iliad;Ineos;Latécoère;LVMH;Motorola Solutions;Promontoria (My Money Bank);Ramsay Générale de Santé;Saint-Gobain;Tata Steel;Uber;Zodiac Aerospace;Apple;beIN Sports;Coca-Cola;Danone;EDF;Johnson & Johnson;LVMH;Orange;Saint Gobain;Uber;Unilever;Axa;Crédit Mutuel;Eiffage;ENGIE;Iliad;Natixis;Ramsay Générale de Santé;Saint-Gobain;Technicolor;Ubisoft;Axa;BPCE;Carrefour;Covivio;Danone;Iliad;LVMH (Groupe Arnault);Microsoft;Mylan;Peugeot (PSA Group);Saint Gobain;ADEME;CCI Paris Île-de-France;COJO Paris 2024 (Organizing Committee for the Olympic Games of Paris 2024);Danone;Eiffage;Lagardère;Ørsted;PSA Group (Peugeot Citroën);RTE;Uber;Aegide Domitys;Alstom;Apax;Axa;Cojo 2024;Crédit Agricole;Equistone Partners Europe;Fnac Darty;Iliad;Ramsay Générale de Santé;Ubisoft;Agence des Participations de l’État;Air Liquide;Carrefour;Delachaux Group;Direct Energie;EDF;Investissements PSP;KKR;PSA Group;Ramsay Générale de Santé;Ubisoft;Amer Sports Corporation;Aviva;Delsey;DHL;Fradim;Jaccar Holding;Jennyfer;Keolis;Liberty Steel;Senior creditors of Fraikin;St Mamet;TDF;Apax France;Blackstone;Bridgepoint Capital;Carlyle;Dentressangle Initiatives;Eurazeo;Five Arrows;KKR;Tethys Invest;Wendel;Aegide Domitys;Ingenico Group;Ubisoft;UC Rusal;The Republic of Croatia;The Arab Republic of Egypt;The Lebanese Republic,Mr Yann Aguila ;Mr Suhaib Al Ali ;Ms Céline Allignol ;Ms Karine Angel ;Ms Julia Apostle ;Ms Anne-Sophie Arbide-Vignarte ;Mr Mathieu Arnault ;Mr Olivier Assant ;Mrs Elena Baxter ;Mr Calmann Bellity ;Ms Julia Benke ;Mr Philippe Beurier ;Ms Jenyfer Bianchi ;Mr Olivier Billard ;Mr Alexander Blackburn ;Ms Marine Blottiaux ;Ms Charlotte Bonsch ;Mr Florian Bouaziz ;Mr Yoann Boubacir ;Mr Nicolas Bouffier ;Mr Jean-Damien Boulanger ;Mr Pierre-Marie Boya ;Mr Jean-Denis Bredin ;Mr Jean-Daniel Bretzner ;Ms Charlotte Buxtorf ;Mr Hugues Calvet ;Mr Victor Camatta ;Ms Giulia Carbone ;Ms Clémence Carlier ;Ms Magali Carosso ;Mr Timur Celik ;Ms Douceline Chabord ;Mr Edouard Chaney ;Ms Jessica Chartier ;Mr Yohann Chevalier ;Ms Caroline Combes ; Jérôme Cordier;Ms Sophie Cornette de Saint Cyr ;Mr Barthélémy Courteault ; Raphaële Courtier;Mr Shane Daly ;Mr Samuel Daniau ; Sébastien De Monès;Mr Louis Christophe Delanoy ;Mr Jean-Benoît Demaret ;Mr Simon Dereix ;Mr Romain Dethomas ;Mr Eric Dezeuze ;Ms Aliénor Dony ;Ms Eve Duminy ;Mr Raphaël Dumontet ;Mr Pierre-Henri Durand ;Mr Patrick Dziewolski ;Ms Myriam Epelbaum ;Ms Laura Fadlallah ; Clémence Fallet;Ms Rochanak Farhadian ; Raëd Fathallah;Ms Léa Francis ;Mr Jean-Baptiste Frantz ;Mr Guillaume Froger ;Ms Laura Gabay ;Mr Cyril Gaillard ;Ms Zélie Gani-Fior ;Mr Maxime Garcia ;Mr Hugues Gascon ;Ms Emilie Gatineau ;Mr Julien Gayral ;Ms Marion Genova ;Ms Margaux Goetz-Nectoux ;Mr Louis Gosset ;Mr Damien Goutte ;Mr Pierre Goyat ;Mr Paul Guillemin ;Mr Geoffrey Gury ;Ms Clémentine Hébrard ;Ms Florence Haas ;Mr Arthur Helfer ; Pierre Honoré;Mr Martin Horion ;Mr Aurélien Jolly ;Ms Lora Jouault ;Ms Karin-Amelie Jouvensal ;Ms Anne Jussiaux ;Mr Benjamin Kanovitch ;Ms Nadira Kayouech ;Mr Alexandre Koenig ;Ms Veronika Korom ;Mr Sung-Hyuk Kwon ;Ms Pascale Lagesse ;Mr Simon Lange ;Mr Vincent Langenbach ;Ms Alice Latour ;Mr Nicolas Laurent ;Mr Antoine Le Bihan ;Ms Nathalie Legendre ;Mr Jean Leroy ;Mr Denis Liberatoscioli ;Ms Lucille Lopez ;Ms Chloé Méléard ;Ms Marion Méresse ;Ms Irene Madero ;Mr Jean-Florent Mandelbaum ;Ms Nolwenn Mandon ;Ms Béna Mara ;Ms Océane Margaron ;Ms Flora Marinho ;Mr Didier Martin ;Mr Emmanuel Masset ;Mr Alexandre Michel ;Ms Laura Montagnier ;Mrs Alice Mony Decroix ;Mr Franck Morhain ;Mr Simon Moysan ;Mr Alexandre Orts ;Mr José María Pérez ;Ms Françoise Panel ;Ms Mathilde Paquelier ;Mr Samuel Pariente ;Ms Aurélie Patrelle ;Mr Guillaume Pellegrin ;Ms Camille Petiau ;Ms Anaïs Pinton ;Mr Tim Portwood ;Mr Matthieu Pouchepadass ;Ms Valentine Pouyet ; Sébastien Prat;Mr Thomas Priolet ;Mr Olivier Puech ; Marie-Cécile Rameau;Ms Kathy Ribeiro Leite ;Mr Alexandre Ricat ;Mr Philippe Rios ;Mr Lionel Ripamonti ;Mr Gaël Rivière ;Ms Anne Robert ;Mr Pierre-Marie Roch ;Mrs Kate Romain ;Ms Juliette Roquette ;Mr Yves Rutschmann ;Mr Olivier Saba ;Mr Robert Saint-Esteben ;Mr Julien Sanciet ;Mr Richard Schepard ;Ms Isabelle Schmitt ;Ms Alexandra Schoen ;Mr Jean Senard ;Mr Edouard Sicot ;Ms Mathilde Sigel ;Mr Adrien Simon ;Ms Morgane Sirodot ;Mr Adrien Soumagne ;Ms Karine Sultan ;Ms Aude Sybillin ;Ms Lilia Tissegtelt ; Laetitia Tombarello;Ms Yelena Trifounovitch ;Mr Guillaume Vatin ;Mr Tom Vauthier ;Mr Florent Veillerobe ;Mr Romain Verzini ;Ms Jing Wei ;Ms Marina Weiss ;Ms Dingyi Yu ;Mr Hadrien de Lauriston ;Ms Victoire de Ménonville , 33 1 44 35 35 35,Jean-Daniel Bretzner;Florian Bouaziz;Sébastien Prat;Guillaume Pellegrin;Ève Duminy;Sébastien Prat;Eric Dezeuze;Didier Martin;Jean-Daniel Bretzner;Guillaume Pellegrin;Eric Dezeuze;Pascale Lagesse;Hugues Calvet;Olivier Billard;Marie-Cécile Rameau;Yelena Trifounovitch;Pierre Honoré;Olivier Assant;Sophie Cornette de Saint Cyr;Patrick Dziewolski;Clémence Fallet;Florence Haas;Benjamin Kanovitch;Matthieu Pouchepadass;Sébastien Prat;Kate Romain;Yves Rutschmann;Yann Aguila;Raphaële Courtier;Olivier Saba;Nicolas Laurent;Olivier Puech;Raphaële Courtier;Louis-Christophe Delanoy;Raëd Fathallah;José María Pérez;Tim Portwood,http://www.bredinprat.com
Baker McKenzie    1 RUE PAUL BAUDRY        75008 PARIS                France,https://www.legal500.com/wp-content/uploads/assets/client/firm_logo/50079.jpg?v=1580315523, Baker McKenzie ,,sandra.valmier@bakermckenzie.com,BNP Paribas (BNPP);Covage;CMA CGM;Evernex;IES Synergy;Roquette;SODEXO;Valeo;Abbott Laboratories;Bristol-Myers Squibb;British American Tobacco;Caudalie;Church & Dwight;Culture et Patrimoine;Groupe Beaumanoir;HRA;Intel;Kadine;Lancaster;Moët-Hennessy and Société Jas Hennessy & co;Pierre & Vacances Center Parcs;Prince de Galles;SAP;SEB (Group);Sika;Sisley;The Swatch Group;Taiping;Unilever;Accenture;Accor;Air France KLM;Auchan;Bio-Rad;Bristol Myers Squibb;Carrefour;Casino;Club Med;Google;Johnson Controls;LVMH;M6;Pierre et Vacances – Center Parcs;Société Générale;TF1;China International Water & Electric Corporation;Electricité De France (EDF);ADP (Aéroports de Paris);SNCF;Cote d’Azur airport (ACA);Port autonome de Conakry;TDF – Eiffel Tower;African Infrastructure Investment Managers LTD;Conseil Départemental d’Eure-et-Loir;Chelsfield/The Olayan Group;Servier Laboratories;Bristol-Myers Squibb;LSP Life Sciences Partners;LVMH;L’Oréal;QATAR LUXURY GROUP;Archer Daniels Midland;Bristol-Myers Squibb;Casino;Crédit Agricole;Faurecia;LVMH;Platinum Equity;Safran;Siemens;Tencent;Ally Bridge Group;Argos Soditic;Cathay Innovation;Elaia;Idinvest Partners;Ledger;AEW;BNP Paribas;Caisse des dépôts Investissement immobilier;Generali Real Estate;Invesco;King Street;LaSalle Investment Management;Lidl;NH Investment;Poste Immo;Scaprim;Société Foncière Lyonnaise (SFL);SOGECAP;BNP Paribas;Société Générale;Commerzbank;Crédit Agricole;African Export-Import Bank;Bank of America Merrill Lynch;Ardian (formerly AXA Private Equity);Natixis;EBRD (European Bank of Reconstruction & Development);PROPARCO;ACCOR;Cartonplast;Crédit Agricole;Schmolz + Bickenbach;Servier;Stryker;Electricité De France (EDF);Schmolz + Bickenbach;Shell;Archer Daniels Midland;Landis & Gyr,Ms Alyssa Auberger ;Mr Laurent Barbara ;Mr Eric Borysewicz ;Ms Marie-Françoise Bréchignac ; Rémy Bricard;Ms Denise Broussal ;Mr Arnaud Cabanes ; Stéphane Davin; Marie-Laetitia De La Ville-Baugé ;Mr Alex Dowding ;Mr Michael Foundethakis ;Ms Raphaële François-Poncet ;Mr Matthieu Grollemund ;Mr Emmanuel Guillaume ;Mr Gilles Jolivet ;Mr Eric Lasry ;Mr Guillaume Le Camus ;Mr Marc Mariani ;Mr Eric Meier ;Ms Veronique Millischer ; Yann Padova ; Léna Sersiron;Ms Caroline Silberztein ;Mr Laurent Szuskin ;Mr Jean-Dominique Touraille ;Mr Virginie Ulmann ;Mr Olivier Vasset ; Julie Yeni;Mr Alain Sauty de Chalon , 33 1 44 17 53 00,Rémy Bricard;Laurent Szuskin;Rémy Bricard;Laurent Szuskin;Virginie Ulmann;Véronique Millischer;Emmanuel Guillaume;Arnaud Cabanes;Léna Sersiron;Julie Yeni ;Alyssa Auberger;Stéphane Davin;Matthieu Grollemund;Matthieu Grollemund;Stéphane Davin;Marc Mariani;Michael Foundethakis;Eric Lasry;Olivier Vasset;Denise Broussal;Gilles Jolivet;Emmanuel Guillaume;Arnaud Cabanes;Jean-Dominique Touraille;Eric Borysewicz;Eric Borysewicz,https://www.bakermckenzie.com/en/locations/emea/france
"Arsene    32, RUE DE MONCEAU        75008 PARIS                France",https://www.legal500.com/wp-content/uploads/assets/client/firm_logo/11193.jpg?v=1580315451, Arsene ,,francois.lugand@arsene-taxand.com,Oddo BHF;Accenture;Blablacar;Sanofi;EQT Partners;Auchan / Leroy Merlin;LVMH;Kering;SAP France;Pernod Ricard;Tereos;Casino;Criteo;Argos Soditic;Ardian;Air France;Carrefour;Systra SA;Hammerson Plc;M6;Thales;Direct Energie (Total),, 33 1 70 38 88 00,Frédéric Donnedieu de Vabres;Denis Andres;Olivier Vergniolle;Antoine Glaize;François Lugand;Roland Schneider,http://www.arsene-taxand.com
"August Debouzy    6-8, AVENUE DE MESSINE        75008 PARIS                France",https://www.legal500.com/wp-content/uploads/assets/client/firm_logo/13777.jpg?v=1580315460, August Debouzy ,,contact@august-debouzy.com,"Accor;Costco;Danone;Faurecia;JC Decaux;Lagardère;Microsoft;Muji;Philip Morris France;Veolia Environnement;TaskRabbit;Spectral Transactive Memory Systems;SAS Institute;Okta Inc.;Ubisoft;L’Oréal;Olivier Wyman;Intersystems Corporation;Veolia Environnement;Faurecia;Philip Morris France;Microsoft;Total SA  & Total Global Procurement (TGP);Visa;Alkemics;Broadridge;Amadeus;Accor;Huawei;EDF;Alsid;Dassault Systemes;Le Parisien;SNCF;Rondini;Curial;Microsoft;Philip Morris;Ouest france;Sandales Tropezienne Rondini;DASSAULT AVIATION;DASSAULT SYSTEMES;EPSILON COMPOSITE;FRAPPA;FRESENIUS KABI DEUTSCHLAND GMBH;GAZ TRANSPORT ET TECHNIGAZ (GTT);INOBIAN;INVACARE;LABORATOIRE GRIMBERG;MEDTRONIC;RONDINI;SNCF;TENARIS CONNECTION BV (TCBV);TOTAL MARKETING SERVICES (TMS);Le Parisien / Les Echos;Radio France;L’Equipe;Members of Parliament;French anti-doping agency (AFLD);Marcel Campion;University of Lyon 3 Jean-Moulin;Municipality of Laon;Antenne Réunion;Editing;François Thévenot;Teva;Sofibel;LFB (Laboratoire Français du Fractionnement);Laboratoires Septodont;Intuitive surgical;Majorelle;Agence nationale santé publique;Essilor;AP-HP;Danone;Eurofeedback;GE healthcare;Passion beauté;LFB;B Braun;Suez environnement;Medtronic lung health;Stago;Plethora solutions;Valentino;Vestiaire Collective;Yohji Yamamoto;Chopard;L’Oréal;Louboutin;Chubb Insurance Company of Europe SE;Allianz Global Corporate & Specialty SE;Victims of PIP;AXA XL;Siaci Saint Honoré;Bessé;Marsh;SYSTRA;SNCF;Microsoft;GDE;SPIE Batignolles IDF;Nike;Olympique de Biarritz;L’Usine;Mr. Ghani Yalouz;Agence Française de Lutte contre le Dopage;LOSC (Lille Olympique Sporting Club);Amer Sports Corporation;Veolia;Philip Morris;Microsoft;Total;Thales;EDF;GE Healthcare;SNCF;SNCF Réseau;SNCF Mobilités;RATP;Philip Morris Group;Groupe SPR;Montroyal Immobilier;VEOLIA EAU;GDE Groupe Ecore;Rayonier AM;Eolien en Mer Participations;EDF;Total;SNCF;ENEDIS;Novacap;EDF;ENEDIS;Rayonier;CDC;CGN (China General Nuclear Power) Energy Europe;CNR;Total;Lucia Holding/Quadran;Commissariat à l’Energie Atomique;ENGIE;Desautel;VGRF;SKTB ALUMINIUM;Chambre de Commerce et d’Industrie de Métropolitaine de Brest Ouest;ARISTOPHIL;LABORATOIRES PROTEC;THALES SIX GTS France;SVOMENGO;SOCIETE ARDENNAISE DE MENUISERIE, BOIS ET PLASTIQUE;Groupe NOX;PRIVINVEST;LOSC (Lille Olympique Sporting Club);ISTC CARDIOLOGY;QUANTUM –ADUX;DASSAULT AVIATION;DESAUTEL;TRILLIUM;VOODOO;B. BRAUN MEDICAL;NOVASEP;AIRBUS;VESTIAIRE COLLECTIF;Dassault;Thales;Total;Orange;Caisse des dépôts et consignations;Covea;InfraVia Capital Partners;Commissariat à l’énergie atomique et aux énergies alternatives (CEA);Raise;Meridiam;Argos Wityu;Exane;Egis;Spirax Sarco;BIC;General Ramsay;Lucia Holding;Boehringer Ingelheim;Laboratoire Majorellle;I Squared Capital;Argos Wityu;Raise Investissement;Merdiam;Swiss Re;Groupe La Maison Bleue;Infravia Capital Partners;Quadran;The Klesch Group;Caisse des dépôts et consignations;SIA Partners;Ecore-GDE;BPI;Bridgepoint;Cathay Capital;I Squared Capital;5M Ventures;ABF;Bijoux Burma SAS;Botify;Cathay Capital;Charles River;Compagnie D’Affretement et De Transport;Covea;CPI Global;Devoteam;Executive Channel International Pty Ltd;Eyrolles;GDE Ecore;Ipsos;IST Cardiology;Laboratoires Grimberg;Liu Jo;Losc;Labvantage Limited;La Maison Bleue;Micropole;Ogury Ltd;Galerie Perrotin;Robeco France;SIA Partners;Siemens AG;Staples;Thibierge & Comar SA;TNP Consultants;Trigano;Valtech;XMCO Partners;Yohji Yamamoto", Basile Ader ; Julien Aucomte ; Gilles August ; Emmanuelle Barbara ; Marie-Hélène Bensadoun; Alexandra Berg-Moussa ; Vincent Brenot ; Jérôme Brosset ; Bernard Cazeneuve ; Florence Chafiol ; Renaud Christol ; Alexandra Cohen-Jonathan ; Laurent Cotret ; Marie Danis ; Valéry Denoix de Saint Marc ; Pierre Descheemaeker ; Grégoire Desrousseaux; Virginie Devos ; Philippe Durand ; Fabienne Haas ; Catherine Le Manchec ; Philippe Lorentz ; Eric Manca ; Emmanuelle Mignon ; Astrid Mignon Colombet ; François Pochart; Anaïs Qureshi; Mahasti Razavi ; Xavier Rohmer ; Julien Wagmann ; Benjamin van Gaver , 33 1 45 61 51 80,Florence Chafiol;Emmanuelle Barbara;Mahasti Razavi;Florence Chafiol;Mahasti Razavi;Basile Ader;Grégoire Desrousseaux;François Pochart;Basile Ader;Mahasti Razavi;Florence Chafiol;Alexandra Berg-Moussa;Bernard Cazeneuve;Benjamin van Gaver;François Pochart;Alexandra Cohen-Jonathan;Grégoire Desrousseaux;Mahasti Razavi;Alexandra Berg-Moussa;Florence Chafiol;Xavier Rhomer;Marie-Hélène Bensadoun;Fabienne Haas;Alexandra Cohen-Jonathan;Alexandra Berg-Moussa;Basile Ader ;Vincent Brenot;Emmanuelle Mignon;Marie Danis;Benjamin van Gaver;Benjamin van Gaver;Marie Danis;Basile Ader;Astrid Mignon Colombet ;Vincent Brenot;Emmanuelle Mignon;Vincent Brenot;Jérôme Brosset;Julien Wagmann;Laurent Cotret;Grégoire Desrousseaux;Véronique Dahan;Gilles August;Julien Aucomte;Julien Wagmann;Jérôme Brosset;Pierre Descheemaeker;Valéry Denoix de Saint Marc;Julien Aucomte;Julien Wagmann;Xavier Rohmer;Philippe Lorentz;Xavier Rohmer;Philippe Lorentz;Marie Danis,https://www.august-debouzy.com
Arendt &amp; Medernach    10 RUE DE CASTIGLIONE        75001 PARIS                France,https://www.legal500.com/wp-content/uploads/assets/client/firm_logo/10023.jpg?v=1588159293, Arendt & Medernach ,,gregory.beltrame@arendt.com,, Vincent Mahler , 33 01 40 15 28 94,,https://www.arendt.com
Aramis    9 RUE SCRIBE        75009 PARIS                France,https://www.legal500.com/wp-content/uploads/assets/client/firm_logo/14789.jpg?v=1580315466, Aramis ,,contact@aramis-law.com,Alliance Renault Nissan Mitsubishi;Wirecard Group;Carrefour Group;Crédit Agricole SA;Vallourec SA;Groupe Rocher;Natixis Payment Solutions;Paylib;Sodexo Mobility & Expense;Dentsu Aegis Media;Teoxane;Belmoca;Enyx;Eiffage;Sedis Logistics;Tereos;INRIA;Gewiss;Banque Public d’investissement;Keolis;RATP Dev;Syndicat mixte Autolib’;Carestream Health;Government of French Polynesia;Office des postes et télécommunications de Polynésie française;SNCF Mobilités;Ville de Paris;Tunnel Euralpin Lyon Turin;Cromology;Citelum;Firmenich;Gepsa;Emovis;Sphere Sante;Décoral;Télio;Egis Airport;Tahiti Nui Telecom;Carrefour;Tahiti Nui Aménagement & Développement;Groupement du Mur Manteau;Sabena Technics;Spideo;Eau et Feu;Engie Iris;BIC France;Natixis;Cromology;Henkel;Kimberly Clark;Dyson;Hermes;Beyersdorf;Carrefour;Hasbro;HJ Heinz;LIDL;Verweij Fashion;Eiffage;Spie Industry &Tertiaire;Maison des Fleurs;Halal Supply;Sarepta;Gaillard Rondino;Constellation Brands;National Fitness Campaign;Manzanita Capital UK;Vinci Construction;MF Distribution;Unique Héritage Média,, 33 1 53 30 77 00,Benjamin May;David Roche;Benjamin May;Etienne Amblard;Cédric de Pouzilhac;Aurélien Condomines;Benjamin May;Aurélien Condomines;Benjamin May,https://www.aramis-law.com
Archers A.A.R.P.I.    28 RUE DUMONT D'URVILLE        75116 PARIS                France,https://www.legal500.com/wp-content/uploads/assets/client/firm_logo/14506.jpg?v=1580315463, Archers A.A.R.P.I. ,,chubert@archers.fr,Colony Capital;Aareal Bank;Ares Management;SCOR (Debt Funds);Qatar Investment Authority;Accor Hotels;Redevco;Crédit Agricole CIB;Amundi;Natixis;Invesco;AEW (Debt Funds);Meyer Bergman;Helaba;Lonestar;Even Capital;LFPI;Alantra;Weinberg Capital Partners;Visvires Capital;beIN Sports France;Capelli Promotion;Domino’s Pizza France;Amcor Group GmbH;Transdev Group;RedPill;COLONY CAPITAL;LUDENDO (Grande Récré);SOITEC;BINDEWALD und GUTTING VERWALTUNGS GmbH;Aareal Bank;Accor Hotels;Acofi (Debt Funds);AEW (Debt Funds);Cheyne Capital Management;Crédit Agricole CIB;Colony Capital;Helaba;Natixis;Deutsche Pfandbriefbank Aktiengesellschaft (PBB);SCOR (Debt Funds);Société Générale,, 33 1 45 02 07 07,Jean-Maurice Gaillard;Paul-Henri de Cabissole;Arnaud Moutet;Antony Martinez;Fabrice Patrizio;Jean-Maurice Gaillard;Paul-Henri de Cabissole,http://www.archers.fr/en
Darrois Villey Maillot Brochier    69 AVENUE VICTOR HUGO        75116 PARIS                France,https://www.legal500.com/wp-content/uploads/assets/client/firm_logo/10140.jpg?v=1580315446, Darrois Villey Maillot Brochier ,,firstinitialsurname@darroisvilley.com,Véolia;Matra Défense;bioMérieux;XPO Logistics;Fidal;Bouygues;XPO Logistics;EDF;Oberthur Technologies;Sanef;La Banque Postale;Danone;Casino;Accor;Airbus;Amazon;Axel Springer;Bonduelle;Bouygues;British Steel;Casino;Caisse des dépôts et consignations;Cofepp/La Martiniquaise;Daimler;Danone;EDF;French State;JCDecaux;Kelkoo;Kering;La Poste;Les Echos;Michelin;Neopost;Publicis;Unibail-Rodamco-Westfield;Valeo;Venteprivée.com;Vivendi;Walgreens Boots Alliance;Warner;Rallye SA;Modacin France SAS;COFEPP;Liquidators of Sequana group and Arjowiggins Group;Liquidators of Toys”R”Us;British Steel /Greybull Capital;Canadian GeneralTower;Bondholders of Ludendo;Pathé group;Alquenry group;Groupe Bernard Tapie;XPO Sarenza;Vivendi;Valeo;Unibail-Rodamco-Westfield;Baccarat;BPCE;Casino;TechnipFMC;Kering;Fimalac;Europcar;Natixis;GreenYellow;Credit Foncier, Carine Dupeyron, 33 1 45 02 19 19,Jean-Michel Darrois;Emmanuel Brochier;Cyril Bonan;Jean-Michel Darrois;Emmanuel Brochier;Christophe Ingrain;Didier Théophile;Igor Simic ;Henri Savoie ;François Kopf;Vincent Agulhon;Laurent Gautier;Laurent Aynès;Carine Dupeyron;Laurent Gautier,http://www.darroisvilley.com
"Aliénor Avocats    91, RUE DU FAUBOURG SAINT-HONORÉ        75008 Paris                France",https://www.legal500.com/wp-content/uploads/assets/client/firm_logo/231065.jpg?v=1590749543, Aliénor Avocats ,,contact@alienoravocats.com,VINCI;EIFFAGE, Hélène Bourgine; Anne-Sophie Goapper , 33 1 56 26 59 10,Hélène Bourgine;Anne-Sophie Goapper,http://www.alienor-avocats.com/
Aceris Law    72 RUE DU FAUBOURG SAINT HONORE        75008 PARIS                France,https://www.legal500.com/wp-content/uploads/assets/client/firm_logo/18555.jpg?v=1582210296, Aceris Law ,,wkirtley@acerislaw.com,,, 33 1 86 26 63 20,William Kirtley,http://www.acerislaw.com
Abello    9 RUE ANATOLE DE LA FORGE        75017 PARIS                France,https://www.legal500.com/wp-content/uploads/assets/client/firm_logo/17741.jpg?v=1593184955, Abello ,,avocats@loyerabello.fr,SFR;Manitou BF;GTT;NOKIA;Delphi;Felco;EFS (Etablissement français du sang);Kerlink;CITEL;Betapack,, 01 45 82 60 80,Michel Abello,https://www.loyerabello.fr
"Almain    240 BIS, BOULEVARD SAINT-GERMAIN        75007 PARIS                France",https://www.legal500.com/wp-content/uploads/assets/client/firm_logo/17986.jpg?v=1580315488, Almain ,,contact@almain.fr,Econocom;La Poste;La Banque Postale;Société Générale;Bpifrance Investissement;CDC;Groupe EPC;Alterway;In Vivo;EDP Renovaveis;Krüger;OpenGate Capital;Jacana Invest;Axens;Vectans Pharma;Platinium Group;Beck Industries;Reed Capital;Brinon Investissement;Maison Options;Cholet Dupont;Perwyn;Argynnis Group (formerly Binar AB);Omnes Capital;Better Collective A/S;Sigma Gestion;Payxpert;Fondis Bioritech;Crédit Agricole SA;Mirabaud Patrimoine Vivant;Golf Digest Online;Scandinavian Tobacco Group A/S;Pivoton Capital;Kol;SoftwareOne;C Evidentia;Jardiland,, 33 1 85 09 12 22,Edgard Nguyen;Cécile Davanne-Mortreux,http://www.almain.fr
DLA Piper    27 RUE LAFFITTE        75009 PARIS                France,https://www.legal500.com/wp-content/uploads/assets/client/firm_logo/908.jpg?v=1580315549, DLA Piper ,,paris@dlapiper.com,"AIRBUS SAS;AIRBUS HELICOPTERS;ALLIANZ GCS;AXA XL;CHINA EASTERN AIRLINES;LA REUNION AERIENN;ROCKWELL COLLINS;LATECOERE;Accor Hotel;Airbus;Atos;ATR;Associated Press;Capgemini;HCL;Infor;JC Decaux;LVMH;Michelin;Pierre Fabre;Sanofi;Sopra-Steria;Thom Europe;Adobe;Arconic;Associated Press;AXA Technology services;CareFusion;Citibank;Dyson;EasyJet;Fichet;IHG;Levi-Strauss;Lime;London Stock Exchange;Microchip;MoneyGram;OpenGate Capital;SThree;Technip;Allianz Group;AXA Group;Tokio Marine;Wells Fargo;SCOR;ACE INA Holdings Inc.;Generali;AIG Europe;MS Amlin Insurance SE;La Reunion Aerienne;RSA UK;Liberty Insurance;Zurich Insurance plc;Chubb;Aon;Sogelife;Marsh;Munich Re;Andera Partners;Bridgepoint;Capzanine;Carlyle;Eurazeo;Hivest Capital Partners;Montefiore Investment;PAI Partners;Rothschild & Co;Tikehau Capital;AERMONT;AEROPORTS DE PARIS;AG2R LA MONDIALE;AMUNDI;AXA REAL ASSETS IM;AXA REIMIM;BARINGS EUROPEAN CORE PROPERTY FUND GP S.À R.L.;BAYERISCHE LANDESBANK;THE BLACKSTONE GROUP INTERNATIONAL PARTNERS;BROOKFIELD;CAPGEMINI;CARLYLE;CBRE GLOBAL INVESTORS;CEGEREAL;DEUTSCHE PFANDBRIEFBANK;DTZ INVESTORS;EUROSIC;GAZELEY;GENERALI REAL ESTATE;GIM;HARRISON STREET;HILTON;IVANHOE CAMBRIDGE;NORGES BANK;NORTHWOOD;OMNAM GROUP;PREDICA;PRIMONIAL;PROLOGIS;SCHROEDERS;SOCIÉTÉ GÉNÉRALE;SOGELYM DIXENCE;TELECITYGROUP;UNIBAIL-RODAMCO;WEINBERG CAPITAL;WEWORK;WOODEUM;Alteo Gardanne;Deme Concessions Wind;FII Co. and Warwick Capital Partners LLP;Free Mobile-Iliad;Gaz de Bordeaux;Meridiam and the consortium;Red Electrica de España (REE);Republic of Guinea;Total;ACOSS;Région Occitanie;Région Normandie;Vinci Construction;Bouygues Construction;Eiffage Concessions;Crédir Foncier de France;Skyrock;Ville de Paris;Engie Cofely;La Ciotat Shipyards;Société Générale;Abénex;Ares Management;Barings Global Advisers Limited;BPI France;Bridgepoint;Capzanine;Carlyle Group;Crédit Industriel and Commercial;Eurazeo;Evernex group;ICG;Idinvest;Industry Capital;LBO France;LFPI;Maltem Consulting Group;Montagu Private Equity;Montefiore Investment;Pemberton;Airbus entities;Atlantique Telecom SA;Compass Group;Democratic Republic of Congo;DS2 and the De Sutter brothers;Interpol;Republic of Guinea;Republic of Hungary;Republic of Kenya;Republic of Moldova;Vodacom entities;Glennmont Partners;Mirova-Eurofideme 3;Valeco;Deme Concessions Wind;Crédit Foncier de France (CFF);Conquest Asset Management;BNP Paribas;Gaz de Bordeaux;Total;Becton Dickinson;Danaher;Essilor;European Council;Filorga;Innothera;IQVIA;Nordic Pharma;Pierre Fabre;Qualcomm Life – Capsule;Roche;Sanofi;Santen Pharmaceutical;Seaspine;Servier;West Pharmaceutical Services;Nintendo;Sodexo;MCDONALD’S Group;B&B Hotels;IRO;ATR (a subsidiary of airbus);Conair Babyliss;Essilor International;HOTEL GEORGE V;EPO Fashion Group (MO&CO);Associated Press;ALPINESTARS;Coca-Cola;City of Deauville;CFA;Studio Antti;BASF;Cube Infrastructure;Managers;Adobe;Fosun International;Limited;Laboratoire Garancia;ALD, subsidiary of Société;Générale;Lactalis Group;Webhelp;AON Holdings France;Vodafone;Prima Solutions Holding;Atos;Worldline;SopraSteria;Groupe Homair Vacances;Link Mobility;Wallix;Name of Client;SNCF Mobilités;Meridiam;Banco Sabadell;Engie;Chambre de commerce et d’industrie (CCIR) Hauts-de-France/Egis Airport;Ardian;Sagard;Access Capital Partners;Infravia Capital Partners;Meridiam;Blackfin;Cathay;Bpifrance;Apax Partners;21 Investment;Bridgepoint;Rothschild & Co (Merchant Banking);Abénex;Antin Infrastructure Partners;Artémis / Financière Pinault;Cerea;LGT Capital Partners;Naxicap;Tikehau;Ekkio;Carlyle;Société Générale;Sparring Capital;Generali;Andera Partners;Eurazeo PME;Barings;Real IS;AIG;Airbus Helicopters;Airbus SAS;ALGECO;Allianz Global Corporate & Speciality (France);ATR;AXA;Generali;Rockwell Collins;RSA Royal & SunAlliance;Tokio Marine;ECOLAB;GUERBET;ATOS WORLDLINE;CRITEO;BRIDGEPOINT;CAISSE DES DEPOTS ET CONSIGNATIONS;MICHELIN;AMUNDI;GROUPE LOUIS WANE;JOA", Marine Lallemand ; Vonnick Le Guillou ; Denise Lebeau-Marianna; Stéphane Lemarchand; Théobald Naud;Mr Sébastien Praicheux; Jonathan Rofé;Mr Gregory Tulquois ; Sylvie Vansteenkiste, 33 1 40 15 24 00,Vonnick Le Guillou;Jonathan Rofé;Jonathan Rofé;Philippe Danesi;Vonnick Le Guillou;Benjamin Aller;Julien Vandenbussche;Xavier Norlain;Jeremy Scemama;Antonia Raccat;Olivia Michaud;Antoine Mercier;Myriam Mejdoubi;Erwan Lacheteau;Lionel Rosenfeld;Jérôme Pentecoste;Pascal Martin;Maud Manon;Fabien Ganivet;Michael Ostrove;Alexander Brabant;Eric Villateau;Sonia de Kondserovsky;Jonathan Rofé;Jeremy Scemama;Xavier Norlain;Eric Villateau;Jérôme Pentecoste;Fanny Combourieu;Vonnick Le Guillou;Edouard Sarrazin,https://www.dlapiper.com
"Actance    152 BIS, RUE DE LONGCHAMP        75116 PARIS                France",https://www.legal500.com/wp-content/uploads/assets/client/firm_logo/16958.jpg?v=1580315480, Actance ,,societe@actanceavocats.com,Publicis;Schneider Electric;Nexity;Henkel;Lagardère;Natixis;BPCE;Crédit Agricole;Euralis;Ecolab;Unibail-Rodamco;Thales;Gemalto;Rémy Cointreau;Dassault Systèmes;Elior;Alten;Proservia;MetLife;BT;ERAM,, 33 1 44 94 96 00,Franck Blin;Eliane Chateauvieux;Philippe Chapuis;Pierre-Alexis Dumont;Laurent Jammet;Emeric Sorel;Loïc Touranchet;Lucie Vincens;Jean-Michel Renucci,https://www.actanceavocats.com
Dentons    5 BOULEVARD MALESHERBES        75008 PARIS                France,https://www.legal500.com/wp-content/uploads/assets/client/firm_logo/895.jpg?v=1580315548, Dentons ,,paris@dentons.com,"ALTAREA;CAISSE DES DEPOTS ET CONSIGNATIONS;COMPAGNIE DES ALPES;EIFFAGE;EOLFI;ETABLISSEMENT PUBLIC CAMPUS CONDORCET;IZIVIA;METROPOLE DE LYON;MINISTRY OF ECOLOGICAL AND INCLUSIVE TRANSITION;RATP DEVELOPPEMENT;SCHUEPBACH ENERGY LLC;STIF;UNIVERSITE PARIS-SUD;VINCI;ABBVIE;ABENEX;ACTAVIS/ALLERGAN/WARNER CHILCOTT;ALCON;APRICUS BIOSCIENCES;APTAR;ASAHI INTECC;AVALUN;BAUSCH + LOMB;BIOCODEX;BIOTRONIK France SAS;BOIRON;BOSTON SCIENTIFIC SAS;BPI FRANCE;BRISTOL-MYERS SQUIBB (BMS);CAPSUGEL;CELGENE INTERNATIONAL;CORREVIO INTERNATIONAL SARL;DANONE;DENTSPLY SIRONA;ESSLING CAPITAL;EXPANSCIENCE LABORATOIRES;FUJIFILM;GENETHON;GILDE HEALTHCARE;GILEAD;GOJO INDUSTRIES INC;HORUS PHARMA SAS;HRA PHARMA;IMCHECK THERAPEUTICS;IMV TECHNOLOGIES;IPSEN;JOHNSON & JOHNSON;KYOWA KIRIN PHARMA;LABORATOIRES THEA SAS;LACTALIS;LEEM;MARTIN DOW;MEDDAY PHARMACEUTICALS;MEDIDEV SENTECH FRANCE;MUNDIPHARMA;ORION CORPORATION;PFIZER;PIERRE FABRE;RECORDATI;REVLON;ROCHE SAS/ROCHE DIAGNOSTICS FRANCE;SERVIER;SNITEM;TAKEDA;TBR DENTAL GROUP;THERMO FISHER/LIFE TECHNOLOGIES;VALEANT;VERDOSO;ZENTIVA / SANOFI ZENTIVA;LABORATOIRE THEA;Alpargatas (Havaianas);CGI;Claranova (Freeprints);Delta Airlines;Lactalis;MERIAL;Polaroid;Sandoz;Schneider Electric/Euronegoce;Singapore Airlines;Square, Inc;BPCE;Caisse des dépôts et consignations (CDC);Charterhouse Capital Partners;Credit Suisse;Ellipse Project Consulting;European Federation of Energy Traders;Hello Paris (RATP & Keolis);HSBC;Natixis;Société Générale;Vinci;Aktivco;Caisse des Dépôts et Consignations (CDC);EOLFI;RATP Dév. + Keolis;Suez;Vinci;Dries Van Noten;Lancel;Ricardo Tisci;Raf Simons;CNRS;ICT;Polaroid;African Infrastructure Investment Managers (AIIM);Camusat/Aktivo;Eiffage;French foundation “Campus Condorcet”;Hummingbird Resources;Inframed;Meridiam;Quercus;Vinci Airport;BNP Paribas;CACEIS Bank;Charterhouse Capital Partners;Chenavari / AREO II S.à r.l.;Crédit Agricole Corporate and Investment Bank;Faurecia;Inframed;Interflora;Keolis / RATP Dev.;Natixis;Société Générale;Vinci Airports;Vinci Construction France;Blusun;Bouygues;Customs & Tax Consultancy;Future Pipe International;Gazprom;Government of Australia;Government of the People’s Republic of China;GPF GP Sarl (Luxembourg) (Griffin);Misen Enterprises;Mr Viorel Micula;Niko Resources (Bangladesh) Ltd;OmniTRAX;Silver Ridge Power;LUNDBECK;Brand & Consumer Technologies;ELROND NPL 2017, SRL;GIBSON;SINEQUANONE;Wilmington Savings Fund Society;Aventicum Real Estate;Cromwell Property Group;ALTAREA COGEDIM;ARGAN;BNP PARIBAS REIM FRANCE;DEKA IMMOBILIEN GMBH;EUROPA CAPITAL LLP;LASALLE INVESTMENT MANAGEMENT;MARATHON CAPITAL;OAKTREE CAPITAL;ORION CAPITAL PARTNERS;PAREF GESTION;PATRIZIA FRANCE;REDEVCO;SMABTP;STAM EUROPE;STARWOOD CAPITAL;UNIBAIL-RODAMCO-WESTFIELD;VECTURA;AAZ Productions le Matériel Biomédical;City of Nice;HSBC Bank;Nordea Bank Luxembourg;Ramboll;Van Heck Interpieces France;Amrest;Archimed;Arcole Industries;Bayer;Biogaran;BPCE;Dentsply-Sirona;Dries Van Noten;Editions Lefebvre Sarrut;EDF;Généthon;KLS Capital Partners;Lactalis;Lesaffre;Mayr-Melnhof Karton;Nexira;Paref;Piquadro S.p.A.;Pfizer;PSA Group;Servier;Société Générale;Renault;Rio Tinto;Wavestone;Zentiva;AIG;ANV;B2Gold;Biotherm Energy;BNP Paribas REIM;Chateau La Coste / Maybourne Hotels Group;City Mall Group;Enbridge;Federation Internationale De L’Automobile;Groupe SFPI;Ipsen;Katara Hospitality;Laboratoire Thea;Natixis Group;Liberty Mutual;Pierson Capital;Phoenix Tower International;Chanel;Poxel;Quercus Investment Partners;Stonepeak Infrastructure Partners;Tokio Marine HCC;Emil Frey France;Stef;Groupe Maurin;Avis Location de Voitures;Komatsu;Yamaha;Amrest;La Vigie – Maison Bouchard;Marietton Developpement;NGK", Jean-Marc Allix ; Julien Bacus ; Jean-Luc Calisti ; Julie Caussade ; Pascal Chadenet; Aurélien Chardeau ; Anna Crevon-Tarassova ; Katell Déniel-Allioux ; Frédérique De la Chapelle ; Christophe Fichet ; John Flanigan ; Marc Fornacciari ; Jessie Gaston; Olivier Genevois ; Jean-Marc Grosperrin ; Olivia Guéguen; Sandra Hazan ; Jean-Christophe Honlet ; Sévérine Hotellier ; Leila Hubeaut ; Catherine Joffroy ; Pascal Jouannic ; Guillaume Kessler ; Véronique Lagarde; Julien Le Guyader ; Barton Legum ;Ms Isabelle Leroux ; Anne-Laure Marcerou ; David Masson ; Philippe Max ; Frédérique Meslay Caloni ; Audrey Molina; Ralf Nitschke ; Guillaume Panuel ; Pascale Poupelin ; Christine Sévère ; Pascal Schmitz; Maxime Simonnet ; Emmanuelle van den Broucke , 33 1 42 68 48 00,Marc Fornacciari;Jean-Marc Grosperrin;Julien Le Guyader;Anne-Laure Marcerou;David Masson;Julien Bacus;Pascal Jouannic;Ramin Hariri;Leïla Hubeaut;François Chateau;Sandra Hazan;David Masson;David Masson;Marc Fornacciari;Jean-Marc Allix;Jean-Marc Allix;Pascal Jouannic;Philippe Max;Aurélien Chardeau;Jean-Christophe Honlet;Barton Legum;Julie Caussade;Frédérique Meslay-Caloni;Katell Déniel Allioux;Audrey Molina;Séverine Hotellier;Guillaume Panuel;Pascal Schmitz ;Christine Sévère;Aurélien Chardeau;Aurélien Chardeau;Olivier Genevois;Sandra Hazan;Gianluca Calisti;Emmanuelle Van Den Broucke,http://www.dentons.com
Altana    45 RUE DE TOCQUEVILLE        75 017 PARIS                France,https://www.legal500.com/wp-content/uploads/assets/client/firm_logo/14647.jpg?v=1580315464, Altana ,,contact@altanalaw.com,"BOUYGUES CONSTRUCTION;VINCI CONSTRUCTION;SPIE BATIGNOLLES;FAYAT (RAZEL-BEC);VARIOUS BOUYGUES AND VINCI SUBSIDIARIES;SALINI-IMPREGILO;VAN OORD;BOSKALIS;Bastide LE CONFORT Medical;Biofides – Arc Pharma;Doctegestion;EURAPHARMA (CFAO GROUP);GE HEALTH CARE;ONXEO;PROCLINIC;Safe orthopaedics;AIRBUS;BASF;BOUYGUES CONSTRUCTION;CHEMETALL;D’AUCY;DO AND CO / HÉDIARD;EUROPE 1;LA BANQUE POSTALE;MOULIN ROUGE;OTEIS;PAGESJAUNES;PFIZER;SONIA RYKIEL;TOUR EIFFEL;Amazon.com (Inc);Amazon Studios;Exacompta – Clairefontaine;Moulin Rouge;Vinci Construction France;Amazon.com (Inc);Amazon Studios;Exacompta – Clairefontaine;Microsoft Corp.;Moulin Rouge;Richemont;Twitter;ARKEMA;BOUYGUES;BOUYGUES TELECOM;HÉDIARD / DO & CO;INTERNATIONAL PAPER;ONXEO;SAINT LOUIS SUCRE;SALINI;SAMSUNG;SCHINDLER;VINCI;AG2R LA MONDIALE;ARKEMA & BOSTIK;BLIZZARD ENTERTAINMENT;CARTE BLANCHE;COVEA;CROSSCALL;DAIKIN;DUCATI;ECOCEM;EURAPHARMA;GUO PEI;IMERYS;LUCKY CART;MATMUT;RENAULT;SAMSUNG;SCHNEIDER ELECTRIC;UGI CORPORATION/ANTARGAZ;VINCI;D’AUCY Group;Orchestra-Prémaman;Concentus (PartGroup);Altarea COGEDIM;Sonia Rykiel;CPI;Le Figaro/Dassault Group;Group BCR;AG2R LA MONDIALE;AIG;APPN (ASSOCIATION POUR LA PREVOYANCE DU PERSONNEL NAVIGUANT);AXA;BNPP;CARDIF;COVEA (MAAF ASSURANCES, MUTUELLES DU MANS ASSURANCES – MMA);KLESIA;MACIF / AESIO;MALAKOFF MEDERIC / HUMANIS;MATMUT;PRIM’ACT;TUTELAIRE;AMAZON.COM (INC);AMAZON STUDIOS;BASTIDE LE CONFORT MEDICAL;COVEA;EDWARDS LIFESCIENCES;EXACOMPTA – CLAIREFONTAINE;HOLWEG;MICROSOFT;MOULIN ROUGE;NETFLIX;ONXEO;RICHEMONT;TWENTIETH CENTURY FOX;TWITTER;VINCI CONSTRUCTION TERRASSEMENT;Bouygues Construction;Bouygues TP;Bouygues SA;ENGIE;AG2R LA MONDIALE;ARTDESK;AZULIS CAPITAL;AIR FRANCE KLM;BNI;CECAB;COVEA (MAAF, MMA, GMF);COMMISSARIAT À L’ENERGIE ATOMIQUE;LIMAGRAIN;GE HEALTH CARE;SANCARE;SCHINDLER;SOPRA-STERIA;SYNOVA (TOTAL GROUP)", Armand Aviges ; Julien Balensi ; Caroline Duclercq ; Guillaume Forbin ; Gilles Gaillard ; Philippe Goossens ; Marie Hindré; Michel Jockey ; Valérie Lafarge-Sarkozy; Christophe Lapp ; Pierre Lubet ; Frédéric Manin; François Muller; Fabien Pouchot ; Mana Rassouli ; Jean-Nicolas Soret ; Jean Philippe Thibault ; Frank Valentin ; Pierre-Gilles Wogue ; Jean-Guy de Ruffray ; Louis des Cars ; Mickaël d’Allende, 33 1 79 97 93 00,Christophe Lapp;Louis des Cars;François Muller;Armand Aviges;Jean-Nicolas Soret;Frank Valentin;Mickaël d’Allende;Pierre Lubet;Pierre Lubet;Jean-Guy de Ruffray;Frank Valentin;Armand Aviges;Pierre Lubet;Jean-Guy de Ruffray;Frank Valentin;Christophe Lapp;Valérie Lafarge-Sarkozy;Julien Balensi;Armand Aviges;Marie Hindré;Frédéric Manin;Jean-Philippe Thibault;Michel Jockey;Pierre-Gilles Wogue;Gilles Gaillard;Valérie Lafarge-Sarkozy;Armand Aviges;Pierre Lubet;Jean-Guy de Ruffray;Frank Valentin;Pierre Lubet;Frank Valentin;Jean-Guy de Ruffray;Christophe Lapp;Louis des Cars;François Muller;Christophe Lapp;Caroline Duclercq;Gaillard Gilles;Soret Jean-Nicolas,https://www.altanalaw.com
Alerion    137 RUE DE L'UNIVERSITÉ        75007 PARIS                France,https://www.legal500.com/wp-content/uploads/assets/client/firm_logo/14944.jpg?v=1582215758, Alerion ,,paris@alerionavocats.com,VINCI CONSTRUCTION FRANCE;ARIANE GROUP;SCBSM;Société Générale;ERI,Mr Jacques Bouyssou ;Mr Pierre-Olivier Brouard ;Mr Jean-Christophe Brun ;Mr Stanislas Curien ;Ms Nathalie Dupuy-Loup ;Mr Christophe Gerschel ;Ms Nicola Kömpf ; Gérald Lagier;Ms Sibylle Mareau ;Mr Philippe Mathurin ;Mr Jacques Perotto ;Mr Philippe Pescayre ;Mr Vincent Poirier ;Ms Catherine Robin ;Mr Antoine Rousseau ;Mr Frédéric Saffroy ;Ms Corinne Thiérache ;Mr Stanislas Vailhen , 33 1 58 56 97 00,Philippe Mathurin;Gérald Lagier;Nathalie Dupuy-Loup;Philippe Mathurin;Nathalie Dupuy-Loup;Jacques Perotto,http://www.alerionavocats.com
